N,id_TT,name_TT,address,latitude,longitude,region_tt
1,1,Избенка,"Москва ул. Таллинская, д. 6",55.798333,37.394009,Москва
191,345,191М_Люсиновская36,"Москва ул. Люсиновская, д. 36/50",55.722240,37.621464,Москва
198,352,198М_Трофимова35,"Москва ул. Трофимова, д. 35/20",55.704671,37.684883,Москва
295,476,295М_Волгоградский133,"Москва Волгоградский проспект, д. 133, корп. 2",55.705177,37.771626,Москва
325,515,325М_Черняховского6,"Москва ул. Черняховского, д. 6",55.804207,37.535419,Москва
385,594,385М_МБирюзова19,"Москва ул. Маршала Бирюзова, д. 19",55.794334,37.491081,Москва
414,625,414М_Профсоюзная5,"Москва ул. Профсоюзная, д. 5/9",55.685146,37.571072,Москва
418,629,418М_СМещерская25,"Москва район Куркино, ул. Соколово-Мещерская, д. 25",55.903854,37.384712,Москва
455,667,455М_Профсоюзная104,"Москва ул. Профсоюзная, д. 104",55.641920,37.523456,Москва
490,703,490М_Космодемьянских35,"Москва ул. Зои и Александра Космодемьянских, д. 35/1",55.825330,37.526460,Москва
497,715,497М_Измайловский38,"Москва Измайловский бул., д. 38",55.796430,37.800520,Москва
507,727,507М_Новотушинский10,"Москва Новотушинский проезд, д. 10, корп. 2",55.840493,37.380784,Москва
555,10778,555М_Шолохова15,"Москва район Ново-Переделкино, ул. Шолохова, д. 15а",55.641888,37.345435,Москва
557,10780,557М_Осенний12,"Москва Осенний бульвар, д. 12, корп. 6",55.758341,37.413949,Москва
562,10786,562М_Вернадского39,"Москва проспект Вернадского, д. 39",55.675544,37.505894,Москва
597,10821,597М_Профсоюзная26,"Москва ул. Профсоюзная, д. 26/44",55.678531,37.562677,Москва
599,10823,599М_3Митинский3,"Москва 3-й Митинский переулок, д. 3 + ""ВкусВиллАйс""",55.847461,37.349659,Москва
616,10840,616М_МБирюзова32,Москва ул. Маршала Бирюзова 32,55.799460,37.482947,Москва
640,10864,640М_Проспект_Мира116,"Москва проспект Мира, д. 116",55.808868,37.638011,Москва
650,10874,650М_Щербаковская35,"Москва ул. Щербаковская, д. 35",55.782849,37.729785,Москва
665,10890,665М_Строгинский30,"Москва Строгинский бульвар, д. 30",55.802170,37.406464,Москва
669,10894,669М_Головинское5,"Москва Головинское шоссе, д. 5, корп. 1",55.839794,37.492649,Москва
681,10905,681М_Вильнюсская5,"Москва ул. Вильнюсская, д. 5",55.603756,37.523106,Москва
690,10914,690М_Сокольническая_Площадь4,"Москва Сокольническая площадь, д. 4а",55.789952,37.678541,Москва
697,10925,697М_Зеленый_проспект24,"Москва проспект Зеленый, д. 24г",55.751193,37.789447,Москва
698,10926,698М_Профсоюзная142,"Москва ул. Профсоюзная, д. 142, корп. 1",55.625349,37.508804,Москва
705,10933,705Ш_МТухачевского49,"Москва ул. Маршала Тухачевского, д. 49",55.785113,37.464616,Москва
715,10942,715Ш_Зеленоград1634,"Зеленоград корп. 1634, стр. 3",55.976040,37.157132,Москва
780,11020,780М_Покрышкина7,"Москва ул. Покрышкина, д. 7, корп. 1 + ""ВкусВиллАйс""",55.664604,37.468192,Москва
774,11043,774М_Ленинский37,"Москва Ленинский проспект, д. 37а",55.708587,37.586670,Москва
796,11064,796М_Зел_Яблоневая_аллея2,"Зеленоград Яблоневая аллея, д. 2",55.996213,37.216942,Москва
835,11103,835М_Можайское28,"Москва Можайское шоссе, д. 28",55.720249,37.421364,Москва
844,11112,844М_Братиславская16,"Москва ул. Братиславская,  д. 16, к. 1",55.659358,37.757440,Москва
845,11113,845М_Михалковская4,"Москва ул. Михалковская,  д. 4",55.837404,37.538125,Москва
850,11118,850М_Зеленоград1215,Зеленоград корп. 1215,55.994381,37.190046,Москва
859,11127,859М_Пришвина26,"Москва ул. Пришвина, д. 26",55.884833,37.603753,Москва
860,11128,860М_Широкая12,"Москва ул. Широкая,  д. 12",55.886515,37.659104,Москва
861,11129,861М_Долгоруковская39,"Москва ул. Долгоруковская, д. 39/6",55.778558,37.600747,Москва
863,11131,863М_Расковой12,"Москва ул. Расковой, д. 12",55.786435,37.571390,Москва
864,11132,864Ш_Люблинская171,"Москва ул. Люблинская,  д. 171",55.646914,37.746912,Москва
872,11141,872М_Петрозаводская24,"Москва ул. Петрозаводская,  д. 24А, стр. 1",55.867647,37.493470,Москва
875,11144,875М_Радужная14,"Москва град Московский, ул. Радужная, д. 14, корп. 2",55.589554,37.373069,Москва
880,11149,880М_Уссурийская9,"Москва ул. Уссурийская,  д. 9, корп.1",55.823838,37.818966,Москва
883,11152,883М_ЯнаРайниса2,"Москва бульвар Яна Райниса,  д. 2, корп. 1",55.851050,37.434514,Москва
890,11159,890М_Украинский6,"Москва Украинский бульвар, д. 6",55.747647,37.565048,Москва
891,11160,891М_Ярославское2,"Москва Ярославское шоссе, д. 2, корп. 2",55.852501,37.680320,Москва
896,11166,896М_ЗиАКосмодемьянских4,"Москва ул. Зои и Александра Космодемьянских, д. 4, корп. 2",55.818103,37.502130,Москва
897,11167,897М_Митинская36,"Москва ул. Митинская, д. 36",55.846118,37.363376,Москва
902,11173,902М_Азовская3,"Москва ул. Азовская, д. 3",55.662334,37.605715,Москва
905,11176,905М_Медынская2,Москва ул.Медынская 2к1с2,55.591472,37.646624,Москва
907,11178,907М_Снежная21,Москва ул. Снежная 21,55.854805,37.650918,Москва
910,11181,910М_ГенералаБелобородова11,"Москва ул. Генерала Белобородова, д. 11",55.836452,37.355138,Москва
914,11185,914М_800летМосквы22,"Москва ул. 800 летия Москвы, д. 22, к.2",55.879243,37.556541,Москва
925,11196,925М_Комсомольский38,"Москва Комсомольский проспект, д. 38/16",55.723004,37.575468,Москва
933,11204,933М_Новокузнецкая13,"Москва ул. Новокузнецкая, д. 13 стр. 1",55.737155,37.631792,Москва
940,11211,940М_Ленинградский74,"Москва Ленинградский проспект, д. 74а",55.806940,37.516925,Москва
944,11215,944М_Шипиловский39,"Москва Шипиловский проезд, д.39, корп 2",55.612746,37.697684,Москва
966,11237,966М_МаршалаЗахарова2,"Москва улица Маршала Захарова, 2",55.624027,37.707143,Москва
981,11252,981Ш_Строгинский1,Москва Строгинский бул.1,55.806044,37.395455,Москва
983,11254,983М_Братиславская29,"Москва ул. Братиславская, д.29, корп. 1",55.653797,37.767016,Москва
987,11258,987М_Проспект_Мира40,Москва проспект Мира 40,55.780203,37.633949,Москва
1004,11271,1004М_Менжинского23,"Москва ул. Менжинского, 23",55.869849,37.660314,Москва
1011,11281,1011М_Лестева21,Москва ул.Лестева 21/61,55.714414,37.608526,Москва
1013,11283,1013М_МалГрузинская12,Москва Малая Грузинская 12,55.763797,37.572064,Москва
1019,11289,1019М_Гарибальди23,Москва ул.Гарибальди д.23,55.671498,37.553792,Москва
1020,11290,1020М_Истринская10,Москва ул. Истринская д.10 к.1,55.737010,37.435178,Москва
1026,11296,1026М_Ленинский87,Москва ул. Ленинский проспект 87,55.679428,37.533885,Москва
1031,11301,1031М_Хорошевское68,Москва Хорошевское ш.68,55.778056,37.526483,Москва
1032,11302,1032М_Туристская13,Москва ул.Туристская 13 корп.2,55.849650,37.422225,Москва
1033,11303,1033М_Гризодубовой4,"Москва ул.Гризодубовой, д.4 корп.3",55.784622,37.523177,Москва
1038,11308,1038М_Вишневая2,Москва ул. Вишневая 2/14,55.827257,37.446794,Москва
1039,11309,1039М_Новопеределкинская9,"Москва ул. Новопеределкинская, д. 9а",55.640309,37.366071,Москва
1042,11312,1042Ш_87кмМКАД8,"Москва МКАД 87 км, д. 8, ТЦ Час-Пик",55.898218,37.629874,Москва
1058,11328,1058М_ЗемлянойВал38,"Москва ул. Земляной Вал, д. 38-40/15, стр.9",55.755110,37.656523,Москва
1067,11337,1067М_Тимирязевская19,"Москва Тимирязевская, 19",55.812884,37.566359,Москва
1069,11339,1069М_Южнобутовская113,Москва ул. Южнобутовская д. 113,55.533674,37.517725,Москва
1077,11347,1077М_Карбышева13,"Москва б-р Генерала Карбышева, д. 13, корп. 1",55.781226,37.469602,Москва
1078,11348,1078М_Каширское53,Москва Каширское шоссе 53 к4,55.639344,37.693597,Москва
1082,11352,1082Ш_Зел_корпус234А,Зеленоград корпус 234А,56.002979,37.205776,Москва
1087,11357,1087М_Грекова22,"Москва ул. Грекова, д. 22",55.892006,37.662856,Москва
1089,11359,1089М_МарииУльяновой9,"Москва ул. Марии Ульяновой, д. 9, к. 4",55.680001,37.525432,Москва
1108,11380,1108Ш_Мытная52,Москва ул. Мытная д.52,55.717087,37.618785,Москва
1113,11385,1113М_ЛётчикаУльянина4,"Москва ул. Лётчика Ульянина, д. 4",55.624967,37.306540,Москва
1115,11387,"1115М_Коммунарка_Лазурная,д.3","Москва поселение Коммунарка, ул. Лазурная, д. 3",55.568436,37.473231,Москва
1114,11388,1114М_Воронцовская46,Москва ул Воронцовская д. 46,55.732965,37.663099,Москва
1122,11394,1122М_9Парковая59,"Москва ул. 9-я Парковая, д. 59, корп. 2",55.808063,37.797945,Москва
1126,11398,1126М_Каргопольская18,"Москва ул. Каргопольская, дом 18, стр. 1",55.864480,37.593938,Москва
1132,11404,1132Ш_Зел_корпус834А,Зеленоград корпус 834 А,55.979918,37.176203,Москва
1141,11413,1141М_Сев_Чертаново1,"Москва мкр. Северное Чертаново, д.1А",55.637393,37.600388,Москва
1148,11420,1148М_Багрицкого3,"Москва ул. Багрицкого, д. 3, к. 1",55.723967,37.437173,Москва
1149,11421,1149М_Ярославская11,"Москва ул. Ярославская, д. 11, к. 2",55.818154,37.646651,Москва
1150,11422,1150М_Азовская24,"Москва ул. Азовская, д. 24, корп. 2",55.651672,37.596910,Москва
1156,11428,1156М_Чонгарский10,"Москва Чонгарский бульвар, д.10, к.1",55.653660,37.614365,Москва
1157,11429,1157Ш_Митинская25,Москва ул. Митинская д.25,55.844430,37.362855,Москва
1160,11434,1160Ш_Чертановская32,"Москва ул. Чертановская, д. 32, стр. 1",55.618623,37.591620,Москва
1164,11438,1164М_1Новокузьминская18,"Москва ул. Новокузьминская 1-я, д. 18",55.713953,37.790965,Москва
1165,11439,1165М_Яблочкова37,Москва ул. Яблочкова  дом 37,55.826883,37.578819,Москва
1166,11440,1166М_Каширское40,Москва Каширское шоссе 40к2,55.648946,37.661725,Москва
1181,11456,1181Ш_Флотская46,"Москва ул. Флотская, д. 46",55.853142,37.501142,Москва
1182,11457,1182Ш_Алтуфьевское93,"Москва Алтуфьевское ш.,  д. 93",55.900193,37.585808,Москва
1183,11458,1183М_Студенческая20,Москва ул. Студенческая д.20,55.743335,37.549983,Москва
1185,11460,1185М_Нагорная30,Москва ул. Нагорная 30к1,55.675514,37.597288,Москва
1196,11471,1196М_Ботаническая19,Москва Ботаническая 19,55.828101,37.601088,Москва
1206,11481,1206М_Хабаровская8,Москва ул. Хабаровская д. 8,55.818882,37.827706,Москва
1217,11492,1217М_Ходынский4,"Москва Ходынский бульвар, д.4",55.789571,37.532780,Москва
1219,11494,1219М_Молостовых14,Москва Молостовых 14к1,55.754355,37.831362,Москва
1229,11504,1229М_ГероевПанфиловцев16,Москва Героев Панфиловцев 16к1,55.858830,37.423800,Москва
1235,11510,1235М_Зеленодольская25,"Москва ул. Зеленодольская, вл. 25",55.709850,37.769504,Москва
1237,11512,1237М_Лескова2,Москва ул. Лескова 2,55.897700,37.590255,Москва
1243,11518,1243М_Первомайская46,Москва ул. Первомайская д. 46,55.792857,37.789636,Москва
1244,11519,1244Ш_Чонгарский19,"Москва Чонгарский бульвар, д. 19",55.652796,37.606703,Москва
1245,11520,1245М_АлександрНев1,"Москва ул.Александра Невского, д.1",55.774807,37.592831,Москва
1248,11523,1248М_ЮныхЛенинцев89,Москва ул. Юных Ленинцев д. 89 к.1,55.699279,37.774912,Москва
1252,11527,1252М_Паустовского8,"Москва ул. Паустовского, д.8 к.1",55.599036,37.538269,Москва
1256,11531,1256Ш_Белореченская36,Москва ул. Белореченская 36 к 3,55.661034,37.776071,Москва
1257,11532,1257М_Октябрьская33,Москва ул. Октябрьская 33,55.788981,37.613135,Москва
1258,11533,1258М_Халтуринская17,Москва ул. Халтуринская д.17,55.803388,37.724391,Москва
1260,11536,1260М_Вешняковская29,Москва ул.Вешняковская д 29,55.724038,37.827922,Москва
1261,11537,1261Ш_Дубнинская10к4,"Москва ул.Дубнинская  дом № 10, корпус 4, помещение 1В",55.864050,37.572064,Москва
1262,11539,1262М_пгт_Московский3-9,"Москва пос.гор.типа Московский, 3 мкр, д.9",55.595857,37.344664,Москва
1263,11540,1263М_Газопровод1,"Москва ул. Газопровод, д.1, корп. 6 А",55.594280,37.604286,Москва
1266,11543,1266М_Криворожская27,"Москва ул. Криворожская, д. 27",55.669493,37.609766,Москва
1268,11545,1268М_Совхозная41,"Москва Совхозная, д.41",55.674575,37.760225,Москва
1269,11546,1269М_Домодедовская44,Москва ул. Домодедовская 44,55.601427,37.714599,Москва
1280,11557,1280М_Бакунинская38,"Москва ул. Бакунинская ул.,38-42 с1",55.775915,37.686877,Москва
1289,11566,1289М_Планерная14к1,"Москва ул.Планерная, д.14 к.1",55.864111,37.436849,Москва
1291,11568,1291М_Волоколамское14,Москва Волоколамское шоссе 14,55.809565,37.493991,Москва
1304,11583,1304М_СМаршака16,"Москва п.Внуковское,ул.Самуила Маршака, д.16",55.638247,37.326896,Москва
1305,11584,1305М_Красногомаяка2,"Москва улица Красного Маяка, 2",55.611836,37.601807,Москва
1311,11590,1311М_ПроспектБуденного24,Москва ул. Проспект Буденного 24 к 1,55.765169,37.731811,Москва
1312,11591,1312М_АКоролева5,Москва ул. Академика Королева 5,55.820885,37.628316,Москва
1313,11592,1313М_Дегунинская17,Москва Дегунинская 17,55.867147,37.530885,Москва
1314,11593,1314М_Бутырская95,Москва Бутырская 95,55.807267,37.580735,Москва
1320,11600,1320М_Абрамцевская3,Москва ул. Абрамцевская 3,55.894879,37.573052,Москва
1321,11601,1321М_МаршалаЖукова52,Москва пр-т Маршала Жукова 52,55.777748,37.464257,Москва
1322,11602,1322М_ЗелПроспект60,Москва Зеленый проспект д.60А,55.750940,37.817681,Москва
1323,11603,1323М_Ленинградский54,Москва Ленинградский проспект 54/1,55.797883,37.539509,Москва
1327,11607,1327М_Шверника13,Москва Шверника ул.13А,55.691851,37.588314,Москва
1328,11608,1328М_Олимпийский30,Москва Олимпийский проспект 30с1,55.791486,37.622810,Москва
1329,11609,1329М_Фестивальная13,Москва ул. Фестивальная 13 к.1,55.855780,37.477381,Москва
1330,11610,1330М_Коштоянца15,Москва ул. Коштоянца 15,55.678409,37.491407,Москва
1332,11613,1332М_Рогожский5с9,Москва Рогожский вал д5с9,55.744277,37.678730,Москва
1335,11616,1335М_Хачатуряна18,Москва ул. Хачатуряна 18а,55.861292,37.603729,Москва
1337,11618,1337М_Оболенский9,"Москва г. Москва, Оболенский пер., д.9, корп.1",55.730360,37.579250,Москва
1339,11620,1339М_БКаменщики6,Москва ул. Большие Каменщики 6 стр 1,55.736093,37.655032,Москва
1341,11622,1341М_Краснобогатырская29,Москва Краснобогатырская 29,55.810425,37.704799,Москва
1342,11623,1342М_ВерхМасловка21,"Москва ул. Верхняя Масловка, д.21",55.795702,37.560134,Москва
1343,11624,1343М_Лихоборские6,"Москва ул. Лихоборские бугры, д.6",55.842433,37.548249,Москва
1349,11630,1349М_Чапаевский10,Москва Чапаевский переулок 10\2,55.800200,37.519081,Москва
1350,11631,1350М_Васильцовский5,"Москва ул. Васильцовский стан, д. 5, к.1",55.713826,37.750712,Москва
1352,11633,1352М_Усачева29,"Москва г. Москва, Усачева, 29к1",55.724429,37.563817,Москва
1353,11634,1353М_Осенний18,"Москва Осенний бульвар, д.18",55.761345,37.408301,Москва
1355,11636,1355М_ХимкинскийБульвар21,"Москва Химкинский бульвар, 21",55.849388,37.443111,Москва
1356,11637,1356Ш_Ленинградское68,Москва Ленинградское шоссе 68,55.845784,37.477633,Москва
1357,11638,1357М_БГрузинская57,Москва Большая Грузинская 57 к1,55.771413,37.583266,Москва
1361,11642,1361М_БольшаяЧеркизовская6,"Москва ул. Большая Черкизовская, 6",55.796203,37.719594,Москва
1362,11643,1362М_Щёлковское12,"Москва Щёлковское шоссе, д. 12, корп.1",55.806105,37.770079,Москва
1364,11645,1364М_Красностуденческий2,"Москва Красностуденческий проезд, д.2",55.825795,37.567500,Москва
1370,11651,1370М_Мира76,Москва Проспект Мира 76 стр 1,55.790737,37.635215,Москва
1373,11654,1373М_Стрельбищенский5,"Москва Стрельбищенский переулок, д. 5, стр. 1",55.758119,37.538548,Москва
1376,11657,1376М_Ельнинская23,"Москва ул.Ельнинская, д.23, стр.2",55.740548,37.417473,Москва
1381,11662,1381М_Кутузовский24,"Москва Кутузовский пр-т, 24",55.744526,37.545267,Москва
1383,11664,1383М_Открытое24,Москва Открытое шоссе 24к11,55.822837,37.757260,Москва
1384,11665,1384М_МаршалаЗахарова16,"Москва Маршала Захарова, д.16 к 2",55.621546,37.698223,Москва
1385,11666,1385М_МаршалаБирюзова16,"Москва г. Москва, Маршала Бирюзова, 16",55.794593,37.492051,Москва
1388,11669,1388М_Чертановская48,"Москва г. Москва, Чертановская, 48к3",55.606822,37.589536,Москва
1389,11670,1389М_1-яВладимирская21,"Москва г. Москва, 1-я Владимирская, 21",55.756118,37.777068,Москва
1390,11671,1390М_Нагорная21,"Москва ул. Нагорная, д.21, к.1",55.678204,37.603406,Москва
1392,11673,1392М_Университетский21к1,"Москва Университетский пр.,д.21 к 1",55.714151,37.521066,Москва
1398,11679,1398М_Свободы34,Москва Свободы 34,55.843449,37.455795,Москва
1399,11680,1399М_Талдомская15,Москва Талдомская 15,55.873784,37.521623,Москва
1404,11685,1404М_Ленинский62,"Москва Ленинский проспект, дом 62/1",55.693992,37.554457,Москва
1406,11687,1406М_Плющиха42,Москва ул.Плющиха 42,55.741019,37.576358,Москва
1415,11696,1415М_Воротынская6,Москва Воротынская 6,55.888129,37.400351,Москва
1417,11698,1417М_Енисейская22,"Москва г. Москва, Енисейская, 22 корп.2",55.868791,37.665215,Москва
1418,11699,1418М_Садовая-Спасская21,"Москва ул. Садовая-Спасская, д. 21/1",55.770086,37.650564,Москва
1420,11701,1420М_Полярная10с1,"Москва ул.Полярная, д.10 стр 1",55.874561,37.638270,Москва
1424,11705,1424М_ЯсныйПроезд10,Москва Ясный проезд 10,55.873885,37.629215,Москва
1425,11706,1425М_Перовская56,"Москва Перовская, 56/55",55.745184,37.789573,Москва
1428,11709,1428М_Покровка35,"Москва ул. Покровка, д. 35/17 стр. 1",55.761315,37.650603,Москва
1430,11711,1430М_Дмитрия_Ульянова24,Москва Дмитрия Ульянова 24,55.687178,37.573645,Москва
1431,11712,1431М_Дежнева27к1,"Москва проезд Дежнева, дом 27 корпус 1",55.870193,37.633805,Москва
1433,11714,1433М_БКозловский11,"Москва г. Москва, Большой Козловский переулок, 11с1",55.766425,37.647846,Москва
1435,11716,1435Ш_МусыДжалиля16,"Москва Мусы Джалиля, 16",55.623956,37.742151,Москва
1437,11718,1437М_АМонаховой95,"Москва ул. Александры Монаховой, 95к1",55.542126,37.490209,Москва
1442,11723,1442Ш_ОлекоДундича5,"Москва улица Олеко Дундича, 5",55.741866,37.496463,Москва
1443,11724,1443М_КраснаяПресня21,Москва Красная Пресня 21,55.761381,37.570186,Москва
1444,11725,1444М_Суздальская30,"Москва Суздальская, 30/2",55.743674,37.863423,Москва
1445,11726,1445Ш_Мурановская7,"Москва Мурановская, 7",55.892183,37.597369,Москва
1448,11729,1448М_ММалиновского8,"Москва Маршала Малиновского, 8",55.792645,37.493587,Москва
1451,11732,1451М_Декабристов35,Москва ул. Декабристов 35 г стр 1,55.861676,37.613449,Москва
1452,11734,1452М_Новокосинская47,"Москва ул. Новокосинская ,47",55.743928,37.874464,Москва
1456,11738,1456М_Новослободская50,"Москва Новослободская, 50/1с2",55.786996,37.594414,Москва
1457,11739,1457М_Таганская31,"Москва Таганская, 31/22",55.739676,37.669639,Москва
1460,11742,1460М_Ленинградское36,"Москва Ленинградское ш., д.36, корп.1",55.830326,37.489338,Москва
1463,11745,1463М_Первомайская34,"Москва Первомайская, 34/16",55.792539,37.783752,Москва
1466,11748,1466Ш_ГероевПанфиловцев8,"Москва ул. Героев-Панфиловцев, д. 8, к. 1",55.854835,37.439275,Москва
1467,11749,1467М_Вернадского33,"Москва просп. Вернадского, д.33",55.680742,37.514563,Москва
1468,11750,1468Ш_Производственная2,"Москва ул. Производственная, д. 2",55.650455,37.388008,Москва
1469,11751,1469Ш_Кантемировская7,"Москва Кантемировская, 7к1",55.635965,37.672837,Москва
1471,11753,1471М_Судостроительная11,"Москва Судостроительная, 11к1",55.680559,37.671399,Москва
1472,11754,1472М_Новопесчаная21,"Москва Новопесчаная, 21к1",55.794345,37.511877,Москва
1475,11757,1475М_ПресненскийВал5,"Москва ул. Пресненский Вал, д.5",55.766192,37.564051,Москва
1479,11761,1479М_Вучетича22,"Москва Вучетича, 22",55.811735,37.558113,Москва
1480,11762,1480М_АкВолгина8,"Москва Академика Волгина, 8а",55.651562,37.517141,Москва
1483,11765,1483М_ВерхКрасносельская38,"Москва Верхняя Красносельская, 38/19с1",55.779520,37.665569,Москва
1484,11766,1484М_АкАнохина38,"Москва Академика Анохина, 38к1",55.658484,37.471345,Москва
1487,11769,1487М_Садовая-Кудринская81012,"Москва Садовая-Кудринская, 8-10-12с1",55.761102,37.586634,Москва
1491,11773,1491М_АдмЛазарева63,"Москва Адмирала Лазарева, 63",55.537429,37.506334,Москва
1492,11774,1492М_Рязанский75,"Москва Рязанский проспект, 75 Б стр. 1",55.717776,37.792411,Москва
1493,11775,1493М_Волгоградский94,"Москва Волгоградский пр-т, 94к1",55.704129,37.771292,Москва
1494,11776,1494М_Скобелевская20,"Москва ул. Скобелевская, 20",55.546053,37.555445,Москва
1495,11777,1495М_ЛенинскийПроспект148,"Москва Ленинский проспект, 148с1",55.656194,37.492823,Москва
1497,11779,1497М_Скобелевская14,"Москва Скобелевская, 14",55.549103,37.554232,Москва
1498,11780,1498М_ЗубовскийБульвар17,"Москва Зубовский бульвар , 17",55.736306,37.590497,Москва
1500,11782,1500М_Университетский4,"Москва Университетский пр-т, д. 4",55.697067,37.553810,Москва
1501,11783,1501М_Пырьева5,"Москва ул. Пырьева, д. 5а",55.725894,37.526357,Москва
1503,11785,1503Ш_Мячковский13,"Москва Мячковский бул., д. 13",55.654599,37.757000,Москва
1505,11787,1505М_Зел_корпус826,Зеленоград корпус 826,55.980080,37.184027,Москва
1507,11789,1507М_Уральская11,"Москва ул. Уральская, д. 11",55.817588,37.797442,Москва
1508,11790,1508М_Ленинский131,"Москва Ленинский проспект, д. 131",55.644145,37.473492,Москва
1511,11796,1511М_Квесисская18,"Москва ул. 1-я Квесисская, д. 18",55.794239,37.578720,Москва
1513,11798,1513М_Валовая11,"Москва ул. Валовая, д. 11/19",55.730218,37.632430,Москва
1517,11802,1517М_Михайлова22,"Москва ул. Михайлова, д. 22 к. 1",55.726482,37.769325,Москва
1519,11804,1519М_Оружейный5,"Москва Оружейный пер., д. 5",55.771266,37.597998,Москва
1520,11805,1520М_Живописная12,"Москва ул. Живописная, д. 12 к. 1",55.784435,37.457070,Москва
1521,11806,1521М_Просторная6,"Москва ул. Просторная, д. 6",55.804299,37.716252,Москва
1524,11809,1524М_Петровско-Разумовский18,"Москва Петровско-Разумовский пр., д. 18",55.798950,37.567671,Москва
1526,11811,1526М_МаршалаВасилевского5,"Москва ул. Маршала Василевского, д. 5 к. 1",55.804091,37.471497,Москва
1530,11815,1530М_Чертановская9,"Москва ул. Чертановская, д. 9 стр. 1",55.628723,37.599732,Москва
1532,11817,1532М_Зел_Юности2,"Зеленоград площадь Юности, д. 2, стр. 1",56.002279,37.211004,Москва
1536,11820,1536М_Ключевая6,"Москва ул. Ключевая, д. 6 к. 1",55.637718,37.757485,Москва
1537,11822,1537М_Каховка19,"Москва ул. Каховка, д. 19 к. 1",55.653477,37.578406,Москва
1540,11825,1540М_Пролетарский29,"Москва пр-т Пролетарский, д. 29",55.635243,37.658122,Москва
1543,11827,1543М_Шаболовка20,"Москва ул. Шаболовка, д. 20",55.721544,37.609568,Москва
1545,11830,1545М_Чусовская15,"Москва ул. Чусовская, д. 15",55.816283,37.811060,Москва
1549,11834,1549М_Грина11,"Москва ул. Грина, д. 11",55.567519,37.566961,Москва
1550,11835,1550М_Яна Райниса30,"Москва б-р Яна Райниса, д. 30 к. 1",55.850995,37.410187,Москва
1553,11838,1553М_Профсоюзная98,"Москва ул. Профсоюзная, д. 98 к. 1",55.645878,37.526528,Москва
1555,11840,1555М_Лубянский27,"Москва пр. Лубянский, д. 27/1 стр. 1",55.754223,37.635125,Москва
1556,11841,1556М_БОчаковская32,"Москва ул. Большая Очаковская, д. 32",55.680118,37.451564,Москва
1560,11845,1560М_Нижегородская13,"Москва ул. Нижегородская, д. 13Б",55.737856,37.686806,Москва
1561,11846,1561М_Руставели6,"Москва ул. Руставели, д. 6 к. 6",55.812317,37.589248,Москва
1562,11847,1562М_АкадемикаАнохина2,"Москва ул. Академика  Анохина, д. 2 к. 1а",55.670214,37.476654,Москва
1566,11851,1566М_СоловьинаяРоща11,"Москва ул. Соловьиная Роща, д. 11",55.896761,37.396775,Москва
1569,11854,1569М_Гарибальди15,"Москва ул. Гарибальди, д. 15",55.675230,37.545923,Москва
1570,11855,1570М_Филевский12,"Москва Филёвский б-р, д. 12 стр. 2",55.765281,37.485987,Москва
1583,11868,1583М_Фестивальная28,"Москва ул. Фестивальная, д.28 стр. 1",55.860923,37.503361,Москва
1586,11871,1586М_Вавилова86,"Москва ул. Вавилова, д. 86",55.676940,37.541090,Москва
1588,11873,1588М_пВоскресенское29,"Москва пос. Воскресенское, д. 29, пом. 1",55.529660,37.445347,Москва
1590,11875,1590Ш_Широкая1,"Москва ул. Широкая, д. 1 к. 1",55.888427,37.649418,Москва
1591,11876,1591М_Зел_корпус612,Зеленоград корпус 612,55.988122,37.232393,Москва
1592,11877,1592М_Зел_Корпус1406,Зеленоград корпус 1406,55.984416,37.147376,Москва
1594,11879,1594М_Лавочкина34,"Москва ул. Лавочкина, д. 34",55.856295,37.493919,Москва
1596,11881,1596М_Андропова21,"Москва проспект Андропова, д. 21, пом. 1",55.679138,37.665444,Москва
1598,11883,1598М_Свободы12,"Москва ул. Свободы, д. 12/8",55.830498,37.453567,Москва
1602,11887,1602М_Перовская33,"Москва ул. Перовская, д. 33 к. 1",55.747485,37.775856,Москва
1603,11888,1603М_Кастанаевская51,"Москва ул. Кастанаевская, д. 51, к. 2",55.731500,37.460385,Москва
1608,11893,1608Ш_БПереяславская11,"Москва ул. Большая Переяславская, д. 11",55.784425,37.640956,Москва
1612,11897,1612М_Судостроительная41,"Москва ул. Судостроительная, д. 41",55.684950,37.687515,Москва
1613,11898,1613М_2яВольская1,"Москва ул. 2-ая Вольская, д. 1 к. 1",55.687304,37.918589,Москва
1616,11901,1616М_Раменки3,"Москва ул. Раменки, д. 3, стр. 1",55.693186,37.496848,Москва
1617,11902,1617М_Коломенский10,"Москва Коломенский пр., д. 10А",55.665782,37.650307,Москва
1621,11906,1621М_Михалковская20,"Москва ул. Михалковская, д. 20",55.839173,37.530148,Москва
1622,11907,1622Ш_Денисовский22,"Москва Денисовский пер., д. 22",55.766511,37.675289,Москва
1626,11911,1626М_Ботаническая27,"Москва ул. Ботаническая, д. 27",55.833046,37.595123,Москва
1627,11912,1627М_ЛетчикаБабушкина11,"Москва ул. Летчика Бабушкина, д. 11/2, корп. 1",55.860928,37.673421,Москва
1629,11914,1629М_Стромынка14,"Москва ул. Стромынка, д. 14 к. 1",55.793212,37.692483,Москва
1632,11917,1632М_Южнопортовая18,"Москва ул. Южнопортовая, д. 18",55.706218,37.684712,Москва
1633,11918,1633М_Зел_Привокзальная1,"Зеленоград пл. Привокзальная, д. 1",55.978881,37.171523,Москва
1637,11924,1637М_Кировоградская23,"Москва ул. Кировоградская, д. 23 А",55.600389,37.598995,Москва
1638,11925,1638М_Псковская9,"Москва ул. Псковская, д. 9 к. 1",55.905856,37.551995,Москва
1639,11926,1639Ш_Духовской14,"Москва Духовской пер, д. 14",55.705610,37.615650,Москва
1640,11927,1640М_Старая Басманная38,"Москва ул. Старая Басманная, д. 38",55.769185,37.669369,Москва
1641,11928,1641М_Андропова30,"Москва проспект Андропова, д. 30",55.679138,37.662425,Москва
1642,11929,1642М_Космодемьянских17,"Москва ул. Зои и Александра Космодемьянских, д. 17/2",55.822301,37.514796,Москва
1643,11930,1643М_Мартеновская9,"Москва ул. Мартеновская, д. 9/13",55.756786,37.804997,Москва
1644,11931,1644М_Авангардная16,"Москва ул. Авангардная, д. 16",55.847376,37.489715,Москва
1645,11932,1645М_Сходненская25,"Москва ул. Сходненская, д. 25",55.845501,37.438754,Москва
1646,11935,1646М_Гиляровского40,"Москва ул. Гиляровского, д. 40",55.783109,37.632763,Москва
1689,11937,1689М_Солнцевский26,"Москва Солнцевский пр-т, д. 26",55.649962,37.408265,Москва
1648,11938,1648М_ГенералаКузнецова28,"Москва ул. Генерала Кузнецова, д. 28 к. 1",55.683031,37.851943,Москва
1649,11939,1649М_РимскогоКорсакова18,"Москва ул. Римского-Корсакова, д. 18",55.873642,37.609209,Москва
1651,11941,1651М_БутырскийВал48,"Москва ул. Бутырский Вал, д. 48",55.785245,37.588027,Москва
1652,11942,1652М_МаршалаКатукова25,"Москва ул. Маршала Катукова, д. 25",55.805498,37.414526,Москва
1656,11946,1656М_Бирюлевская51,"Москва ул. Бирюлевская, д. 51, к. 1",55.582655,37.671507,Москва
1657,11947,1657М_Чечерский64,"Москва пр. Чечерский, д. 64 к. 1",55.533129,37.525827,Москва
1661,11951,1661М_МаршалаБирюзова24,"Москва ул. Маршала Бирюзова, д. 24",55.796324,37.488700,Москва
1665,11955,1665М_Молодогвардейская26,"Москва ул. Молодогвардейская, д. 26 к. 1",55.734233,37.419269,Москва
1666,11956,1666М_Абрамцевская24,"Москва ул. Абрамцевская, д. 24а",55.904730,37.574579,Москва
1667,11957,1667М_Зоологическая4,"Москва ул. Зоологическая, д. 4",55.765377,37.581164,Москва
1668,11958,1668М_Веерная30,"Москва ул. Веерная, д. 30, к. 6",55.710423,37.476016,Москва
1671,11961,1671М_Новаторов16,"Москва ул. Новаторов, д. 16 к. 1",55.667279,37.524678,Москва
1672,11962,1672Ш_Гурьянова3,"Москва ул. Гурьянова, д. 3",55.691684,37.722612,Москва
1673,11963,1673М_НижняяКрасносельская35,"Москва ул. Нижняя Красносельская, д. 35 стр. 48",55.774948,37.672980,Москва
1676,11966,1676М_Медиков20,"Москва ул. Медиков, д. 20",55.632952,37.678640,Москва
1679,11969,1679М_ТульскаяМалая2,"Москва ул. Тульская Малая, д. 2/1 к. 4",55.710712,37.619082,Москва
1685,11976,1685М_Ореховый12,"Москва Ореховый б-р, д. 12, к. 1",55.608923,37.710521,Москва
1690,11980,1690М_Веерная3,"Москва ул. Веерная, д. 3 к. 6",55.705762,37.476986,Москва
1693,11983,1693М_Саянская6,"Москва ул. Саянская, д. 6а",55.767094,37.826727,Москва
1695,11985,1695М_Поварская8,"Москва ул. Поварская, д. 8/1 стр. 1",55.754141,37.598950,Москва
1696,11986,1696М_СофьиКовалевской4,"Москва ул. Софьи Ковалевской, д. 4",55.879556,37.533697,Москва
1697,11987,1697М_Цюрупы13,"Москва ул. Цюрупы, д. 13",55.666228,37.570734,Москва
1700,11990,1700МТ_Кулакова20,"Москва ул. Кулакова, д. 20, к. 1",55.803479,37.390514,Москва
1706,11996,1706М_МГрузинская29,"Москва ул. Малая Грузинская, д. 29, стр. 2",55.768897,37.571525,Москва
1708,11998,1708М_БФакельный3,"Москва пер. Большой Факельный, д. 3 стр. 2",55.742630,37.663692,Москва
1710,12000,1710М_Краснодонская2,"Москва ул. Краснодонская, д. 2А",55.684351,37.750370,Москва
1711,12001,1711М_Кржижановского4,"Москва ул. Кржижановского, д. 4, к. 1",55.682808,37.561320,Москва
1712,12002,1712М_Измайловский58,"Москва Измайловский б-р, д. 58",55.796405,37.811878,Москва
1714,12004,1714М_Киевская20,"Москва ул. Киевская, д. 20",55.738738,37.546291,Москва
1720,12010,1720М_Солдатская8,"Москва ул. Солдатская, д. 8, к. 1",55.764465,37.701978,Москва
1721,12011,1721М_Щепкина5,"Москва ул. Щепкина, д. 5, стр. 2",55.774988,37.627687,Москва
1725,12015,1725М_Шокальского2,"Москва пр. Шокальского, д. 2",55.872233,37.647944,Москва
1728,12018,1728М_Плеханова24,"Москва ул. Плеханова, д. 24 к. 1",55.741348,37.767420,Москва
1730,12020,1730М_Декабристов15,"Москва ул. Декабристов, д. 15, стр. 2",55.865475,37.602840,Москва
1732,12022,1732М_СаморыМашела2,"Москва ул. Саморы Машела, д. 2А",55.649362,37.497773,Москва
1735,12025,1735М_Мичуринский21,"Москва пр-т Мичуринский, д. 21, к. 1",55.699370,37.503729,Москва
1740,12030,1740М_МаршалаЖукова19,"Москва пр-т Маршала Жукова, д. 19, к. 1",55.775424,37.489388,Москва
1742,12032,1742М_Щер_Юбилейная8,"Москва ул. Юбилейная, д. 8а",55.507453,37.568354,Москва
1744,12034,1744М_3_Владимирская4,"Москва ул. 3-я Владимирская, д. 4",55.762961,37.784183,Москва
1745,12035,1745М_Балаклавский5,"Москва пр-т Балаклавский, д. 5А, стр. 12",55.640853,37.608410,Москва
1747,12037,1747М_АкадемикаАрцимовича13,"Москва ул. Академика Арцимовича, д. 13",55.639176,37.513008,Москва
1751,12041,1751М_1йСмоленский21,"Москва пер. Смоленский 1-й, д. 21",55.749334,37.579178,Москва
1752,12042,1752М_БольшаяЯкиманка54,"Москва ул. Большая Якиманка, д. 54",55.731384,37.611473,Москва
1755,12045,1755М_3-яВладимирская25,"Москва ул. 3-я Владимирская, д. 25, к. 1",55.754644,37.790920,Москва
1756,12046,1756Ш_Алтуфьевское58,"Москва ш. Алтуфьевское, д. 58",55.881747,37.587703,Москва
1757,12047,1757М_Симферопольский22,"Москва б-р Симферопольский, д. 22, к. 1",55.647925,37.604753,Москва
1769,12059,1769М_Обручева16,"Москва ул. Обручева, д. 16, к. 1",55.658810,37.514383,Москва
1775,12065,1775М_Строителей11,"Москва ул. Строителей, д. 11 к. 1",55.687350,37.533742,Москва
1779,12069,1779М_2йНовоподмосковный3,"Москва пер. Новоподмосковный 2-й, д. 3",55.818043,37.509298,Москва
1781,12071,1781М_Тро_БольшаяОктябрьская9,"Москва ул. Большая Октябрьская, д. 9А",55.490718,37.302964,Москва
1782,12072,1782М_Можайское41,"Москва ш. Можайское, д. 41, к. 1",55.716985,37.411894,Москва
1790,12080,1790М_Беговая11,"Москва ул. Беговая, д. 11",55.779180,37.556783,Москва
1792,12082,1792МТ_Щепкина42,"Москва ул. Щепкина, д. 42, стр. 2А",55.782547,37.629834,Москва
1794,12084,1794М_МалаяФилевская18,"Москва ул. Малая Филевская, д. 18",55.737061,37.468183,Москва
1795,12085,1795М_ДмитрияДонского2,"Москва бульвар Дмитрия Донского, д. 2, к. 1",55.570166,37.575693,Москва
1801,12091,1801М_Костякова9,"Москва ул. Костякова, д. 9",55.812772,37.571327,Москва
1822,12112,1822М_АкадемикаПилюгина4,"Москва ул. Академика Пилюгина, д. 4",55.672691,37.542222,Москва
1823,12113,1823М_Кибальчича4,"Москва ул. Кибальчича, д. 4/6",55.815155,37.647414,Москва
1842,12132,1842М_Багратионовский1,"Москва пр. Багратионовский, д. 1А",55.745797,37.513107,Москва
1891,12181,1891М_Широкая27,"Москва ул. Широкая , д. 27",55.887685,37.675711,Москва
1892,12182,1892М_8яТекстильщиков15,"Москва ул. 8-я Текстильщиков, д. 15",55.702774,37.745439,Москва
1896,12186,1896Ш_Волгоградский10,"Москва пр-т Волгоградский, д. 10-12-14, стр. 2",55.730139,37.673801,Москва
1899,12189,1899Ш_Солнечногорская15,"Москва ул. Солнечногорская, д. 15, к. 1",55.860752,37.519234,Москва
1901,12191,1901М_Шоссейная33,"Москва ул. Шоссейная, д. 33",55.679692,37.724885,Москва
1902,12192,1902М_Победы2,"Москва пл. Победы, д. 2, к. 2",55.737507,37.518371,Москва
1967,12258,1967Ш_Ленинский7,"Москва Ленинский проспект, д. 7",55.724738,37.606370,Москва
1970,12261,1970М_Матвеевская34,"Москва ул. Матвеевская, д. 34, к. 1",55.704042,37.461140,Москва
1975,12266,1975М_Берзарина23,"Москва ул. Берзарина, д. 23",55.787594,37.472342,Москва
1976,12267,1976Ш_Ленинский95,"Москва Ленинский проспект, д. 95",55.673976,37.525863,Москва
1980,12271,1980М_Авиационная69,"Москва ул. Авиационная, д. 69",55.809444,37.453333,Москва
1987,12278,1987М_ЗнамяОктябряРодники6,"Москва поселение Рязановское, поселок Знамя Октября, мкр Родники, д. 6",55.468530,37.544818,Москва
1990,12281,1990М_Первомайская74,"Москва ул. Первомайская, д. 74",55.792989,37.800703,Москва
1992,12283,1992М_БольшойКисловский4,"Москва пер. Большой Кисловский, д. 4, стр. 1",55.754177,37.606505,Москва
1993,12284,1993М_Гризодубовой2,"Москва ул. Гризодубовой, д. 2",55.782572,37.531936,Москва
1994,12285,1994М_Ватутина9,"Москва ул. Ватутина, д. 9",55.721265,37.454753,Москва
2004,12296,2004Ж_Лескова19,"Москва ул. Лескова, д. 19А, стр. 2",55.894308,37.616944,Москва
2006,12299,2006М_ЕкатериныБудановой5,"Москва ул. Екатерины Будановой, д. 5",55.732114,37.427417,Москва
2007,12300,2007М_Беломорская26,"Москва ул. Беломорская, д. 26, стр. 2",55.864156,37.474345,Москва
2013,12306,2013МТ_Кутузовский32_п6,"Москва пр-т Кутузовский, д. 32 к. 1 пом 6",55.741358,37.531460,Москва
2014,12307,2014МТ_Кутузовский32_п7,"Москва пр-т Кутузовский , д. 32 к. 1 пом 7",55.741358,37.531460,Москва
2015,12308,2015МТ_Кутузовский32_пА21,"Москва пр-т Кутузовский, д. 32 к. 1 пом А21",55.740421,37.532071,Москва
2018,12311,2018М_МалаяПироговская21,"Москва ул. Малая Пироговская, д. 21",55.727161,37.566818,Москва
2023,12316,2023М_Остоженка20,"Москва ул. Остоженка, д. 20",55.741298,37.598339,Москва
2027,12320,2027Ш_Новокосинская18,"Москва ул. Новокосинская, д. 18",55.739260,37.859219,Москва
2029,12322,2029М_Селезневская30,"Москва ул. Селезневская, д. 30 к. Б-В",55.780699,37.609607,Москва
2033,12326,2033М_Ломоносовский34,"Москва пр-т Ломоносовский, д. 34",55.708323,37.511023,Москва
2039,12332,2039Ш_Кунцевская10,"Москва ул. Кунцевская, д. 10",55.731288,37.412981,Москва
2042,12335,2042Ш_Кременчугская22,"Москва ул. Кременчугская, д. 22, стр. 1",55.717790,37.461425,Москва
2044,12337,2044Ш_БорисаГалушкина16,"Москва ул. Бориса Галушкина, д. 16",55.823115,37.655850,Москва
2045,12338,2045М_ОлимпийскаядеревняМичур19,"Москва пр-т Олимпийская деревня Мичуринский, д. 19, стр. 1",55.672778,37.458310,Москва
2049,12342,2049М_Саратовская3,"Москва ул. Саратовская, д. 3, к. 1",55.713958,37.732224,Москва
2055,12348,2055Ш_Тайнинская16,"Москва ул. Тайнинская, д. 16, к. 1",55.880924,37.684748,Москва
2085,12378,2085М_Автозаводская13,"Москва ул. Автозаводская, д. 13/1",55.705758,37.656092,Москва
2087,12380,2087М_Новочеремушкинская44,"Москва ул. Новочеремушкинская, д. 44 стр. 1",55.672641,37.568461,Москва
2094,12388,2094М_Пролетарский23,"Москва Пролетарский пр-т, д. 23",55.636900,37.656586,Москва
2098,12392,2098М_Солнцевский2,"Москва пр-т Солнцевский, д. 2, стр. 3",55.652578,37.396865,Москва
2099,12393,2099М_Родионовская12,"Москва ул. Родионовская, д. 12",55.893854,37.389607,Москва
2104,12400,2104М_БольшаяСерпуховская50,"Москва ул. Большая Серпуховская , д. 50/2 стр. 1",55.721569,37.626978,Москва
2105,12401,2105М_Тро_Октябрьский9,"Москва пр-т Октябрьский, д. 9А + ""ВкусВиллАйс""",55.476031,37.295975,Москва
2109,12406,2109М_Кронштадтский47,"Москва б-р Кронштадтский, д. 47",55.851717,37.511724,Москва
2113,12410,2113М_Островитянова13,"Москва ул. Островитянова, д. 13",55.640848,37.502750,Москва
2117,12414,2117Ш_Изумрудная24,"Москва ул. Изумрудная, д. 24",55.872183,37.684712,Москва
2134,12436,2134М_БольшаяЧеремушкинская1,"Москва ул. Большая Черемушкинская, д. 1",55.690278,37.601879,Москва
2145,12458,2145М_БольшаяФилевская4,"Москва ул. Большая Филевская, д. 4",55.753686,37.513143,Москва
2146,12459,2146Ш_Краснодарская15,"Москва ул. Краснодарская, д. 15/17",55.677575,37.746436,Москва
2148,12461,2148М_МалыйПалашевский6,"Москва пер. Малый Палашевский, д. 6",55.765200,37.602705,Москва
2154,12468,2154Ш_Космонавтов12,"Москва ул. Космонавтов, д. 12",55.820845,37.652759,Москва
2166,12481,2166М_УлофаПальме1,"Москва ул. Улофа Пальме, д. 1",55.717847,37.512191,Москва
2168,12483,2168М_АдмиралаРуднева2,"Москва ул. Адмирала Руднева, д. 2",55.544199,37.525585,Москва
2184,12499,2184М_3-яЯмскогоПоля9,"Москва ул. 3-я Ямского Поля, д. 9",55.781626,37.580894,Москва
2186,12501,2186МТ_Кутузовский32_11,"Москва пр-т Кутузовский , д. 32, этаж 11, пом 11В03",55.741358,37.531460,Москва
2198,12513,2198МТ_3йНижнелихоборский3,"Москва пр. 3-й Нижнелихоборский, д. 3, стр. 6",55.845936,37.564680,Москва
2203,12518,2203М_Мосфильмовская70,"Москва ул. Мосфильмовская, д. 70",55.715791,37.508112,Москва
2204,12519,2204Ш_ЮныхЛенинцев3,"Москва ул. Юных Ленинцев, д. 3",55.699558,37.736024,Москва
2208,12523,2208Ш_Покровка8,"Москва ул. Покровка, д. 8",55.758797,37.642689,Москва
2209,12524,2209М_Пятницкое21,"Москва Пятницкое шоссе, д. 21 + ""ВкусВиллАйс""",55.847705,37.370581,Москва
2213,12528,2213Ш_Самаркандскийквартал137,"Москва б-р Самаркандский квартал, д. 137А, к. 6",55.699177,37.817448,Москва
2215,12530,2215Ш_Вавилова17,"Москва ул. Вавилова, д. 17",55.701861,37.580679,Москва
2217,12532,2217М_Новопетровская3,"Москва ул. Новопетровская, д. 3",55.827681,37.521255,Москва
2218,12533,2218М_Енисейская11,"Москва ул. Енисейская, д. 11",55.865263,37.661464,Москва
2223,12538,2223Ш_МиляАвиаконструктора14,"Москва ул. Авиаконструктора Миля, д. 14",55.682392,37.855572,Москва
2224,12539,2224М_Смоленский1,"Москва б-р Смоленский, д. 1/2",55.738916,37.584649,Москва
2226,12541,2226М_АлександрыМонаховой94,"Москва ул. Александры Монаховой, д. 94, к. 1",55.542452,37.484280,Москва
2270,12585,2270М_АкадемикаВиноградова5,"Москва ул. Академика Виноградова, д. 5",55.632820,37.484846,Москва
2278,12593,2278М_Рогачёвский4,"Москва Рогачёвский пер., д. 4, к. 1",55.867713,37.552741,Москва
2281,12596,2281М_Ярцевская29,"Москва ул. Ярцевская, д. 29, к. 1",55.742367,37.417706,Москва
2284,12599,2284М_БольшаяСадовая1,"Москва ул. Большая Садовая, д. 1",55.766309,37.590623,Москва
2286,12601,2286М_Алабяна10,"Москва ул. Алабяна, д. 10, к. 1",55.800387,37.503980,Москва
2296,12611,2296М_Русанова35,"Москва пр. Русанова, д. 35",55.856982,37.637569,Москва
2297,12612,2297М_Березоваяаллея17,"Москва ул. Березовая аллея, д. 17, к. 1",55.850909,37.617527,Москва
2302,12617,2302Ш_Сиреневый69,"Москва б-р Сиреневый, д. 69, к. 1",55.803651,37.824679,Москва
2303,12618,2303М_Бажова8,"Москва ул. Бажова, д. 8",55.832889,37.662228,Москва
2311,12626,2311М_Бауманская56,"Москва ул. Бауманская, д. 56/17, стр. 1",55.768755,37.679116,Москва
2322,12637,2322МТ_Лесная7эт5,"Москва ул. Лесная, д. 7, к., 5 этаж",55.778639,37.587901,Москва
2329,12644,2329М_Дубнинская16,"Москва ул. Дубнинская, д. 16, к. 1",55.868829,37.562919,Москва
2331,12646,2331М_Дмитровское68,"Москва ш. Дмитровское, д. 68",55.858529,37.559847,Москва
2334,12649,2334М_АкадемикаПилюгина18,"Москва ул. Академика Пилюгина , д. 18",55.668447,37.533831,Москва
2335,12650,2335М_Шелепихинское17,"Москва ш. Шелепихинское , д. 17, к. 1",55.759086,37.521093,Москва
2336,12651,2336М_МаршалаЖукова39,"Москва пр-т Маршала Жукова, д. 39, к. 1",55.775307,37.471237,Москва
2338,12653,2338М_ВерхняяРадищевская22,"Москва ул. Верхняя Радищевская, д. 22",55.742656,37.653218,Москва
2344,12660,2344М_Бакулева6,"Москва ул. Академика Бакулева, д. 6",55.643109,37.486311,Москва
2351,12667,2351М_Таганская26,"Москва ул. Таганская, д. 26, стр. 1",55.739666,37.663458,Москва
2362,12677,2362МТ_Скаковая17,"Москва ул. Скаковая, д. 17, стр. 2",55.777910,37.573564,Москва
2365,12680,2365М_Планерная12,"Москва ул. Планерная, д. 12, к. 1",55.862141,37.436634,Москва
2371,12686,2371Ш_МаршалаСавицкого26,"Москва ул. Маршала Савицкого, д. 26, к. 2",55.503038,37.594549,Москва
2373,12688,2373М_Цветной20,"Москва б-р Цветной, д. 20/1",55.770552,37.622657,Москва
2374,12689,2374Ш_ЛетчикаБабушкина31,"Москва ул. Летчика Бабушкина, д. 31",55.870435,37.675002,Москва
2375,12690,2375МТ_Ленинградский15,"Москва пр-т Ленинградский, д. 15, стр. 1",55.781458,37.572432,Москва
2379,12694,2379Ш_Окская2,"Москва ул. Окская, д. 2",55.709926,37.748699,Москва
2407,12712,2407Ш_Столетова7,"Москва ул. Столетова, д. 7",55.704413,37.503352,Москва
2411,12716,2411Ш_Мироновская18,"Москва ул. Мироновская, д. 18",55.786995,37.733367,Москва
2418,12724,2418М_Трофимова3,"Москва ул. Трофимова, д. 3",55.703505,37.662713,Москва
2421,12727,2421Ж_Одоевского11,"Москва пр. Одоевского, д. 11А, стр. 1",55.598990,37.516269,Москва
2429,12734,2429М_Веселая4,"Москва ул. Веселая, д. 4",55.621877,37.666468,Москва
2441,12746,2441Ш_Дубнинская2,"Москва ул. Дубнинская, д. 2, к. 2",55.856159,37.567509,Москва
2443,12748,2443М_2Сокольническая3,"Москва ул. 2-я Сокольническая, д. 3Б стр. 1",55.787356,37.682835,Москва
2450,12755,2450Ш_Дыбенко14,"Москва ул. Дыбенко, д. 14, к. 2",55.870531,37.486005,Москва
2451,12756,2451М_Планерная7,"Москва ул. Планерная, д. 7, к. 1",55.863358,37.433508,Москва
2455,12760,2455М_Старокачаловская5,"Москва ул. Старокачаловская, д. 5, стр. а",55.569846,37.579044,Москва
2464,12769,2464Ш_Нахимовский22,"Москва пр-т Нахимовский, д. 22",55.669554,37.588871,Москва
2496,12801,2496М_Игральная10,"Москва ул. Игральная, д. 10",55.816061,37.714995,Москва
2502,12807,2502МТ_Вавилова9,"Москва ул. Вавилова, д. 9",55.704230,37.586086,Москва
2503,12808,2503МТ_МашиПорываевой34,"Москва ул. Маши Порываевой, д. 34",55.772168,37.648456,Москва
2504,12809,2504МТ_СергеяМакеева13эт4,"Москва ул. Сергея Макеева, д. 13",55.763356,37.551259,Москва
2514,12821,2514М_Шолохова30,"Москва ул. Шолохова, д. 30",55.643983,37.343532,Москва
2515,12822,2515Ш_Прядильная2я4,"Москва ул. Прядильная 2-я, д. 4",55.795160,37.776916,Москва
2524,12831,2524Ш_ПртМира56,"Москва пр-т Мира, д. 56, стр. 2",55.784000,37.635620,Москва
2527,12833,2527Ш_Голубинская32,"Москва ул. Голубинская, д. 32/2",55.594489,37.544449,Москва
2528,12834,2528М_Кутузовский35,"Москва проспект Кутузовский, д. 35",55.740639,37.538269,Москва
2538,12844,2538МТ_БНоводмитровская14с1эт6,"Москва ул. Большая Новодмитровская, д. 14, к. 1, этаж 6",55.800559,37.585691,Москва
2547,12853,2547М_1-яОстанкинская23,"Москва ул. 1-я Останкинская, д. 23",55.824369,37.622378,Москва
2550,12856,2550МТ_Кржижановского16,"Москва ул. Кржижановского, д. 16, к. 3",55.680001,37.568821,Москва
2552,12858,2552МТ_МаршалаЖукова1,"Москва ул. Маршала Жукова, д. 1, стр. 1",55.775094,37.506523,Москва
2553,12859,2553Ш_Снежная16,"Москва ул. Снежная, д. 16, к. 6",55.851844,37.646363,Москва
2554,12860,2554М_Кутузовский45,"Москва пр-т Кутузовский, д. 45, стр. 1",55.737076,37.525854,Москва
2558,12864,2558М_МаршалаРокоссовского4,"Москва б-р Маршала Рокоссовского, д. 4",55.811103,37.730006,Москва
2560,12866,2560М_Дегунинская10,"Москва ул. Дегунинская, д. 10, к. 1",55.865470,37.537649,Москва
2565,12871,2565М_Барклая7,"Москва ул. Барклая, д. 7, к. 1",55.740673,37.500428,Москва
2572,12878,2572Ш_Новая10,"Москва ул. Новая, д. 10",55.875203,37.513296,Москва
2573,12879,2573М_Удальцова65,"Москва ул. Удальцова, д. 65",55.678961,37.500621,Москва
2583,12889,2583М_Нововатутинский7,"Москва пр-т Нововатутинский, д. 7",55.517016,37.347979,Москва
2586,12892,2586Ш_Минская9,"Москва ул. Минская, д. 9",55.737502,37.484352,Москва
2590,12895,2590М_Вернадского94,"Москва пр-т Вернадского, д. 94, к. 1",55.652659,37.475513,Москва
2604,12909,2604МТ_Киевского22км6,"Москва ш. Киевского 22 км., д. 6, стр. 1",55.633816,37.431936,Москва
2613,12918,2613МТ_Юннатов18,"Москва ул. Юннатов, д. 18, этаж 2",55.802639,37.558948,Москва
2614,12919,2614МТ_ЛьваТолстого16,"Москва ул. Льва Толстого, д. 16, БЦ Морозов, 3-ий подъезд, 2 этаж",55.732327,37.589832,Москва
2618,12923,2618МТ_Хуторская2ая38эт5,"Москва ул. Хуторская 2-ая, д. 38А стр. 14, этаж 5",55.806130,37.568911,Москва
2619,12924,2619МТ_БНоводмитровская14,"Москва ул. Б. Новодмитровская, д. 14, стр. 1 этаж 3",55.800559,37.585691,Москва
2633,12935,2633М_АкадемикаЯнгеля1,"Москва ул. Академика Янгеля, д. 1, к. 1",55.594056,37.598115,Москва
2636,12938,2636М_Кастанаевская17,"Москва ул. Кастанаевская, д. 17",55.737917,37.490973,Москва
2639,12941,2639Ш_Планетная45,"Москва ул. Планетная, д. 45",55.805533,37.539563,Москва
2640,12942,2640Ш_Южнобутовская42,"Москва ул. Южнобутовская, д. 42",55.539889,37.536365,Москва
2651,12952,2651М_Щер_БарышевскаяРоща22,"Москва ул. Барышевская Роща, д. 22",55.502666,37.538287,Москва
2654,12955,2654М_ГенералаБелова29,"Москва ул. генерала Белова, д. 29",55.614973,37.721328,Москва
2664,12965,2664МТ_Ленинскиегоры1эт2,"Москва ул. Ленинские горы, д. 1, стр. 77, этаж 2",55.708364,37.521632,Москва
2669,12970,2669МТ_АкадемикаСахарова10эт6,"Москва пр-т Академика Сахарова, д. 10, этаж 6",55.768699,37.641962,Москва
2670,12971,2670МТ_Тверская22,"Москва ул. Тверская, д. 22",55.767418,37.601169,Москва
2672,12973,2672М_Паустовского2,"Москва ул. Паустовского, д. 2/34",55.603120,37.541368,Москва
2673,12974,2673МТ_Озерковская28,"Москва ул. Озерковская набережная, д. 28 стр. 3, этаж 4",55.738333,37.637021,Москва
2674,12975,2674МТ_3яРыбинская18,"Москва ул. 3я Рыбинская, д. 18 стр. 2",55.790514,37.660153,Москва
2676,12977,2676МТ_Андропова18к3эт7,"Москва пр-т Андропова, д. 18, к. 3, 6 этаж",55.694500,37.662021,Москва
2677,12978,2677МТ_Уланский26,"Москва пер. Уланский, д. 26",55.769955,37.641755,Москва
2699,12999,2699М_Авиамоторная47,"Москва ул. Авиамоторная, д. 47",55.749927,37.718830,Москва
2712,13012,2712Ш_Гришина23,"Москва ул. Гришина , д. 23, к. 1",55.724545,37.415011,Москва
2713,13013,2713Ш_Нахимовский28,"Москва пр-т Нахимовский, д. 28, к. 1",55.673372,37.577472,Москва
2714,13014,2714МТ_Кочновский4_эт2,"Москва пр. Кочновский, д. 4, к. 3, этаж 2",55.807319,37.544764,Москва
2718,13018,2718М_Славянский9,"Москва б-р Славянский, д. 9, к. 1",55.726244,37.467536,Москва
2720,13020,2720М_Садовническая51,"Москва ул. Садовническая, д. 51, стр. 1",55.742812,37.639525,Москва
2724,13024,2724МТ_2-йЮжнопортовый12эт3,"Москва пр. 2-й Южнопортовый, д. 12а, к. 1, этаж 3",55.701775,37.689195,Москва
2727,13027,2727МТ_Волгоградский32к45эт3,"Москва пр-т Волгоградский, д. 32 к. 45, этаж 3",55.721833,37.695259,Москва
2729,13029,2729МТ_Вавилова19Сэт2,"Москва ул. Вавилова, д. 19, корпус С, этаж 2",55.700182,37.580158,Москва
2732,13032,2732МТ_Вавилова19А14,"Москва ул. Вавилова, д. 19, корпус А, этаж 14",55.700182,37.580158,Москва
2741,13041,2741МТ_Пресненская6_эт35,"Москва наб. Пресненская, д. 6, стр. 2, этаж 35",55.748143,37.540488,Москва
2753,13053,2753МТ_Ленинградское16стр2,"Москва ш. Ленинградское, д. 16А, стр. 2",55.821573,37.498725,Москва
2755,13055,2755МТ_1-ыйМагистральный11,"Москва пр. 1-ый Магистральный, д. 11, стр. 1",55.765716,37.525324,Москва
2759,13058,2759МТ_НижнийСусальный5стр19эт3,"Москва пер. Нижний Сусальный, д. 5, стр. 19",55.759370,37.666036,Москва
2761,13060,2761МТ_Ленинградский31эт32,"Москва пр-т Ленинградский, д. 31А, стр. 1, этаж 32",55.784207,37.559550,Москва
2766,13064,2766МТ_Андропова18эт7,"Москва пр-т Андропова, д. 18, к. 6, эт. 7",55.692861,37.662210,Москва
2768,13066,2768МТ_Правды8эт6,"Москва ул. Правды, д. 8, к. 1, этаж 6",55.784152,37.579205,Москва
2771,13069,2771М_Мос_ТатьянинПарк19,"Москва п. Московский, ул. Татьянин Парк, д. 19, к. 1",55.657347,37.426168,Москва
2773,13071,2773М_Бутлерова4,"Москва Москва, ул. Бутлерова, д. 4",55.653228,37.525001,Москва
2791,13072,2791МТ_Варшавское9стр1эт2,"Москва ул. Варшавское, д. 9, стр. 1, этаж 2",55.700318,37.625038,Москва
2793,13074,2793МТ_БольшаяНоводмитровская23,"Москва ул. Большая Новодмитровская, д. 23, стр. 5",55.803519,37.584353,Москва
2852,13132,2852М_Новоясеневский1,"Москва пр-т Новоясеневский, д. 1, к. 2",55.619940,37.507205,Москва
2853,13133,2853М_Дмитровское13,"Москва ш. Дмитровское, д. 13А",55.818710,37.573501,Москва
2862,13141,2862МТ_Поклонная3к1эт3,"Москва ул. Поклонная, д. 3, к. 1, этаж 3",55.737294,37.534586,Москва
2863,13142,2863МТ_Поклонная3эт18,"Москва ул. Поклонная, д. 3 к. 1, этаж 18",55.737294,37.534586,Москва
2867,13146,2867МТ_Щукинская2эт3,"Москва ул. Щукинская, д. 2, этаж 3",55.809636,37.481927,Москва
2868,13147,2868МТ_Головинское5эт19,"Москва ш. Головинское, д. 5, к. 1, этаж 19",55.840240,37.492024,Москва
2871,13150,2871М_Ком_Ясная5,"Коммунарка ул. Ясная, д. 5",55.567260,37.475710,Москва
2872,13151,2872Ш_ЩапЩапово54,"Москва  Щаповское, поселок Щапово, д. 54, к. 141",55.418890,37.407681,Москва
2875,13154,2875М_Валовая32,"Москва ул. Валовая, д. 32/75, стр. 1",55.730264,37.625909,Москва
2888,13168,2888Ш_Вересаева12,"Москва ул. Вересаева, д. 12",55.718532,37.444961,Москва
2889,13169,2889МТ_Краснопресненская14,"Москва наб. Краснопресненская, д. 14, стр. 1, этаж 9",55.752637,37.548204,Москва
2907,13183,2907МТ_Соймоновский5,"Москва пр. Соймоновский, д. 5, этаж 5",55.743233,37.604358,Москва
2909,13185,2909М_АкадемикаКомарова5,"Москва ул. Академика Комарова, д. 5А",55.829092,37.594908,Москва
2915,13188,2915МТ_бульвар_Энтузиастов2эт8,"Москва б-р Энтузиастов, д. 2, 8 этаж",55.746405,37.682592,Москва
2931,13203,2931М_Каширское26,"Москва ш. Каширское, д. 26, к. 2",55.653512,37.648169,Москва
2937,13210,2937МТ_Краснопролетарская16эт3,"Москва ул. Краснопролетарская, д. 16, стр. 3, этаж 3",55.778507,37.607547,Москва
2962,13235,2962М_Поляны5,"Москва ул. Поляны, д. 5",55.557765,37.555023,Москва
2986,13259,2986МТ_Шарикоподшипниковская1эт8,"Москва ул. Шарикоподшипниковская, д. 1, этаж 8",55.722953,37.665641,Москва
2989,13262,2989М_Ярцевская34,"Москва ул. Ярцевская, д. 34, к. 2",55.741673,37.419422,Москва
2991,13264,2991МТ_Ленинградский36с11,"Москва пр-т Ленинградский, д. 36, стр. 11 1 этаж",55.788353,37.567922,Москва
2992,13265,2992М_Красноказарменная10,"Москва ул. Красноказарменная, д. 10",55.757379,37.697837,Москва
3012,13283,3012МТ_Нарвская21,"Москва ул. Нарвская, д. 21",55.842221,37.501600,Москва
3019,13295,3019МТ_3яХорошевская12_эт2,"Москва ул. 3-я Хорошевская, д. 12, этаж 2",55.787396,37.499372,Москва
3024,13301,3024Ш_Орджоникидзе9,"Москва ул. Орджоникидзе, д. 9, к. 1",55.709962,37.598483,Москва
3029,13306,3029МТ_Европы2эт1,"Москва пл. Европы, д. 2, этаж 1",55.741804,37.567779,Москва
3030,13307,3030М_Зел_Георгиевский37,"Зеленоград пр-т Георгиевский, д. 37, к. 1",55.968000,37.150583,Москва
3031,13308,3031МТ_Партийный1эт1,"Москва пер. Партийный, д. 1, к. 57, этаж 1",55.719571,37.629439,Москва
3036,13313,3036М_Зацепскийвал4,"Москва ул. Зацепский вал, д. 4, стр. 2",55.733026,37.639869,Москва
3039,13316,3039М_Мичуринский16,"Москва пр-т Мичуринский, д. 16",55.703119,37.506047,Москва
3050,13327,3050МТ_Андропова18к3эт11,"Москва пр-т Андропова, д. 18, к. 3",55.695022,37.662740,Москва
3051,13328,3051МТ_Андропова18эт5,"Москва пр-т Андропова, д. 18, к. 5 этаж 5",55.692308,37.662785,Москва
3057,13335,3057Ш_Воронежская16,"Москва ул. Воронежская, д. 16",55.609985,37.732620,Москва
3062,13342,3062М_Рублевское62,"Москва ш. Рублевское, д. 62",55.766212,37.380875,Москва
3069,13349,3069МТ_Боровая3,"Москва ул. Боровая, д. 3, к. 1",55.771702,37.715084,Москва
3070,13350,3070МТ_Никопольская4_эт3,"Москва ул. Никопольская, д. 4 этаж 3",55.585337,37.621471,Москва
3072,13352,3072М_БольшаяСпасская8,"Москва ул. Большая Спасская , д. 8, стр. 1А",55.775839,37.644171,Москва
3142,13421,3142М_Куусинена4,"Москва ул. Куусинена, д. 4а, к. 1",55.780279,37.516602,Москва
3145,13424,3145МТ_Зубовский4,"Москва б-р Зубовский, д. 4, стр. 1 этаж 2",55.737355,37.590488,Москва
3146,13425,3146Ш_Братеевская37,"Москва ул. Братеевская, д. 37, к. 1",55.636971,37.769253,Москва
3151,13429,3151Ш_Сеславинская24,"Москва ул. Сеславинская, д. 24",55.742975,37.492419,Москва
3155,13433,3155М_АндреяТарковского1,"Москва б-р Андрея Тарковского, д. 1",55.629537,37.340739,Москва
3157,13435,3157МТ_Каланчевская27эт1,"Москва ул. Каланчевская, д. 27 этаж 1",55.774786,37.650334,Москва
3178,13457,3178МТ_1-йНагатинский10эт10,"Москва пр. 1-й Нагатинский , д. 10, стр. 1 этаж 10",55.678042,37.630966,Москва
3179,13458,3179Ш_МаршалаРыбалко5,"Москва ул. Маршала Рыбалко, д. 5",55.796486,37.493039,Москва
3184,13463,3184Ш_Трофимова13,"Москва ул. Трофимова, д. 13",55.703231,37.670753,Москва
3249,13528,3249МТ_Цветной2эт7,"Москва б-р Цветной, д. 2",55.768025,37.623483,Москва
3254,13532,3254М_Комсомольский48,"Москва пр-т Комсомольский, д. 48/22",55.719825,37.571174,Москва
3255,13533,3255МТ_Переведеновский17эт2,"Москва пер. Переведеновский , д. 17, к. 1 этаж 2",55.780709,37.691351,Москва
3267,13542,3267М_Кронштадтский7,"Москва б-р Кронштадтский, д. 7",55.840902,37.487397,Москва
3269,13544,3269МТ_БольшойКисловский11эт1,"Москва пер. Большой Кисловский , д. 11",55.755257,37.605822,Москва
3271,13546,3271Ш_мкрЦентральный9,"Москва п Вороновское, п. ЛМС, мкр Центральный мкр, д 9",55.313506,37.175961,Москва
3275,13550,3275М_Химкинский16,"Москва б-р Химкинский, д. 16, к. 1",55.851965,37.443030,Москва
3283,13558,3283М_Базовская15,"Москва ул. Базовская, д. 15, к. 8",55.878056,37.507906,Москва
3284,13559,3284МТ_Валовая35,"Москва ул. Валовая, д. 35",55.729366,37.626232,Москва
3286,13561,3286Ш_Андропова38,"Москва пр-т Андропова, д. 38",55.674082,37.661608,Москва
3294,13569,3294Ш_Озёрная31,"Москва ул. Озёрная, д. 31",55.672900,37.450396,Москва
3296,13571,3296М_Чистопрудный9,"Москва б-р Чистопрудный, д. 9, стр. 1",55.762870,37.643668,Москва
3309,13584,3309Ш_Новорогожская6,"Москва ул. Новорогожская, д. 6, стр. 1",55.741166,37.682278,Москва
3326,13603,3326Ш_АдмиралаЛазарева58,"Москва ул. Адмирала Лазарева, д. 58",55.541428,37.512074,Москва
3337,13614,3337М_3йПавелецкий3,"Москва пр. 3-й Павелецкий, д. 3",55.710960,37.643883,Москва
3339,13616,3339МТ_Профсоюзная65эт8,"Москва ул. Профсоюзная, д. 65, к. 1 этаж 8",55.653321,37.537893,Москва
3340,13617,3340М_Недорубова7,"Москва ул. Недорубова, д. 7",55.700644,37.930509,Москва
3342,13619,3342МТ_Мира69эт5,"Москва пр-т Мира, д. 69, стр. 1 этаж 5",55.786419,37.634209,Москва
3346,13623,3346М_БольшаяОчаковская11,"Москва ул. Большая Очаковская, д. 11",55.683666,37.458544,Москва
3350,13627,3350М_Новоясеневский11,"Москва пр-т Новоясеневский, д. 11",55.606670,37.536284,Москва
3352,13629,3352Ш_Юрьевский22,"Москва пер. Юрьевский, д. 22, к. 1",55.762530,37.717447,Москва
3353,13630,3353Ш_11яПарковая9,"Москва ул. 11-я Парковая, д. 9/35",55.792002,37.805230,Москва
3354,13631,3354Ш_Люсиновская70,"Москва ул. Люсиновская, д. 70, стр. 2",55.714825,37.620761,Москва
3357,13634,3357М_Снайперская8,"Москва ул. Снайперская, д. 8",55.722172,37.811905,Москва
3359,13636,3359МТ_Чермянская2эт2,"Москва ул. Чермянская, д. 2 этаж 2",55.885070,37.635134,Москва
3371,13648,3371МТ_Цветной32,"Москва б-р Цветной , д. 32  стр. 1 этаж 2",55.772887,37.622037,Москва
3380,13657,3380М_Буденного29,"Москва пр-т Буденного, д. 29/1",55.768036,37.730697,Москва
3383,13660,3383М_пКрёкшино2,"Москва Крёкшино, ул. Озерная д. 2",55.596727,37.114282,Москва
3396,13673,3396МТ_Нахимовский58,"Москва пр-т Нахимовский, д. 58",55.683787,37.554169,Москва
3404,13681,3404М_Сретенка26,"Москва ул. Сретенка, д. 26/1",55.770259,37.632772,Москва
3406,13683,3406_Продукты_Офис_Щепкина,"Москва ул. Щепкина, д. 42, стр. 2А, 7 этаж",55.782547,37.629834,Москва
3434,13713,3434М_НародногоОполчения23,"Москва ул. Народного Ополчения, д. 23, к. 1",55.779084,37.478441,Москва
3439,13718,3439М_Ореховый45,"Москва б-р Ореховый, д. 45",55.614582,37.742690,Москва
3441,13720,3441МТ_Ленинградский36с10,"Москва пр-т Ленинградский, д. 36, стр. 10",55.788515,37.567482,Москва
3442,13721,3442МТ_Андропова18к2,"Москва пр-т Андропова, д. 18, к. 2, этаж 4",55.695611,37.662371,Москва
3443,13722,3443МТ_СмоленскаяСенная28,"Москва пл. Смоленская-Сенная, д. 28",55.744145,37.584640,Москва
3457,13735,3457МТ_Пресненская6_эт30,"Москва наб. Пресненская, д. 6, стр. 2",55.748143,37.540488,Москва
3462,13740,3462М_Дмитровское107,"Москва ш. Дмитровское, д. 107, к. 2",55.879707,37.541889,Москва
3463,13741,3463М_Комсомольский27,"Москва пр-т Комсомольский, д. 27, стр. 5",55.726046,37.581487,Москва
3475,13753,3475Ш_Фортунатовская33,"Москва ул. Фортунатовская, д. 33/44",55.783767,37.739016,Москва
3481,13757,3481М_Варшавскоешоссе141,"Москва ул. Варшавское шоссе, д. 141, к. 9",55.588949,37.600810,Москва
3486,13762,3486М_Новокосинская15,"Москва ул. Новокосинская, д. 15ас1",55.737730,37.854584,Москва
3491,13767,3491Ш_Вернадского54,"Москва пр-т Вернадского, д. 54",55.673656,37.494791,Москва
3503,13779,3503Ш_Рижский7,"Москва пр. Рижский, д. 7",55.814143,37.660611,Москва
3532,13808,3532Ш_Ягодная4,"Москва ул. Ягодная, д. 4",55.577541,37.675792,Москва
3533,13809,3533Ш_Смольная35,"Москва ул. Смольная, д. 35, стр. 1",55.860822,37.481235,Москва
3534,13810,3534М_Пречистенка31,"Москва ул. Пречистенка, д. 31/16",55.740051,37.590237,Москва
3540,13816,3540МТ_Петровка7,"Москва ул. Петровка, д. 7 этаж 6",55.762237,37.617069,Москва
3569,13845,3569МТ_Новорязанская24,"Москва ул. Новорязанская, д. 24",55.771591,37.665336,Москва
3575,13851,3575Ш_2-яКарачаровская1,"Москва ул. 2-я Карачаровская, д. 1 стр. 1",55.734663,37.753101,Москва
3582,13858,3582М_Корабельная11эт1,"Москва ул. Корабельная, д. 11 к. 2",55.684264,37.697127,Москва
3601,13877,3601М_Ленинградскийпроспект29,"Москва пр-т Ленинградский проспект, д. 29, к. 2",55.786373,37.561933,Москва
3602,13878,3602МТ_Доброслободская5эт1,"Москва ул. Доброслободская, д. 5 стр. 1 этаж 1",55.768749,37.672407,Москва
3603,13879,3603МТ_Полковая3эт4,"Москва ул. Полковая, д. 3 стр. 1 этаж 4",55.798293,37.604637,Москва
3612,13888,3612М_Ленинградское9,"Москва ш. Ленинградское, д. 9 к. 1",55.816718,37.498585,Москва
3613,13889,3613МТ_КларыЦеткин2эт2,"Москва ул. Клары Цеткин, д. 2 этаж 2",55.818144,37.520617,Москва
3614,13890,3614МТ_Головинское5эт25,"Москва ш. Головинское, д. 5 к. 1 этаж 25",55.840240,37.492024,Москва
3616,13892,3616МТ_Беловежская4эт1,"Москва ул. Беловежская, д. 4",55.712528,37.389122,Москва
3619,13895,3619МТ_Обручева30эт8,"Москва ул. Обручева, д. 30/1 стр. 2  этаж 8",55.656189,37.526169,Москва
3628,13904,3628МТ_БольшаяТатарская11,"Москва ул. Большая Татарская, д. 11 к. С",55.740710,37.634173,Москва
3637,13912,3637МТ_Кутузовский32эт18,"Москва пр-т Кутузовский, д. 32 к. 2",55.742488,37.530903,Москва
3636,13913,3636МТ_Кутузовский32эт15,"Москва пр-т Кутузовский, д. 32 к. 2",55.742488,37.530903,Москва
3638,13914,3638МТ_Кутузовский32эт10,"Москва пр-т Кутузовский, д. 32 к. 2",55.742488,37.530903,Москва
3650,13926,3650М_Веерная22эт1,"Москва ул. Веерная, д. 22 к. 1",55.708516,37.482861,Москва
3653,13939,3653Ш_Зеленоград2008эт1,Зеленоград корпус 2008,55.974017,37.162776,Москва
3657,13943,3657М_Профсоюзная109эт1,"Москва ул. Профсоюзная, д. 109 к.2",55.631861,37.519401,Москва
3665,13952,3665МТ_Волочаевская5к1эт1,"Москва ул. Волочаевская, д. 5, к. 1",55.753747,37.681371,Москва
3668,13955,3668М_Обручева11эт1,"Москва ул. Обручева, д. 11",55.660221,37.515137,Москва
3673,13960,3673М_Магнитогорская7эт1,"Москва ул. Магнитогорская , д. 7",55.774320,37.825344,Москва
3682,13968,3682Ш_ЕгораАбакумова15,"Москва ул. Егора Абакумова, д. 15а",55.880096,37.712282,Москва
3684,13970,3684М_Ленинский40эт1,"Москва проспект Ленинский, д. 40",55.702942,37.570258,Москва
3686,13971,3686МТ_5-ыйНовоподмосковный6эт4,"Москва пер. 5-ый Новоподмосковный, д. 6",55.822589,37.507340,Москва
3700,13992,3700М_Ходынский20эт1,"Москва б-р Ходынский, д. 20А",55.790777,37.523204,Москва
3718,14010,3718Ш_ГенералаБелова28эт1,"Москва ул. Генерала Белова, д. 28 стр. 1",55.605327,37.724490,Москва
3719,14011,3719Ш_Дмитровское50,"Москва ш. Дмитровское, д. 50 к. 1",55.845572,37.569351,Москва
3722,14014,3722М_Ташкентская19,"Москва ул. Ташкентская, д. 19",55.702064,37.814339,Москва
3729,14021,3729МТ_Садовая-Кудринская32эт2,"Москва ул. Садовая-Кудринская, д. 32 стр. 1",55.765412,37.590901,Москва
3730,14022,3730М_Арбат1,"Москва ул. Арбат, д. 1",55.751812,37.599292,Москва
3736,14025,3736М_Боровское36,"Москва ш. Боровское, д. 36А + ""ВкусВиллАйс""",55.639065,37.352803,Москва
3739,14028,3739М_Новогиреевская20к2,"Москва ул. Новогиреевская, д. 20/34 к. 2",55.758519,37.794549,Москва
3740,14029,3740МТ_МаршалаЖукова4эт1,"Москва пр-т Маршала Жукова, д. 4 стр. 1",55.776527,37.500127,Москва
3741,14030,3741М_Мичуринский34,"Москва пр-т Мичуринский, д. 34",55.698340,37.498025,Москва
3749,14038,3749МТ_Вятская27стр42эт2,"Москва ул. Вятская, д. 27 стр. 42",55.797111,37.579759,Москва
3775,14064,3775М_Онежская11,"Москва ул. Онежская, д. 11/11",55.849180,37.520294,Москва
3777,14066,3777М_Новинский18,"Москва б-р Новинский, д. 18",55.754801,37.584550,Москва
3781,14070,3781М_Дубравная34,"Москва ул. Дубравная, д. 34/29",55.846082,37.357950,Москва
3785,14074,3785Ш_Каширское65к2,"Москва ул. Каширское шоссе, д. 65 к. 2",55.599728,37.724723,Москва
3798,14087,3798М_Черняховского17,"Москва ул. Черняховского, д. 17А",55.807886,37.538916,Москва
3804,14093,3804М_МаршалаВасилевского17,"Москва ул. Маршала Василевского, д. 17 + ""ВкусВиллАйс""",55.808923,37.462317,Москва
3813,14102,3813МТ_Зорге1эт17,"Москва ул. Зорге , д. 1",55.778699,37.512371,Москва
3835,14112,3835М_АкадемикаЛандау1,"Москва б-р Академика Ландау, д. 1",55.920300,37.550217,Москва
3841,14118,3841МТ_Лубянский3эт1,"Москва пр. Лубянский, д. 3 стр. 6",55.759428,37.630315,Москва
3843,14120,3843Ш_Погонный3,"Москва пр. Погонный, д. 3А",55.818948,37.702706,Москва
3848,14125,3848Ш_Сухонская15,"Москва ул. Сухонская, д. 15 стр. 2",55.881268,37.655571,Москва
3849,14126,3849МТ_Огородный12эт1,"Москва пр. Огородный , д. 12 стр. 1",55.814108,37.603460,Москва
3856,14133,3856М_2-аяЗвенигородская11,"Москва ул. 2-ая Звенигородская, д. 11",55.761538,37.554214,Москва
3864,14141,3864МТ_Волочаевская5к3эт1,"Москва ул. Волочаевская, д. 5 к. 3, этаж 1",55.752911,37.683374,Москва
3868,14145,3868М_Лечебная14,"Москва ул. Лечебная, д. 14",55.789988,37.737273,Москва
3878,14155,3878М_Волгоградский3-5,"Москва пр-т Волгоградский , д. 3-5 стр. 2",55.731906,37.672379,Москва
3880,14157,3880М_СивцевВражек20,"Москва пер. Сивцев Вражек, д. 20",55.747819,37.593920,Москва
3881,14158,3881МТ_2-яТверская-Ямская8эт1,"Москва ул. 2-я Тверская-Ямская, д. 8",55.771251,37.595887,Москва
3883,14160,3883МТ_ВасилисыКожиной1эт1,"Москва ул. Василисы Кожиной, д. 1",55.737494,37.505155,Москва
3884,14161,3884МТ_Рочдельская15стр15эт3,"Москва ул. Рочдельская, д. 15 стр. 15",55.755670,37.565043,Москва
3906,14183,3906М_Шарикоподшипниковская6,"Москва ул. Шарикоподшипниковская, д. 6/14",55.720160,37.673385,Москва
3907,14184,3907Ш_Пришвина17,"Москва ул. Пришвина, д. 17",55.887069,37.603289,Москва
3917,14194,3917М_Мастеркова1,"Москва ул. Мастеркова, д. 1",55.710093,37.658877,Москва
3934,14211,3934М_Шелепихинская34,"Москва наб. Шелепихинская, д. 34 к. 1",55.761320,37.512505,Москва
3951,14228,3951М_Производственная8,"Москва ул. Производственная, д. 8 к. 2",55.645847,37.389059,Москва
3962,14239,3962М_Шмитовский19,"Москва пр. Шмитовский, д. 19",55.757303,37.547387,Москва
3972,14252,3972МТ_СаввинскийБ12стр9эт2,"Москва пер.  Саввинский Б, д. 12 стр. 9",55.732007,37.562254,Москва
3978,14258,3978М_Мира188к4,"Москва пр-т Мира, д. 188Б к. 4",55.834568,37.659622,Москва
4039,14322,4039МТ_Андропова18к5эт15,"Москва пр-т Андропова, д. 18 к. 5 этаж 15",55.692308,37.662785,Москва
4047,14330,4047М_Лазоревый1к2,"Москва пр. Лазоревый, д. 1А, к. 2 + ""ВкусВиллАйс""",55.847295,37.638521,Москва
4048,14331,4048МТ_Ленинградское16стр1эт6,"Москва ш. Ленинградское, д. 16А стр. 1",55.821386,37.497746,Москва
4049,14332,4049М_Бутырская2,"Москва ул. Бутырская, д. 2/18",55.794416,37.586509,Москва
4058,14343,4058М_Ярославское122,"Москва ш. Ярославское, д. 122 к. 1",55.870074,37.712339,Москва
4059,14344,4059МТ_Пресненская6эт27,"Москва наб. Пресненская, д. 6 стр. 2",55.748143,37.540488,Москва
4062,14347,4062М_Люблинская169,"Москва ул. Люблинская, д. 169 к. 2",55.649063,37.744936,Москва
4080,14365,4080М_Цандера8,"Москва  Цандера, д. 8",55.818205,37.630966,Москва
4081,14366,4081М_Дорожная32,"Москва д. Яковлевское, ул. Дорожная, д. 32",55.463890,36.938944,Москва
4088,14373,4088М_Щербаковская3,"Москва ул. Щербаковская, д. 3",55.782632,37.723378,Москва
4099,14384,4099М_Скандинавский6,"Москва б-р Скандинавский, д. 6",55.566231,37.497629,Москва
4101,14386,4101М_Введенского13К,"Москва ул. Введенского, д. 13К",55.641752,37.541683,Москва
4105,14390,4105М_Садовая-Триумфальная22,"Москва ул. Садовая-Триумфальная, д. 22/31",55.771773,37.603424,Москва
4111,14396,4111М_Вернадского86,"Москва пр-т Вернадского, д. 86а",55.663019,37.480993,Москва
4252,14537,4252М_Дмитровское169,"Москва ш. Дмитровское, д. 169 к. 6",55.928975,37.540793,Москва
4295,14579,4295М_Пер_Рабочая11,"Москва ул. Рабочая, д. 11 стр. 1",55.540056,37.154569,Москва
4297,14581,4297МТ_Гиляровского42,"Москва ул. Гиляровского, д. 42",55.783554,37.632871,Москва
4368,14652,4368МТ_Кутузовский32эт12,"Москва пр-т Кутузовский, д. 32 к. 2",55.742727,37.530526,Москва
4373,14657,4373МТ_Правды8эт1,"Москва ул. Правды, д. 8 к. 1",55.784152,37.579205,Москва
4431,14716,4431МТ_Дольская1эт3,"Москва ул. Дольская, д. 1 стр. 4",55.615812,37.684443,Москва
4432,14717,4432М_Липовыйпарк7,"Москва ул. Липовый парк, д. 7 + ""ВкусВиллАйс""",55.568736,37.489805,Москва
4452,14735,4452М_МаршалаЖукова51,"Москва пр-т Маршала Жукова, д. 51",55.776655,37.462196,Москва
4457,14740,4457М_АрхитектораЩусева2эт1,"Москва ул. Архитектора Щусева, д. 2 к. 1",55.699933,37.635377,Москва
4465,14747,4465МТ_Профсоюзная76эт5,"Москва ул. Профсоюзная, д. 76",55.660760,37.543560,Москва
4466,14748,4466МТ_Трифоновская47эт1,"Москва ул. Трифоновская, д. 47 стр. 1",55.789274,37.626241,Москва
4467,14749,4467МТ_Подкопаевский4эт-1,"Москва пер. Подкопаевский, д. 4 к. Б",55.754228,37.641845,Москва
4471,14753,4471МП_Деливери_БольшаяСпасская8,"Москва ул. Большая Спасская, д. 8, стр. 1А",55.775839,37.644171,Москва
4474,14756,4474МТ_Новинский8эт6,"Москва б-р Новинский , д. 8",55.751310,37.584613,Москва
4475,14757,4475МТ_2-йЮжнопортовый18эт3,"Москва пр. 2-й Южнопортовый, д. 18  стр. 2",55.702673,37.691773,Москва
4479,14761,4479МТ_Мурманский14эт3,"Москва пр. Мурманский, д. 14 к. 1",55.807015,37.622315,Москва
4508,14790,4508МТ_бульвар_Энтузиастов2эт1,"Москва б-р Энтузиастов, д. 2",55.746438,37.682613,Москва
4510,14792,4510ВГ_Кулакова20,"Москва ул. Кулакова, д. 20 к. 1",55.803479,37.390514,Москва
4513,14796,4513МТ_1-йКрасногвардейский21эт33,"Москва пр. 1-й Красногвардейский, д. 21 стр. 1",55.750022,37.534392,Москва
4528,14811,4528И_ОплатаЗаказовПоТерминалу,"Москва ул. Кулакова, д. 20, к. 1",55.803479,37.390514,Москва
4529,14812,4529МТ_Ольховская4эт4,"Москва ул. Ольховская, д. 4 к. 2",55.773039,37.665704,Москва
4532,14815,4532М_Фонвизина17,"Москва ул. Фонвизина, д. 17",55.821092,37.586994,Москва
4533,14816,4533МТ_Ефремова8эт3,"Москва ул. Ефремова, д. 8",55.726208,37.576762,Москва
4534,14817,4534МТ_Каширский13эт4,"Москва пр. Каширский, д. 13",55.656773,37.631909,Москва
4537,14820,4537М_Миклухо-Маклая43,"Москва ул. Миклухо-Маклая, д. 43",55.644105,37.523779,Москва
4564,14848,4564МТ_Смоленская5эт7,"Москва пл. Смоленская, д. 5",55.748224,37.581406,Москва
4567,14851,4567МТ_Научный20эт1,"Москва пр. Научный, д. 20 стр. 2",55.653782,37.552507,Москва
4569,14853,4569М_Молодцова2,"Москва ул. Молодцова, д. 2А",55.877713,37.646848,Москва
4570,14854,4570МТ_Якиманская2эт3,"Москва наб. Якиманская, д. 2",55.739559,37.611940,Москва
4571,14855,4571М_БольшаяФилевская19к2,"Москва ул. Большая Филёвская, д. 19/18 к. 2",55.746826,37.495635,Москва
4573,14857,4573М_Затонная4,"Москва ул. Затонная, д. 4 стр. 2",55.679996,37.683482,Москва
4575,14859,4575М_Новодмитровская2,"Москва ул. Новодмитровская, д. 2 к. 4",55.804046,37.590659,Москва
4576,14860,4576М_3яХорошевская21,"Москва ул. Хорошевская 3-я, д. 21А",55.785782,37.498761,Москва
4581,14865,4581М_Вавилова64,"Москва ул. Вавилова, д. 64В стр. 1",55.683310,37.550783,Москва
4585,14869,4585М_Лобненская9,"Москва Лобненская, дом № 9",55.889038,37.537856,Москва
4596,14880,4596МТ_Хорошевское43эт1,"Москва ш. Хорошевское, д. 43Г стр. 1",55.775940,37.510942,Москва
4598,14882,4598М_Малыгина7,"Москва ул. Малыгина, д. 7, с. 2",55.880616,37.694181,Москва
4614,14898,4614МТ_Гончарная21эт3,"Москва ул. Гончарная, д. 21",55.743694,37.649220,Москва
4615,14899,4615М_Боровское2стр5,"Москва ш. Боровское, д. 2А, стр. 5",55.661338,37.412226,Москва
4617,14901,4617М_БольшаяАкадемическая24,"Москва ул. Большая Академическая, д. 24 к. 2",55.824455,37.529897,Москва
4618,14902,4618М_Маломосковская14,"Москва ул. Маломосковская, д. 14",55.812752,37.647549,Москва
4622,14904,4622М_Митинская53,"Москва ул. Митинская, д. 53",55.853400,37.351635,Москва
4629,14912,4629М_23кмКиевское11Саларьевская14,"Москва ул. Саларьевская, д. 14, к. 2",55.617591,37.411373,Москва
4633,14916,4633МТ_Шаболовка31эт4,"Москва ул. Шаболовка, д. 31 стр. Б",55.720895,37.613961,Москва
4648,14931,4648МТ_Пресненская6эт13,"Москва наб. Пресненская, д. 6 стр. 2",55.748179,37.540245,Москва
4653,14936,4653М_Фрунзенская34,"Москва Фрунзенская наб., д. 34",55.722588,37.586239,Москва
4655,14938,4655МТ_НовАрбат10эт6,"Москва ул. Арбат, д. 10",55.751381,37.596669,Москва
4660,14943,4660МТ_Андропова18к9эт15,"Москва пр-т Андропова, д. 18 к. 9",55.691734,37.660548,Москва
4664,14947,4664МТ_Зорге1эт9,"Москва ул. Зорге, д. 1 стр. 1",55.778968,37.512155,Москва
4673,14956,4673М_1-яНововатутинская3,"Москва ул. 1-я Нововатутинская, д. 3",55.518117,37.355139,Москва
4679,14961,4679МТ_Пречистенская45эт1,"Москва наб. Пречистенская , д. 45/1 стр. 1",55.746309,37.608562,Москва
4683,14966,4683М_Октябрьская89,"Москва Октябрьская, дом № 89",55.796825,37.612165,Москва
4688,14971,4688М_Зеленодольская18,"Москва ул. Зеленодольская, д. 18 к. 1",55.713339,37.779835,Москва
4692,14975,4692М_Римского-Корсакова11,"Москва ул. Римского-Корсакова, д. 11 к. 5",55.874748,37.602813,Москва
4693,14976,4693М_Корабельная6,"Москва ул. Корабельная, д. 6",55.679062,37.695304,Москва
4699,14982,4699МТ_Дурова26стр1эт1,"Москва ул. Дурова, д. 26 стр. 1",55.778122,37.626502,Москва
4700,14983,4700М_Головинское10,"Москва Головинское шоссе, д. 10Б",55.837181,37.497315,Москва
4702,14985,4702М_Веласкеса2,"Сосенское б-р Веласкеса, д. 2 стр. 1",55.591269,37.454843,Москва
4705,14988,4705М_Долгопрудная14,"Москва ул. Долгопрудная аллея, д. 14 к. 3",55.941743,37.525019,Москва
4706,14989,4706М_Каховка28,"Москва ул. Каховка, д. 28 к. 2",55.659906,37.562847,Москва
4707,14990,4707М_Ленинский73Переезд,"Москва Ленинский, дом № 73/8",55.688553,37.547405,Москва
4713,14996,4713МТ_Андропова18к1эт10,"Москва пр-т Андропова, д. 18 к. 1",55.695155,37.662697,Москва
4714,14997,4714МТ_Андропова18к1эт11,"Москва пр-т Андропова, д. 18 к. 1",55.695022,37.662740,Москва
4716,14999,4716М_Шипиловская41,"Москва ул. Шипиловская, д. 41 к. 3",55.622355,37.739546,Москва
4723,15006,4723ДС_Мос_Солнечная3,"Московский ул. Солнечная, д. 3А стр. 1",55.590796,37.366942,Москва
4741,15025,4741М_Рязанский58,"Москва пр-т Рязанский, д. 58/1",55.715190,37.797478,Москва
4743,15027,4743ДС_Киевская27,"Москва Только для курьеров. ул. Киевская, д. 27",55.737174,37.541238,Москва
4748,15035,4748М_Красноказарменная14,"Москва ул. Красноказарменная, д. 14а к. 4",55.751725,37.707009,Москва
4749,15036,4749М_Петровка24,"Москва ул. Петровка, д. 24 стр. 2",55.765270,37.616512,Москва
4752,15039,4752М_Россошанская1,"Москва ул. Россошанская, д. 1",55.595824,37.606333,Москва
4755,15042,4755ДС_Пятницкое29,"Москва Только для курьеров. ш. Пятницкое, д. 29 к. 2",55.850095,37.363771,Москва
4757,15044,4757ДС_Ленинградский80,"Москва Только для курьеров. Ленинградский пр-т, дом № 80, к. 17",55.808513,37.510670,Москва
4759,15046,4759М_Новочеремушкинская66Переезд,"Москва ул. Новочеремушкинская, д. 66 к. 1",55.663400,37.560502,Москва
4764,15051,4764ДС_Ташкентская28,"Москва Только для курьеров. Ташкентская, д. 28, с. 1",55.699157,37.806075,Москва
4774,15062,4774М_Сиреневый59,"Москва б-р Сиреневый, д. 59 стр. 1",55.803636,37.817519,Москва
4776,15064,4776М_Вешняковская15,"Москва Вешняковская, дом № 15А + ВкусВиллАйс",55.735256,37.829952,Москва
4780,15068,4780М_Рождественская29,"Москва ул. Рождественская, д. 29",55.707491,37.928632,Москва
4784,15072,4784М_Николоямская29,"Москва ул. Николоямская, д. 29 стр. 1",55.747297,37.656514,Москва
4785,15073,4785ДС_Солнечногорская4,"Москва Только для курьеров. ул. Солнечногорская , д. 4 стр. 6",55.857370,37.518674,Москва
4786,15074,4786ДС_Борисовскиепруды8,"Москва Только для курьеров. ул. Борисовские пруды, д. 8а",55.635076,37.736428,Москва
4788,15076,4788МТ_Воронцовская1эт3,"Москва ул. Воронцовская, д. 1/3",55.740563,37.655454,Москва
4795,15084,4795ДС_Шолохова19,"Москва Только для курьеров. ул. Шолохова, д. 19А",55.643079,37.343311,Москва
4799,15088,4799ДС_Речников17,"Москва Только для курьеров. ул. Речников, д. 17 к. 2",55.680996,37.692869,Москва
4801,15090,4801ДС_Походный5,"Москва Только для курьеров. пр. Походный, д. 5",55.836924,37.411427,Москва
4802,15091,4802М_Вернадского9,"Москва пр-т Вернадского , д. 9/10",55.690755,37.532511,Москва
4803,15092,4803М_Рязанский2,"Москва пр-т рязанский, д. 2/1 к. 5",55.727952,37.737578,Москва
4804,15093,4804М_Балаклавский16,"Москва Балаклавский, дом № 16",55.642199,37.604520,Москва
4811,15101,4811ДС_Миклухо-Маклая40,"Москва Только для курьеров, Миклухо-Маклая, дом № 40А",55.638541,37.539777,Москва
4814,15103,4814МТ_Мос_посИнститутаПолиомиелита8эт1,"Московский ул. посёлок Института Полиомиелита, д. 8 к. 1",55.602591,37.336058,Москва
4822,15111,4822Ш_Краснобогатырская90,"Москва ул. Краснобогатырская, д. 90 стр. 2",55.800423,37.710063,Москва
4825,15114,4825М_Зеленоград_439,Зеленоград корпус 439,55.993656,37.212980,Москва
4827,15116,4827ДС_Пермская1,"Москва Только для курьеров. ул. Пермская , д. 1 стр. 1",55.820936,37.748475,Москва
4834,15123,4834М_Мира95,"Москва проспект Мира, д. 95",55.807617,37.635889,Москва
4835,15124,4835ДС_ЛефортовскийВал26,"Москва Только для курьеров. ул. Лефортовский Вал, д. 26/3А стр. 3",55.756885,37.695329,Москва
4839,15128,4839МТ_1-йКрасногвардейский21эт42,"Москва пр. 1-й Красногвардейский , д. 21 стр. 1",55.750028,37.534397,Москва
4840,15129,4840М_МиклухоМаклая36Переезд,"Москва ул. Миклухо-Маклая, д. 36а",55.640111,37.532951,Москва
4850,15139,4850Ш_Фили_Марьино5,"Москва поселение Филимонковское, пос.Марьино, д. 5",55.548411,37.323704,Москва
4851,15140,4851М_Мира182,"Москва Мира, дом № 182",55.826104,37.647846,Москва
4852,15141,4852М_Зел_Крюковская1,"Зеленоград пл. Крюковская, д. 1",55.982688,37.174990,Москва
4853,15142,4853МТ_Краснобогатырская89эт2,"Москва ул. Краснобогатырская , д. 89 стр. 1",55.800792,37.713890,Москва
4874,15163,4874М_Измайловскийбр11,"Москва б-р Измайловский, д. 11/31",55.797098,37.786824,Москва
4885,15175,4885М_Осенняя28,"Москва ул. Осенняя, д. 28",55.767722,37.407834,Москва
4889,15179,4889М_Лесная45,"Москва ул. Лесная, д. 45 стр. 1",55.780901,37.591418,Москва
4895,15185,4895М_Зел_корпус1805,"Зеленоград Зеленоград, корпус № 1805",55.979717,37.162692,Москва
4896,15186,4896ДС_Маломосковская20,"Москва Только для курьеров. ул. Маломосковская, д. 20 стр. 2",55.812767,37.650657,Москва
4900,15189,4900ДС_Пришвина3,"Москва Только для курьеров. ул. Пришвина, д. 3Г",55.889921,37.594270,Москва
4901,15190,4901МТ_1-йКрасногвардейский21эт38,"Москва пр. 1-й Красногвардейский, д. 21 стр. 1",55.750028,37.534397,Москва
4902,15191,4902МТ_Новинский8эт3,"Москва б-р Новинский, д. 8",55.751315,37.584618,Москва
4905,15194,4905М_Нововладыкинский1,"Москва пр. Нововладыкинский, д. 1 к. 2",55.850368,37.578181,Москва
4910,15199,4910МТ_АкадемикаТуполева15эт1,"Москва наб. Академика Туполева, д. 15 к. 5",55.760413,37.683194,Москва
4911,15200,4911МТ_Электрозаводская27эт1,"Москва ул. Электрозаводская , д. 27 стр. 1А",55.790965,37.705643,Москва
4912,15201,4912МТ_Дурова26стр2эт0,"Москва ул. Дурова , д. 26 стр. 2",55.777717,37.626187,Москва
4918,15207,4918М_Ленинградский4/2,"Москва пр-т Ленинградский , д. 4/2",55.778735,37.582116,Москва
4923,15213,4923ДС_Искры31,"Москва Только для курьеров. ул. Искры, д. 31 стр. 7",55.863687,37.651574,Москва
4940,15229,4940М_Донецкая30,"Москва ул. Донецкая, д. 30 к. 1",55.645476,37.707215,Москва
4944,15233,4944МТ_БольшаяПочтовая22эт1,"Москва ул. Большая Почтовая, д. 22 стр. 8",55.777545,37.698636,Москва
4949,15238,4949М_ВасилияОщепкова6,"Москва ул. Василия Ощепкова, д. 6",55.555031,37.467320,Москва
4950,15239,4950М_Олимпийскаядеревня4к1эт2,"Москва ул. Олимпийская деревня, д. 4 к. 1",55.676316,37.470419,Москва
4957,15246,4957МТ_Садовническая82эт3,"Москва ул. Садовническая, д. 82 стр. 2",55.735520,37.642474,Москва
4967,15256,4967МТ_Бумажный14эт4,"Москва пр. Бумажный, д. 14 стр. 2",55.789613,37.586904,Москва
4970,15259,4970МТ_Причальный2эт4,"Москва пр. Причальный, д. 2",55.761036,37.519584,Москва
4977,15265,4977МТ_ЛьваТолстого16эт6,"Москва ул. Льва Толстого, д. 16",55.733969,37.587093,Москва
4978,15266,4978МТ_Садовническая82эт2,"Москва ул. Садовническая, д. 82 стр. 2",55.735520,37.642474,Москва
5004,15291,5004ДС_Ком_ЛиповыйПарк1,"Москва Только для курьеров. ул. Липовый Парк, д. 1",55.570802,37.495150,Москва
5005,15292,5005ДС_Кутузовский88,"Москва Только для курьеров. пр-т Кутузовский, д. 88",55.725920,37.449586,Москва
5007,15294,5007МТ_Шаболовка31стр11эт2,"Москва ул. Шаболовка, д. 31 стр. 11",55.719597,37.611626,Москва
5008,15295,5008МТ_Ленинградский31стр1эт23,"Москва пр-т Ленинградский, д. 31А стр. 1",55.784233,37.559541,Москва
5010,15297,5010ДС_БольшаяНоводмитровская14,"Москва Только для курьеров. ул. Большая Новодмитровская, д. 14 стр. 4",55.800312,37.586805,Москва
5016,15303,5016МТ_Пресненская6эт7,"Москва наб. Пресненская, д. 6 стр. 2",55.748179,37.540245,Москва
5017,15304,5017ДС_Нагорная37,"Москва Только для курьеров, ул. Нагорная, д. 37",55.670331,37.593156,Москва
5057,15344,5057М_Муравская38к1,"Москва ул. Муравская, д. 38 к. 1",55.864303,37.372368,Москва
5059,15346,5059МТ_Рочдельская15стр35эт4,"Москва ул. Рочдельская, д. 15 стр. 35",55.756710,37.562533,Москва
5060,15347,5060МТ_Зорге5эт1,"Москва ул. Зорге, д. 5 стр. 3",55.780623,37.509999,Москва
5062,15349,5062МТ_Долгоруковская7эт5,"Москва ул. Долгоруковская, д. 7",55.773793,37.603577,Москва
5064,15353,5064М_АкадемикаВарги26,"Москва ул. Академика Варги, д. 26Б",55.634471,37.474830,Москва
5069,15366,5069ДС_Городская8,"Москва Только для курьеров. ул. Городская, д. 8",55.713836,37.617168,Москва
5070,15367,5070МТ_Петровский12эт2,"Москва б-р Петровский, д. 12 стр. 3",55.766916,37.618749,Москва
5071,15368,5071М_Дмитрия_Донского11,"Москва бульвар Дмитрия Донского, д.11",55.566807,37.576385,Москва
5077,15374,5077МТ_ЛьваТолстого18эт4А,"Москва ул. Льва Толстого, д. 18Б",55.735155,37.585503,Москва
5080,15377,5080МТ_Макаренко4эт5,"Москва ул. Макаренко, д. 4 стр. 1",55.761092,37.647684,Москва
5083,15380,5083МТ_Годовикова9стр17эт5,"Москва ул. Годовикова, д. 9 стр. 17",55.808644,37.629403,Москва
5099,15398,5099М_БЧеркизовская5к1,"Москва ул. Большая Черкизовская, д. 5 к. 1",55.797478,37.720681,Москва
5102,15401,5102М_Мельникова3,"Москва ул. Мельникова, д. 3 к. 1",55.726431,37.676825,Москва
5136,15451,5136М_4-йВятский37,"Москва пер. 4-й Вятский, д. 37",55.800053,37.570608,Москва
5214,15528,5214МТ_пВоск_Варшавское28км3,"Москва ш. Варшавское 28-й км, д. 3 стр. 1",55.492620,37.592842,Москва
5225,15539,5225МТ_Пресненская10эт34,"Москва наб. Пресненская, д. 10 к. С",55.747079,37.536589,Москва
5230,15542,5230МТ_Олимпийский5эт6,"Москва пр-т Олимпийский, д. 5 стр. 1",55.784395,37.622244,Москва
5231,15543,5231М_1905 года11,"Москва ул. 1905 года, д. 11 стр. 1",55.764845,37.560511,Москва
5234,15546,5234МТ_Мельникова29эт2,"Москва ул. Мельникова, д. 29",55.724865,37.665444,Москва
5249,15559,5249М_МаршалаКатукова11,"Москва ул. Маршала Катукова, д. 11 к. 1",55.810966,37.403764,Москва
5264,15575,5264М_Волоколамское71,"Москва ш. Волоколамское, д. 71 к. 2",55.820269,37.431157,Москва
5342,15649,5342МТ_Волгоградский32к31эт3,"Москва пр-т Волгоградский, д. 32 к. 31",55.718665,37.689884,Москва
5344,15651,5344М_Вавилова55,"Москва ул. Вавилова, д. 55/7",55.692211,37.562991,Москва
5345,15652,5345М_Профсоюзная128к2,"Москва ул. Профсоюзная, д. 128 к. 2",55.630441,37.515290,Москва
5346,15653,5346М_Шмитовский39к2,"Москва пр. Шмитовский, д. 39 к. 2",55.754066,37.524731,Москва
5347,15654,5347МТ_Профсоюзная76эт7,"Москва ул. Профсоюзная, д. 76",55.660760,37.543560,Москва
5353,15660,5353М_Амурская1,"Москва ул. Амурская, д. 1А к. 3",55.808306,37.760054,Москва
5355,15662,5355ДС_МаршалаПрошлякова5,"Москва Только для курьеров, ул. Маршала Прошлякова, д. 5 к. 3",55.785464,37.393331,Москва
5358,15665,5358М_ГоспитальныйВал22,"Москва ул. Госпитальный Вал, д. 22/2",55.773606,37.711895,Москва
5363,15670,5363М_3йКрутицкий13переезд,"Москва пер. 3й Крутицкий, д. 13 стр. 2",55.730958,37.664896,Москва
5376,15683,5376МТ_Спартаковская16эт2,"Москва пл. Спартаковская, д. 16/15 стр. 6",55.776551,37.679296,Москва
5378,15685,5378МТ_Варшавское9стр1эт5,"Москва ш. Варшавское, д. 9 стр. 1",55.699918,37.625165,Москва
5381,15687,5381М_Мневники11,"Москва Мнёвники, дом № 11",55.772861,37.486302,Москва
5382,15688,5382М_Садовнический6,"Москва Садовнический, дом № 6",55.741571,37.629206,Москва
5392,15698,5392МТ_Мосфильмовская38эт3,"Москва ул. Мосфильмовская, д. 38А",55.720494,37.519306,Москва
5408,15714,5408М_Шереметьевская6переезд,"Москва ул. Шереметьевская, д. 6 к. 1",55.795403,37.617033,Москва
5419,15725,5419М_Расплетина13,"Москва ул. Расплетина, д. 13",55.795464,37.482627,Москва
5437,15743,5437МТ_Ленинградское39стр3эт5,"Москва ш. Ленинградское, д. 39А стр. 3",55.836443,37.481729,Москва
5438,15744,5438МТ_Ленинградское39стр2эт2,"Москва ш. Ленинградское, д. 39А стр. 2",55.837161,37.481271,Москва
5446,15752,5446М_Новочеремушкинская17,"Москва ул. Новочеремушкинская, д. 17",55.683935,37.582709,Москва
5447,15753,5447М_Боровское2к5,"Москва ш. Боровское, д. 2 к. 5",55.661821,37.419925,Москва
5448,15754,5448М_Невельского6,"Москва пр. Невельского, д. 6 к. 2",55.752379,37.700137,Москва
5453,15760,5453МТ_Журавлева2эт2,"Москва пл. Журавлева, д. 2 стр. 1",55.784071,37.701628,Москва
5454,15761,5454М_Одесская16,"Москва Одесская, дом № 16",55.656321,37.590156,Москва
5465,15772,5465МТ_2-яКабельная2эт3,"Москва ул. 2-я Кабельная, д. 2 стр. 6",55.742083,37.717779,Москва
5469,15776,5469ДС_Дубнинская83,"Москва Только для курьеров, Дубнинская, дом № 83А",55.892420,37.553461,Москва
5476,15783,5476М_Ильменский17,"Москва пр. Ильменский, д. 17 к. 3 и 4",55.861787,37.540820,Москва
5479,15786,5479М_БПолянка30,"Москва ул. Большая Полянка , д. 30",55.734151,37.618929,Москва
5480,15787,5480ДС_БольшойВолоколамский1,"Москва Только для курьеров. Большой Волоколамский, дом № 1",55.800064,37.495455,Москва
5485,15792,5485ДС_Пер_Рабочая13,"Москва Только для курьеров, ул. Рабочая, д. 13 стр. 5",55.539689,37.156543,Москва
5490,15798,5490М_Новочеркасский51,"Москва б-р Новочеркасский, д. 51",55.648387,37.739465,Москва
5498,15807,5498М_Авиамоторная12,"Москва Авиамоторная, дом № 12",55.753225,37.715471,Москва
5500,15809,5500МТ_Варшавское9стр1эт2Сигма,"Москва ш. Варшавское, д. 9 стр. 1",55.699467,37.625594,Москва
5502,15811,5502М_Преображенская6,"Москва  г. Москва, ул. Преображенская площадь дом № 6",55.794851,37.711150,Москва
5508,15817,5508ДС_Ставропольская41,"Москва Только для курьеров, ул. Ставропольская, д. 41В",55.682793,37.780617,Москва
5514,15823,5514МТ_1йКрасногвардейский15эт18,"Москва пр. 1-й Красногвардейский, д. 15",55.750484,37.539527,Москва
5523,15832,5523М_АвиаконструктораМиля3,"Москва Авиаконструктора Миля, дом № 3А",55.686792,37.851898,Москва
5524,15833,5524МТ_ПресненскийВал27эт1,"Москва ул. Пресненский Вал, д. 27 стр. 9",55.772153,37.569539,Москва
5525,15834,5525М_Гжатская16,"Москва ул. Гжатская, д. 16 к. 1",55.715383,37.435142,Москва
5531,15840,5531ДС_ГенералаБелова26,"Москва Только для курьеров, Генерала Белова, дом № 26",55.606136,37.723268,Москва
5543,15852,5543МТ_АвиаконструктораМикояна12эт10,"Москва ул. Авиаконструктора Микояна , д. 12",55.792361,37.527615,Москва
5546,15855,5546МТ_Годовикова9эт4,"Москва ул. Годовикова, д. 9 стр. 17",55.808650,37.629403,Москва
5559,15869,5559М_Белореченская14,"Москва Белореченская, дом № 14",55.670046,37.763522,Москва
5562,15872,5562ДС_1йДорожный1,"Москва Только для курьеров, пр. 1-й Дорожный, д. 1 к. 2",55.616076,37.613746,Москва
5563,15873,5563ДС_Волынская10,"Москва Только для курьеров. ул. Волынская, д. 10, к. 2",55.643248,37.408952,Москва
5567,15877,5567М_1-йНагатинский11переезд,"Москва пр. 1-й Нагатинский, д. 11 к. 1",55.678707,37.634631,Москва
5577,15887,5577М_пВоск_Чечерский128,"Москва пр-т Чечерский, д. 128",55.523825,37.514742,Москва
5579,15889,5579М_БорисаПастернака14,"Москва ул. Бориса Пастернака, д. 14",55.637718,37.315038,Москва
5583,15893,5583МТ_Станиславского21стр5эт1,"Москва ул. Станиславского, д. 21 стр. 5",55.745717,37.662036,Москва
5586,15896,5586М_Сиреневый28расширение,"Москва б-р Сиреневый, дом № 28",55.802432,37.800335,Москва
5610,15920,5610МТ_Волгоградский42эт2,"Москва пр-т Волгоградский , д. 42 к. 5",55.708902,37.721058,Москва
5613,15923,5613МТ_ЗемлянойВал9эт12,"Москва ул. Земляной вал , д. 9",55.761690,37.658536,Москва
5623,15933,5623М_Горчакова11,"Москва ул. Горчакова, д. 11",55.543664,37.532008,Москва
5626,15936,5626М_АнныАхматовой11,"Москва ул. Анны Ахматовой, д. 11 к. 1",55.634237,37.332169,Москва
5632,15945,5632М_2-йГрайвороновский44,"Москва пр. 2-й Грайвороновский, д. 44 к. 1",55.726156,37.745690,Москва
5633,15946,5633М_Святоозерская1расширение,"Москва ул. Святоозерская, д. 1А",55.714653,37.883581,Москва
5634,15947,5634МТ_Преображенская8эт15,"Москва пл. Преображенская, д. 8",55.794887,37.712812,Москва
5637,15949,5637ДС_3-йПероваПоля8,"Москва Только для курьеров, пр. 3-Й Перова Поля, д. 8 стр. 11",55.752572,37.771786,Москва
5641,15953,5641М_Измайловский9,"Москва пр. Измайловский, д. 9 к. 3",55.798282,37.768795,Москва
5646,15958,5646МТ_Кутузовский32к3эт37,"Москва пр-т Кутузовский, д. 32 к. 3",55.741652,37.532547,Москва
5647,15959,5647МТ_Кутузовский32к3эт35,"Москва пр-т Кутузовский, д. 32 к. 3",55.741652,37.532547,Москва
5648,15960,5648МТ_Кутузовский32к3эт33,"Москва пр-т Кутузовский, д. 32 к. 3",55.741652,37.532547,Москва
5649,15961,5649МТ_Кутузовский32к3эт30,"Москва пр-т Кутузовский, д. 32 к. 3",55.741652,37.532547,Москва
5650,15962,5650МТ_Кутузовский32к3эт28,"Москва пр-т Кутузовский, д. 32 к. 3",55.741652,37.532547,Москва
5651,15963,5651МТ_Кутузовский32к3эт22,"Москва пр-т Кутузовский, д. 32 к. 3",55.741652,37.532547,Москва
5656,15968,5656ДС_Тро_Фабричная1,"Москва Только для курьеров, пл. Фабричная, д. 1 стр. 4",55.491483,37.306844,Москва
5662,15974,5662МТ_2-яЭнтузиастов5эт1,"Москва ул. 2-я Энтузиастов , д. 5 к. 5",55.749998,37.735916,Москва
5664,15976,5664ДС_Бехтерева12,"Москва Только для курьеров, Бехтерева, дом № 12",55.626518,37.646768,Москва
5668,15980,5668ДС_Леснорядская10,"Москва Только для курьеров, ул. Леснорядская, д. 10 стр. 1",55.781688,37.675279,Москва
5673,15986,5673М_Кастанаевская42,"Москва ул. Кастанаевская, д. 42 к. 2",55.734993,37.474381,Москва
5674,15987,5674МТ_1-йМитинский15эт2,"Москва пер. 1-й Митинский , д. 15",55.848453,37.379860,Москва
5676,15989,5676МТ_Садовническая77эт4,"Москва наб. Садовническая, д. 77",55.735185,37.641494,Москва
5689,16002,5689ДС_Воротынская2,"Москва Воротынская, дом № 2",55.887311,37.403113,Москва
5690,16003,5690М_Сос_ЭдвардаГрига15,"Москва ул. Эдварда Грига, д. 15",55.556080,37.505373,Москва
5691,16004,5691МТ_ЛенинскаяСлобода26стр5эт5,"Москва ул. Ленинская Слобода, д. 26 стр. 5",55.711316,37.652777,Москва
5692,16005,5692М_Волгоградский70,"Москва пр-т Волгоградский, д. 70",55.705697,37.759325,Москва
5697,16010,5697МП_Курсы_ВкусВилл,"Москва ул. Кулакова, д. 20, к. 1",55.803479,37.390514,Москва
5698,16011,5698М_Шоссейная2,"Москва ул. Шоссейная, д. 2 к. 3",55.692409,37.727535,Москва
5700,16013,5700МТ_Воздвиженка4стр2подв1,"Москва ул. Воздвиженка, д. 4/7 стр. 2",55.753103,37.610296,Москва
5705,16018,5705МТ_Кутузовский32к3эт26,"Москва пр-т Кутузовский, д. 32 к. 3",55.741652,37.532547,Москва
5706,16019,5706МТ_Кутузовский32к3эт24,"Москва пр-т Кутузовский, д. 32 к. 3",55.741652,37.532547,Москва
5707,16020,5707МТ_Кутузовский32к3эт21БашБ,"Москва пр-т Кутузовский, д. 32 к. 3",55.741652,37.532547,Москва
5721,16034,5721МТ_КосмонавтаВолкова22эт1,"Москва ул. Космонавта Волкова, д. 22 стр. 1",55.815888,37.528729,Москва
5737,16051,5737МТ_БГнездниковский1эт4,"Москва пер. Большой Гнездниковский, д. 1 стр. 2",55.761482,37.605301,Москва
5746,16060,5746М_Шарикоподшипниковская36переезд,"Москва ул. Шарикоподшипниковская, д. 36/18к 18",55.715297,37.676915,Москва
5754,16068,5754МТ_АкадемикаКоролева21эт3,"Москва ул. Академика Королева, д. 21 стр. 1",55.820996,37.601528,Москва
5757,16071,5757Ш_Открытое5,"Москва Открытое, дом № 5А",55.814057,37.733536,Москва
5758,16072,5758М_Жулебинский9,"Москва б-р Жулебинский, дом № 9",55.697833,37.848502,Москва
5768,16082,5768МТ_Ферганская25эт1,"Москва ул. Ферганская, д. 25 к. 1",55.702607,37.826727,Москва
5773,16087,5773МТ_3-яПесчаная2эт9,"Москва ул. 3-я Песчаная, д. 2А",55.792194,37.515964,Москва
5778,16094,5778И_ПраздникВВ,"Москва ул. Кулакова, д. 20, к. 1",55.803479,37.390514,Москва
5787,16103,5787МТ_Новоданиловская10эт10,"Москва наб. Новоданиловская, д. 10",55.696007,37.625513,Москва
5789,16105,5789МТ_Кутузовский32к3эт20,"Москва пр-т Кутузовский, д. 32 к. 3",55.741652,37.532547,Москва
5791,16107,5791ДС_Новоясеневский8,"Москва Только для курьеров, пр-т Новоясеневский, д. 8 стр. 1",55.612265,37.515471,Москва
5792,16108,5792МТ_Зорге1эт14,"Москва ул. Зорге, д. 1 стр. 1",55.778973,37.512164,Москва
5803,16122,5803МТ_Зел_КонструктораЛукина14эт3,"Зеленоград ул. Конструктора Лукина, д. 14 стр. 14",56.007096,37.156746,Москва
5811,16130,5811М_Рублевское16,"Москва ш. Рублёвское, д. 16 к. 1",55.740193,37.434370,Москва
5812,16131,5812М_7-яТекстильщиков16переезд,"Москва ул. 7-я Текстильщиков, д. 16",55.694672,37.747639,Москва
5813,16132,5813М_Омская7,"Москва Омская, дом № 7А",55.615922,37.263396,Москва
5814,16133,5814ДС_Алтуфьевское22,"Москва Только для курьеров, Алтуфьевское, дом № 22Б",55.861100,37.585556,Москва
5818,16137,5818ДС_ОлимпийскаяДеревня4,"Москва Только для курьеров, Мичуринский проспект. Олимпийская деревня ул, д. 4, к. 1",55.676421,37.470427,Москва
5822,16141,5822МТ_Уланский26эт4,"Москва пер. Уланский, д. 26",55.769960,37.641755,Москва
5828,16147,5828М_БорисовскиеПруды12,"Москва ул. Борисовские Пруды, д. 12 к. 1",55.636011,37.742447,Москва
5834,16153,5834ДС_Мира64,"Москва Только для курьеров, Мира, дом № 64",55.785846,37.636158,Москва
5847,16167,5847М_Лухмановская24,"Москва Лухмановская, дом № 24А",55.722117,37.905527,Москва
5848,16168,5848ДС_Ленинский54,"Москва Только для курьеров, Ленинский, дом № 54",55.697883,37.559948,Москва
5852,16172,5852МТ_БольшаяНикитская60эт0,"Москва ул. Большая Никитская, д. 60 стр. 3",55.758909,37.586104,Москва
5862,16181,5862М_ШишкинЛес25,"Шишкин Лес п. Шишкин Лес, д. 25",55.414486,37.192490,Москва
5863,16182,5863МТ_МалаяСеменовская9эт4,"Москва ул. Малая Семеновская, д. 9 стр. 3",55.785341,37.708958,Москва
5875,16195,5875МТ_Садовническая14эт6,"Москва ул. Садовническая, д. 14 стр. 2",55.746801,37.629116,Москва
5878,16198,5878МТ_Кутузовский32к3эт3,"Москва пр-т Кутузовский, д. 32 к. 3",55.741652,37.532547,Москва
5882,16202,5882МТ_Походный3эт15,"Москва пр. Походный, д. 3 стр. 1",55.834325,37.408505,Москва
5893,16213,5893М_Москвитина9,"Москва ул. Москвитина, д. 9 к. 1",55.598131,37.364661,Москва
5901,16221,5901МТ_Якиманская4эт5.2,"Москва наб. Якиманская, д. 4 стр. 1",55.739772,37.612506,Москва
5912,16232,5912МТ_Щипок18эт1,"Москва ул. Щипок, д. 18 стр. 2",55.724211,37.633670,Москва
5921,16241,5921ДС_Ткацкая5,"Москва Только для курьеров, ул. Ткацкая, д. 5 стр. 1",55.786602,37.723520,Москва
5933,16253,5933М_Будённого51к5,"Москва пр-т Будённого, д. 51 к. 5",55.759309,37.738863,Москва
5951,16273,5951М_АдмиралаМакарова6,"Москва ул. Адмирала Макарова, д. 6 стр. 13",55.835660,37.490497,Москва
5957,16278,5957МТ_Ленинградский15стр10эт5,"Москва пр-т Ленинградский, д. 15 стр. 10",55.780846,37.570051,Москва
5958,16279,5958МТ_Оружейный41_6этНовый,"Москва пер. Оружейный, д. 41",55.773358,37.605777,Москва
5962,16283,5962МТ_Дорогобужская14стр6эт2,"Москва ул. Дорогобужская, д. 14 стр. 6",55.712269,37.416628,Москва
5963,16284,5963МТ_Ленинградское16стр4 эт1,"Москва ш. Ленинградское, д. 16А стр. 4",55.823216,37.497468,Москва
5966,16287,5966МТ_ТимураФрунзе11эт1,"Москва ул. Тимура Фрунзе, д. 11 к. 2",55.733705,37.589482,Москва
5972,16293,5972МТ_Пресненская10блСэт32,"Москва наб. Пресненская, д. 10",55.747319,37.536811,Москва
5973,16294,5973МТ_Лесная5эт6,"Москва ул. Лесная, д. 5 стр. Б",55.778193,37.586796,Москва
5974,16295,5974МТ_Пресненская10блСэт4,"Москва наб. Пресненская, д. 10",55.747301,37.536715,Москва
5979,16300,5979МТ_3-яЯмскогоПоля20эт7,"Москва ул. 3-я Ямского Поля, д. 20 стр. 1",55.782991,37.580515,Москва
5980,16301,5980ДС_1-яМагистральная18,"Москва Только для курьеров, ул. 1-я Магистральная, д. 18 стр. 1",55.771331,37.517806,Москва
5981,16302,5981ДС_Лухмановская37,"Москва ул. Лухмановская, д. 37",55.724824,37.910756,Москва
5983,16304,5983МТ_ОзерковскаяНабережная30эт1,"Москва наб. Озерковская, д. 30",55.738019,37.638000,Москва
5985,16306,5985МТ_Олимпийский14эт2,"Москва пр-т Олимпийский, д. 14",55.778355,37.623375,Москва
6022,16329,6022М_Сумская2,"Москва ул. Сумская, д. 2/12",55.623829,37.608014,Москва
6028,16335,6028ДС_Покровский3,"Москва Только для курьеров, б-р Покровский, д. 3 стр. 7",55.757344,37.648970,Москва
6029,16336,6029МТ_Варшавское47эт10,"Москва ш. Варшавское , д. 47 к. 4",55.679138,37.630131,Москва
6036,16343,6036ДС_СтарыйГай8,"Москва Только для курьеров, Старый Гай, дом № 8А",55.740256,37.827994,Москва
6038,16345,6038ДС_Рублевское48,"Москва Только для курьеров, ш. Рублёвское, д. 48/1",55.753640,37.405936,Москва
6053,16360,6053МТ_Пресненская10стр1эт39,"Москва наб. Пресненская, д. 10 стр. 1",55.748914,37.535475,Москва
6055,16362,6055МТ_Пресненская10стр1эт46,"Москва наб. Пресненская, д. 10 стр. 1",55.748914,37.535475,Москва
6058,16365,6058МТ_Смоленская5эт5,"Москва пл. Смоленская, д. 5",55.748265,37.581406,Москва
6097,16409,6097ДС_АкадемикаГлушко15,"Москва Только для курьеров, Академика Глушко, дом № 15",55.565666,37.560448,Москва
6098,16410,6098ДС_Несвижский2,"Москва Только для курьеров, Несвижский, дом № 2",55.732002,37.587569,Москва
6105,16423,6105МТ_1-йГолутвинский2эт2,"Москва пер. 1-й Голутвинский , д. 2/10 к. 2",55.739929,37.614105,Москва
6106,16424,6106МТ_ТимураФрунзе11эт3,"Москва ул. Тимура Фрунзе, д. 11 стр. 1",55.736204,37.585341,Москва
6137,16599,6137М_АлександрыМонаховой84,"Москва ул. Александры Монаховой, д. 84 к. 2",55.545691,37.484541,Москва
6153,16612,6153МТ_Калужское_24км1эт11,"Москва ш. Калужское 24 км, д. 1 стр. 1",55.585026,37.473626,Москва
6156,16615,6156МТ_Кутузовский32к3эт10БашА,"Москва пр-т Кутузовский, д. 32 к. 3",55.741652,37.532547,Москва
6157,16616,6157МТ_Кутузовский32к3эт25БашА,"Москва пр-т Кутузовский, д. 32 к. 3",55.741652,37.532547,Москва
6158,16617,6158МТ_Кутузовский32к1эт10,"Москва пр-т Кутузовский, д. 32 к. 1",55.741404,37.531559,Москва
6167,16627,6167МТ_Береговой5эт14,"Москва пр. Береговой, д. 5А к. 1",55.755023,37.509245,Москва
6168,16628,6168МТ_УльянЛес_1эт1,Москва д. 1,55.617706,37.344875,Москва
6170,16630,6170МТ_Складочная3эт3,"Москва ул. Складочная, д. 3 стр. 1",55.806100,37.590794,Москва
6171,16631,6171МТ_Огородный20эт3,"Москва пр. Огородный , д. 20 стр. 27",55.818652,37.595030,Москва
6173,16633,6173МТ_Садовническая9эт4,"Москва ул. Садовническая, д. 9а",55.747637,37.628900,Москва
6177,16637,6177МТ_Андропова18к3эт5,"Москва пр-т Андропова, д. 18 к. 3",55.694459,37.661994,Москва
6179,16639,6179МТ_Ленинградское47эт1,"Москва ш. Ленинградское , д. 47 стр. 2",55.847735,37.474102,Москва
6181,16641,6181МТ_Ленинградский35эт5,"Москва пр-т Ленинградский, д. 35 стр. 1",55.789461,37.551735,Москва
6182,16642,6182МТ_Ленинградский36с41эт23,"Москва пр-т Ленинградский , д. 36 стр. 41",55.789947,37.570051,Москва
6190,16650,6190МТ_Настасьинский7эт2,"Москва пер. Настасьинский, д. 7 стр. 2",55.767909,37.604169,Москва
6195,16655,6195МТ_Ленинградский39с80эт11,"Москва пр-т Ленинградский, д. 39 стр. 80",55.796567,37.536931,Москва
6196,16656,6196МТ_Столярный3эт4,"Москва пер. Столярный, д. 3 к. 14",55.765093,37.568776,Москва
6197,16657,6197МТ_1-йЗемельный7эт7,"Москва пер. 1-й Земельный, д. 7/2 стр. 1-2",55.769423,37.559371,Москва
6206,16668,6206МТ_Гашека6эт6,"Москва ул. Гашека, д. 6",55.768345,37.590542,Москва
6212,16674,6212МТ_3-яПесчаная2эт3,"Москва ул. 3-я Песчаная, д. 2А",55.792194,37.515964,Москва
6217,16680,6217МТ_Годовикова9стр4эт1,"Москва ул. Годовикова, д. 9 стр. 4",55.805579,37.627535,Москва
6224,16687,6224МТ_ЗаводаСерпМолот10эт5,"Москва пр. Завода Серп и Молот, д. 10",55.752587,37.702355,Москва
6225,16688,6225МТ_Кутузовский32к3эт11БашА,"Москва пр-т Кутузовский, д. 32 к. 3",55.741652,37.532547,Москва
6226,16689,6226МТ_Новинский8эт4,"Москва б-р Новинский, д. 8",55.751310,37.584622,Москва
6240,16703,6240МТ_60-летияОктября10эт9,"Москва пр-т 60-летия Октября, д. 10А",55.692759,37.574471,Москва
6245,16708,6245МТ_Кедрова8эт1,"Москва ул. Кедрова, д. 8 к. 1",55.685011,37.567491,Москва
6246,16709,6246МТ_Новинский8эт21,"Москва б-р Новинский, д. 8",55.751310,37.584622,Москва
6247,16710,6247МТ_Валовая26эт10,"Москва ул. Валовая, д. 26",55.730639,37.628190,Москва
6258,16721,6258МТ_60-летия Октября10эт8,"Москва пр-т 60-летия Октября, д. 10А",55.692759,37.574471,Москва
6273,16740,6273МТ_НижнийСусальный5стр16эт6,"Москва пер. Нижний Сусальный, д. 5 стр. 16",55.759755,37.664958,Москва
6274,16742,6274МТ_Верейская29стр134эт7,"Москва ул. Верейская , д. 29 стр. 134",55.709449,37.442311,Москва
6279,16748,6279МТ_Лесная5эт2,"Москва ул. Лесная, д. 5",55.777783,37.586886,Москва
6282,16758,6282МТ_Оружейный41эт9,"Москва пер. Оружейный, д. 41",55.773358,37.605777,Москва
6283,16759,6283МТ_Ленинградское39стр3эт4,"Москва ш. Ленинградское, д. 39А стр. 3",55.836443,37.481729,Москва
6295,16780,6295МТ_МаршалаПрошлякова30эт3,"Москва ул. Маршала Прошлякова, д. 30",55.790130,37.380363,Москва
6296,16781,6296МТ_Кутузовский32к3эт21БашА,"Москва пр-т Кутузовский, д. 32 к. 3",55.741652,37.532547,Москва
6297,16782,6297МТ_Кутузовский32к3эт23БашА,"Москва пр-т Кутузовский, д. 32 к. 3",55.741652,37.532547,Москва
6298,16783,6298МТ_Кутузовский32к3эт26БашА,"Москва пр-т Кутузовский, д. 32 к. 3",55.741652,37.532547,Москва
6299,16784,6299МТ_Кутузовский32к3эт30БашА,"Москва пр-т Кутузовский, д. 32 к. 3",55.741652,37.532547,Москва
6300,16785,6300МТ_Кутузовский32к3эт5,"Москва пр-т Кутузовский, д. 32 к. 3",55.741652,37.532547,Москва
6312,16837,6312МТ_1-йКрасногвардейский21эт45,"Москва пр. 1-й Красногвардейский, д. 21 стр. 1",55.750028,37.534406,Москва
6314,16841,6314МТ_Кутузовский32к3эт14БашА,"Москва пр-т Кутузовский, д. 32 к. 3",55.741652,37.532547,Москва
6315,16850,6315МТ_Кутузовский32к3эт8БашА,"Москва пр-т Кутузовский, д. 32 к. 3",55.741652,37.532547,Москва
6316,16851,6316МТ_Кутузовский32к3эт19БашА,"Москва пр-т Кутузовский, д. 32 к. 3",55.741652,37.532547,Москва
6317,16852,6317МТ_Кутузовский32к3эт28БашА,"Москва пр-т Кутузовский, д. 32 к. 3",55.741652,37.532547,Москва
6318,16853,6318МТ_Кутузовский32к3эт32БашА,"Москва пр-т Кутузовский, д. 32 к. 3",55.741652,37.532547,Москва
6319,16854,6319МТ_Кутузовский32к3эт36БашА,"Москва пр-т Кутузовский, д. 32 к. 3",55.741652,37.532547,Москва
6320,16855,6320МТ_Кутузовский32к3эт38БашА,"Москва пр-т Кутузовский, д. 32 к. 3",55.741652,37.532547,Москва
6321,16856,6321МТ_Кутузовский32к3эт16БашА,"Москва пр-т Кутузовский, д. 32 к. 3",55.741652,37.532547,Москва
6324,16860,6324МТ_Леонтьевский24эт2каб212,"Москва пер. Леонтьевский, д. 24",55.761497,37.607314,Москва
6328,16868,6328МТ_3-яПесчаная2эт7,"Москва ул. 3-я Песчаная, д. 2А",55.792194,37.515964,Москва
6331,16871,6331МТ_1-йКрасногвардейский22эт19,"Москва пр. 1-й Красногвардейский, д. 22 стр. 1",55.751133,37.533724,Москва
6332,16872,6332МТ_1-йКрасногвардейский22эт23,"Москва пр. 1-й Красногвардейский, д. 22 стр. 1",55.751133,37.533724,Москва
6334,16902,6334МТ_МожайскийВал8эт3,"Москва ул. Можайский вал , д. 8",55.744171,37.555391,Москва
6338,16916,6338МТ_1-йКрасногвардейский22эт10,"Москва пр. 1-й Красногвардейский, д. 22 стр. 1",55.751133,37.533724,Москва
6339,16917,6339МТ_1-йКрасногвардейский22эт13,"Москва пр. 1-й Красногвардейский, д. 22 стр. 1",55.751133,37.533724,Москва
6341,16921,6341М_Ясеневая12,"Москва ул. Ясеневая, д. 12 к. 5",55.602566,37.734192,Москва
6342,16922,6342М_Коминтерна15,"Москва ул. Коминтерна, д. 15",55.871602,37.690111,Москва
6343,16923,6343МТ_БутырскийВал10эт6,"Москва ул. Бутырский Вал, д. 10",55.778461,37.586068,Москва
6344,16924,6344МТ_БЯкиманка26эт2,"Москва ул. Большая Якиманка, д. 26",55.735844,37.612560,Москва
6349,16936,6349МТ_Ленинградский35эт3,"Москва пр-т Ленинградский, д. 35 стр. 1",55.789461,37.551735,Москва
6350,16937,6350МТ_ЛенинскаяСлобода19эт4,"Москва ул. Ленинская слобода, д. 19",55.708303,37.652822,Москва
6352,16939,6352М_Куприна40,"Сосенское пр-т Куприна, д. 40 к. 1",55.540272,37.453783,Москва
6354,16941,6354МТ_ВасилисыКожиной1эт14,"Москва ул. Василисы Кожиной, д. 1",55.737527,37.505166,Москва
6355,16942,6355МТ_2яХуторская38стр26эт3,"Москва ул. 2-я Хуторская , д. 38А стр. 26",55.804152,37.564141,Москва
6356,16943,6356МТ_2яХуторская38стр17эт8,"Москва ул. 2-я Хуторская, д. 38А стр. 17",55.805149,37.564194,Москва
6357,16954,6357МТ_1-йКрасногвардейский22эт20,"Москва пр. 1-й Красногвардейский, д. 22 стр. 1",55.751133,37.533724,Москва
6362,16962,6362МТ_Оружейный41эт7,"Москва пер. Оружейный, д. 41",55.773358,37.605777,Москва
6363,16963,6363МТ_Оружейный41эт10,"Москва пер. Оружейный, д. 41",55.773358,37.605777,Москва
6366,16966,6366МТ_МашиПорываевой7эт2,"Москва ул. Маши Порываевой, д. 7 стр. Г",55.773859,37.647136,Москва
6368,16968,6368МТ_НКрасносельская28стр2эт1,"Москва ул. Нижняя Красносельская, д. 28 стр. 2",55.776300,37.669378,Москва
6369,16969,6369М_Варшавское143,"Москва ш. Варшавское, д. 143А",55.583953,37.599157,Москва
6372,16973,6372МТ_Леонтьевский24эт2каб335,"Москва пер. Леонтьевский, д. 24",55.761497,37.607314,Москва
6373,16975,6373МТ_Научный14эт1,"Москва пр. Научный, д. 14А стр. 1",55.655874,37.555391,Москва
6374,16976,6374МТ_Мира102эт1,"Москва пр-т Мира, д. 102 к. 1",55.800595,37.636680,Москва
6375,16977,6375МТ_Краснопрудная12эт1,"Москва ул. Краснопрудная, д. 12",55.776927,37.661455,Москва
6385,17052,6385МТ_Столярный3эт2,"Москва пер. Столярный, д. 3 к. 14",55.765093,37.568776,Москва
6386,17053,6386МТ_Каширское22эт7,"Москва ш. Каширское, д. 22 к. 4 стр. 7",55.659058,37.637299,Москва
6389,17056,6389М_Беломорская23,"Москва ул. Беломорская, д. 23",55.867213,37.482592,Москва
6399,17072,6399М_АкадемикаПавлова28,"Москва ул. Академика Павлова, д. 28",55.746370,37.407133,Москва
6400,17073,6400МТ_Краснопресненская8эт-1,"Москва наб. Краснопресненская, д. 8",55.754927,37.566557,Москва
6401,17074,6401МТ_Андропова18к1эт8,"Москва пр-т Андропова, д. 18 к. 1",55.695022,37.662740,Москва
6402,17075,6402МТ_АэропортВнуково3эт1,"Москва  Аэропорт Внуково, д. 3 к. 1",55.593599,37.242427,Москва
6409,17090,6409МТ_Пресненская10эт16,"Москва наб. Пресненская, д. 10",55.746593,37.537380,Москва
6411,17101,6411МТ_Годовикова9стр17эт8,"Москва ул. Годовикова , д. 9 стр. 17",55.808650,37.629403,Москва
6415,17119,6415МТ_Рублевское28эт22,"Москва ш. Рублёвское, д. 28",55.747834,37.425620,Москва
6416,17122,6416МТ_СтараяБасманная12эт1,"Москва ул. Старая Басманная, д. 12 стр. 1",55.764936,37.659515,Москва
6419,17127,6419М_Михайлова30,"Москва ул. Михайлова, д. 30А к. 4",55.723876,37.777149,Москва
6424,17134,6424МТ_Кутузовский32к3эт13башА,"Москва пр-т Кутузовский, д. 32 к. 3",55.742575,37.530948,Москва
6425,17135,6425МТ_Кутузовский32к3эт24башА,"Москва пр-т Кутузовский, д. 32 к. 3",55.742575,37.530948,Москва
6428,17141,6428МТ_Долгоруковская7эт6,"Москва ул. Долгоруковская, д. 7",55.773849,37.603541,Москва
6436,17150,6436МТ_Ленинградский72эт6,"Москва пр-т Ленинградский, д. 72 к. 4",55.805250,37.519863,Москва
6438,17156,6438М_Люблинская76,"Москва ул. Люблинская, д. 76 к. 2",55.663624,37.732467,Москва
6445,17175,6445М_ОплатаЗаказовTapOnPhone,"Москва ул. Кулакова, д. 20, к. 1",55.803479,37.390514,Москва
6447,17177,6447МТ_Сикорского11эт1,"Москва ул. Сикорского, д. 11",55.681483,37.332824,Москва
6457,17190,6457МТ_Пресненская12эт32,"Москва наб. Пресненская, д. 12",55.749633,37.537434,Москва
6458,17191,6458МТ_2-яХуторская38стр17эт1,"Москва ул. 2-я Хуторская, д. 38А стр. 17",55.805149,37.564194,Москва
6459,17192,6459МТ_2-яХуторская38стр17эт2,"Москва ул. 2-я Хуторская, д. 38А стр. 17",55.805149,37.564194,Москва
6460,17195,6460МТ_Ленинградский37эт13,"Москва пр-т Ленинградский, д. 37",55.792108,37.540757,Москва
6461,17196,6461МТ_ТимураФрунзе11эт1,"Москва ул. Тимура Фрунзе, д. 11",55.735398,37.586976,Москва
6463,17198,6463М_МалоеПонизовье10,"Москва ул. Малое Понизовье, д. 10",55.601305,37.411346,Москва
6464,17200,6464М_БольшаяПолянка9,"Москва ул. Большая Полянка, д. 9 стр. 1",55.740289,37.617339,Москва
6470,17209,6470М_Ком_Бачуринская9,"Коммунарка ул. Бачуринская, д. 9Ак1",55.579195,37.481019,Москва
6477,17230,6477МТ_Рублевское28эт11,"Москва ш. Рублевское , д. 28",55.747834,37.425620,Москва
6478,17231,6478М_3-яНововатутинская6,"Москва ул. 3-я Нововатутинская, д. 6",55.521144,37.350261,Москва
6483,17237,6483МТ_Ленинградский35эт4,"Москва пр-т Ленинградский, д. 35 стр. 1",55.789461,37.551735,Москва
6484,17242,6484МТ_Ленинский119эт8,"Москва пр-т Ленинский, д. 119А",55.649926,37.488970,Москва
6486,17259,6486Ш_Тюменский3,"Москва пр. Тюменский, д. 3 к. 5",55.810891,37.739968,Москва
6488,17263,6488МТ_Петровский12эт7,"Москва б-р Петровский, д. 12 стр. 3",55.766916,37.618758,Москва
6493,17284,6493МТ_Ленинградский72эт7,"Москва пр-т Ленинградский, д. 72 к. 4",55.805250,37.519863,Москва
6494,17289,6494М_Мос_Никитина11,"Московский ул. Никитина, д. 11 к. 1",55.603644,37.372683,Москва
6496,17291,6496Ш_Сос_Прокшинский11,"Москва п. Сосенское, Прокшинский пр-кт, дом № 11",55.590780,37.427435,Москва
6497,17308,6497МТ_Енисейская37эт1,"Москва ул. Енисейская, д. 37 стр. 1",55.876657,37.665390,Москва
6499,17311,6499М_Кантемировская20,"Москва ул. Кантемировская, д. 20 к. 5",55.640508,37.662892,Москва
6500,17312,6500М_Аминьевское4Д,"Москва ш. Аминьевское, д. 4Д к. 2",55.699974,37.468739,Москва
6511,17326,6511МТ_1-йКрасногвардейский21эт44,"Москва пр. 1-й Красногвардейский, д. 21 стр. 1",55.750028,37.534406,Москва
6512,17327,6512МТ_Ходынский10эт2,"Москва б-р Ходынский, д. 10",55.787442,37.533463,Москва
6513,17328,6513МТ_Волгоградский32к45эт3Кухня,"Москва пр-т Волгоградский , д. 32 к. 45",55.721833,37.695268,Москва
6515,17330,6515МТ_1-йНагатинский10эт4,"Москва пр. 1-й Нагатинский, д. 10 стр. 1",55.678362,37.631757,Москва
6519,17340,6519МТ_Большой2эт1,"Москва б-р Большой, д. 2",55.706234,37.372530,Москва
6526,17356,6526МТ_Лесная3эт3,"Москва ул. Лесная, д. 3",55.777282,37.586024,Москва
6527,17357,6527МТ_Спартаковская2эт1,"Москва ул. Спартаковская, д. 2А стр. 1",55.769833,37.672226,Москва
6530,17376,6530МТ_Ленинградский70эт6,"Москва пр-т Ленинградский, д. 70",55.804521,37.519629,Москва
6534,17400,6534МТ_Ленинградский35эт6,"Москва пр-т Ленинградский, д. 35 стр. 1",55.789461,37.551735,Москва
6535,17402,6535МТ_Поклонная3эт6Е3,"Москва ул. Поклонная, д. 3",55.736179,37.533194,Москва
6537,17438,6537МТ_Пресненская8эт14,"Москва наб. Пресненская, д. 8 стр. 1",55.747115,37.539087,Москва
6539,17452,6539МТ_Дербеневская7эт3,"Москва наб. Дербеневская, д. 7 стр. 9",55.723445,37.653730,Москва
6540,17454,6540М_Мос_Родниковая30,"Московский ул. Родниковая, д. 30 к. 2",55.632413,37.415694,Москва
6541,17460,6541Ш_Тагильская4,"Москва ул. Тагильская, д. 4А",55.818103,37.752868,Москва
6549,17490,6549М_100кв-л1,"Москва ул. 100 кв-л, д. 1 к. 2",55.803365,37.348762,Москва
6550,17492,6550МТ_Лесная41эт1,"Москва ул. Лесная , д. 41",55.780188,37.590353,Москва
6551,17494,6551М_Загородное6,"Москва ш. Загородное, д. 6 к. 1",55.693703,37.605858,Москва
6554,17504,6554М_ДжавахарлалаНеру1,"Москва пл. Джавахарлала Неру, д. 1",55.693297,37.533984,Москва
6556,17508,6556М_ЮлианаСеменова8,"Москва ул. Юлиана Семёнова, д. 8 к. 1",55.642977,37.393074,Москва
6561,17562,6561М_1-я_Мясниковская2,"Москва ул. 1-я Мясниковская, д. 2",55.816480,37.702167,Москва
6562,17570,6562М_Автозаводская23,"Москва ул. Автозаводская, д. 23Б к. 2",55.701262,37.651592,Москва
6569,17642,6569МТ_Годовикова9стр5эт1,"Москва ул. Годовикова, д. 9 стр. 5",55.807956,37.627220,Москва
6570,17644,6570МТ_Вернадского97эт-1,"Москва пр-т Вернадского, д. 97 к. 3",55.667122,37.490245,Москва
6571,17646,6571ДС_Каховка20,"Москва Только для курьеров, ул. Каховка, д. 20А",55.658393,37.567204,Москва
6573,17656,6573М_Поляны5,"Москва ул. Поляны, д. 5А к. 2",55.553900,37.553990,Москва
6576,17668,6576МТ_Подсосенский23эт4,"Москва пер. Подсосенский, д. 23 стр. 2",55.755388,37.654044,Москва
6581,17698,6581МТ_Андропова18к1эт13,"Москва пр-т Андропова, д. 18 к. 1",55.695022,37.662740,Москва
6582,17700,6582МТ_Андропова18к1эт9,"Москва пр-т Андропова, д. 18 к. 1",55.695022,37.662740,Москва
6584,17704,6584МТ_Нагатинская5эт1,"Москва ул. Нагатинская, д. 5",55.680580,37.635386,Москва
6591,17732,6591МТ_КосмонавтаВолкова20эт1,"Москва ул. Космонавта Волкова, д. 20",55.815858,37.527552,Москва
6593,17738,6593МТ_Обручева30эт2,"Москва ул. Обручева, д. 30/1 стр. 2",55.656194,37.526169,Москва
6595,17742,6595МТ_Гашека6эт4,"Москва ул. Гашека, д. 6",55.768345,37.590542,Москва
6597,17746,6597М_Викторенко3,"Москва ул. Викторенко , д. 3",55.798621,37.529070,Москва
6599,17756,6599МТ_Армянский9эт2,"Москва пер. Армянский, д. 9 стр. 1",55.759441,37.637407,Москва
6602,17764,6602М_Волгоградский32,"Москва пр-т Волгоградский, д. 32/5 к. 1",55.724119,37.689015,Москва
6603,17766,6603МТ_СущевскийВал18эт4,"Москва ул. Сущевский Вал, д. 18",55.791977,37.603244,Москва
6605,17786,6605МТ_БСаввинский2эт1,"Москва пер. Большой Саввинский, д. 2 стр. 9",55.735936,37.569548,Москва
6612,17826,6612М_Варшавское170,"Москва ш. Варшавское, д. 170Е к. 9",55.581897,37.579933,Москва
6613,17828,6613МТ_Бумажный14эт6,"Москва пр. Бумажный , д. 14 стр. 2",55.789902,37.586904,Москва
6615,17834,6615Ш_ЛетчикаГрицевца14,"Москва ул. Лётчика Грицевца, д. 14А",55.625098,37.312232,Москва
6623,17896,6623Ш_Рязанский66,"Москва пр-т Рязанский, д. 66",55.714556,37.804781,Москва
6629,17920,6629МТ_1-ыйЩипковский3эт2,"Москва пер. 1-ый Щипковский, д. 3",55.722213,37.630364,Москва
6631,17938,6631М_Осенний8,"Москва Осенний бульвар, д. 8А",55.756092,37.409271,Москва
6632,17940,6632М_Мос_Никитина2,"Московский ул. Никитина, д. 2",55.604529,37.356648,Москва
6633,17942,6633Ш_Рябиновая3,"Москва ул. Рябиновая, д. 3, к. 3",55.718111,37.424722,Москва
6636,17952,6636М_Мясницкая17,"Москва ул. Мясницкая, д. 17 стр. 1",55.763467,37.635305,Москва
6638,17960,6638М_НародногоОполчения13,"Москва ул. Народного Ополчения, д. 13",55.772943,37.472899,Москва
6642,17992,6642МТ_СадоваяСухаревская7эт-2,"Москва ул. Садовая-Сухаревская, д. 7/1",55.774219,37.623079,Москва
6644,17996,6644МТ_Ходынский8эт2,"Москва б-р Ходынский, д. 8",55.786941,37.534604,Москва
6645,18004,6645МТ_Волоколамское73эт6,"Москва ш. Волоколамское , д. 73",55.824314,37.429303,Москва
6646,18006,6646МТ_Композиторская17эт5,"Москва ул. Композиторская, д. 17",55.751229,37.586311,Москва
6647,18008,6647Ж_Вольная28,"Москва ул. Вольная, д. 28/4 к. 2",55.775591,37.737794,Москва
6650,18016,6650МТ_Гашека6эт7,"Москва ул. Гашека, д. 6",55.768345,37.590542,Москва
6654,18024,6654МТ_ГрузинскийВал7эт9,"Москва ул. Грузинский вал, д. 7",55.774168,37.576924,Москва
6656,18028,6656М_Полярная27,"Москва ул. Полярная, д. 27 к. 5",55.882969,37.638907,Москва
6657,18034,6657МТ_Авиамоторная53эт1,"Москва ул. Авиамоторная, д. 53 к. 26",55.744591,37.729601,Москва
6660,18044,6660М_БольшаяФилевская3к3,"Москва ул. Большая Филёвская, д. 3 к. 3",55.749152,37.518695,Москва
6661,18046,6661МТ_Гоголевский11эт1,"Москва б-р Гоголевский, д. 11 эт1",55.745848,37.599471,Москва
6663,18050,6663М_Лобненская13,"Москва ул. Лобненская, д. 13 к. 3",55.887579,37.526492,Москва
6667,18082,6667Ж_Филимонковское_165кв-л_9,"Москва ул. 165 кв-л, д. 9",55.557674,37.311180,Москва
6669,18088,6669М_Толбухина7,"Москва ул. Толбухина, д. 7",55.720306,37.400973,Москва
6670,18090,6670Ж_Пятницкое38,"Москва ш. Пятницкое, д. 38",55.854911,37.360861,Москва
6674,18098,6674МТ_Андропова18к1эт6,"Москва пр-т Андропова , д. 18 к. 1",55.695022,37.662740,Москва
6675,18100,6675Ж_Вертолетчиков2,"Москва ул. Вертолетчиков, д. 2А к. 3",55.700101,37.941990,Москва
6676,18102,6676Ш_Яворки1,"Москва ул. Яворки, д. 1 к. 1",55.509044,37.345509,Москва
6679,18130,6679Ш_Рязановское31,"Москва ш. Рязановское, д. 31 к. 2",55.477332,37.528361,Москва
6680,18154,6680М_26БакинскихКомиссаров12,"Москва ул. 26-ти Бакинских Комиссаров, д. 12 к2",55.660429,37.488610,Москва
6681,18160,6681МТ_1-йКрасногвардейский22эт5,"Москва пр. 1-й Красногвардейский, д. 22 стр. 1",55.751133,37.533724,Москва
6684,18174,6684МТ_МаршалаНовикова14эт1,"Москва ул. Маршала Новикова, д. 14 к. 2",55.805265,37.463188,Москва
6691,18192,6691МТ_Партийный1к57с3эт1,"Москва пер. Партийный, д. 1 к. 57 стр. 3",55.719500,37.630176,Москва
6694,18204,6694ДС_Наметкина3,"Москва Только для курьеров, ул. Наметкина, д. 3",55.666307,37.546148,Москва
6696,18208,6696М_ББронная17,"Москва ул. Большая Бронная, д. 17",55.762753,37.600253,Москва
6698,18212,6698МТ_2-яЗвенигородская12эт1,"Москва ул. 2-я Звенигородская, д. 12 стр. 2",55.757257,37.555687,Москва
6701,18218,6701М_Складочная6,"Москва ул. Складочная, д. 6 к. 1",55.802057,37.596794,Москва
6702,18222,6702_Ш_Ком_ПотаповскаяРоща24,"Москва ул. Потаповская Роща, д. 24 к. 2",55.550687,37.509361,Москва
6703,18224,6703М_Амундсена15,"Москва ул. Амундсена, д. 15 к. 1",55.853819,37.655544,Москва
6710,18242,6710Ш_Панферова4,"Москва ул. Панферова, д. 4",55.683183,37.541557,Москва
6716,18254,6716МТ_Дубининская94эт1,"Москва ул. Дубининская, д. 94",55.714911,37.632484,Москва
6717,18256,6717М_Викторенко11,"Москва ул. Викторенко, д. 11",55.795444,37.526905,Москва
6718,18258,6718МТ_Образцова21эт1,"Москва ул. Образцова, д. 21А",55.790828,37.609452,Москва
6719,18260,6719МТ_2-яПрядильная1эт4,"Москва ул. 2-я Прядильная, д. 1",55.795322,37.771319,Москва
6726,18276,6726Ж_Веласкеса8,"Сосенское б-р Веласкеса, д. 8",55.592637,37.461122,Москва
6727,18278,6727МТ_ВасилисыКожиной1эт10,"Москва ул. Василисы Кожиной, д. 1",55.737527,37.505166,Москва
6728,18282,6728М_БольшаяОчаковская2новый,"Москва ул. Большая Очаковская, д. 2",55.692024,37.467509,Москва
6729,18286,6729Ш_Береговой3,"Москва пр. Береговой, д. 3",55.757379,37.508867,Москва
6730,18288,6730М_ВерхняяРадищевская17,"Москва ул. Верхняя Радищевская, д. 17/2 стр. 2",55.743264,37.652732,Москва
6739,18314,6739М_Новосередневский19,"Москва пр-кт. Новосередневский, д. 19",55.567494,37.286220,Москва
6741,18320,6741МТ_НижнийСусальный5стр3эт1,"Москва пер. Нижний Сусальный, д. 5 стр. 3А",55.760094,37.662776,Москва
6742,18326,6742Ж_Сельскохозяйственная38,"Москва ул. Сельскохозяйственная, д. 38 к. 2",55.847240,37.630975,Москва
6747,18362,6747МТ_ИванаФранко8эт19,"Москва ул. Ивана Франко, д. 8",55.727891,37.449650,Москва
6751,18388,6751М_Сельскохозяйственная37,"Москва ул. Сельскохозяйственная, д. 37",55.854178,37.623573,Москва
6756,18412,6756МТ_Неверовского10эт1,"Москва ул. Неверовского, д. 10 стр. 3А",55.739134,37.510673,Москва
6758,18416,6758МТ_Партизанская41эт1,"Москва ул. Партизанская, д. 41",55.739382,37.404941,Москва
6763,18426,6763МТ_Трубная35эт1,"Москва ул. Трубная , д. 35",55.772887,37.624606,Москва
6764,18428,6764МТ_Бирюсинка6эт2,"Москва ул. Бирюсинка, д. 6",55.815099,37.777877,Москва
6768,18448,6768М_Волоколамское71,"Москва ш. Волоколамское, д. 71/13 к. 1",55.815418,37.426132,Москва
6771,18464,6771МТ_1-йЗемельный7эт5,"Москва пер. 1-й Земельный , д. 7/2 стр. 1-2",55.769423,37.559371,Москва
6772,18478,6772МТ_МалаяДмитровка16эт1,"Москва ул. Малая Дмитровка, д. 16 стр. 10",55.770983,37.606766,Москва
6776,18488,6776Ш_Сосен_Ясеневая5новая,"Сосенки ул. Ясеневая, д. 5",55.568766,37.442176,Москва
6779,18496,6779МТ_Варшавское26эт5,"Москва ш. Варшавское, д. 26",55.684503,37.621947,Москва
6780,18498,6780МТ_Пресненская10блСэт55,"Москва наб. Пресненская, д. 10",55.746593,37.537380,Москва
6781,18500,6781МТ_Варшавское25эт3,"Москва ш. Варшавское, д. 25 стр. 6",55.694515,37.623034,Москва
6783,18506,6783ДС_Береговой4,"Москва Только для курьеров, пр. Береговой, д. 4 к. 6 стр. 1",55.757590,37.505731,Москва
6787,18514,6787МТ_Пресненская10блСэт10,"Москва наб. Пресненская, д. 10",55.746593,37.537380,Москва
6789,18518,6789М_Берзарина30,"Москва ул. Берзарина, д. 30Б",55.789315,37.471857,Москва
6791,18522,6791МТ_НижняяСыромятническая10эт4,"Москва ул. Нижняя Сыромятническая, д. 10 стр. 9",55.752886,37.667734,Москва
6792,18526,6792МТ_Нобеля3эт1,"Москва ул. Нобеля, д. 3",55.684503,37.340433,Москва
6795,18536,6795МТ_Чистопрудный8эт1,"Москва б-р Чистопрудный, д. 8 стр. 1",55.762682,37.640659,Москва
6796,18540,6796М_26БакинскихКомиссаров7,"Москва ул. 26-ти Бакинских Комиссаров, д. 7 к. 6",55.655493,37.484667,Москва
6797,18542,6797Ш_9Северная3,"Москва линия 9-Я Северная, д. 3А",55.936666,37.552534,Москва
6801,18556,6801МТ_8Марта10эт3,"Москва ул. 8 Марта, д. 10 стр. 14",55.802761,37.554169,Москва
6803,18560,6803МТ_Холодильный3эт1,"Москва пер. Холодильный, д. 3А",55.709972,37.625208,Москва
6805,18566,6805Ш_Ладожская11,"Москва ул. Ладожская, д. 11к 6",55.771797,37.684100,Москва
6806,18568,6806Ш_Измайловский5,"Москва пр. Измайловский, д. 5А",55.795818,37.765839,Москва
6807,18572,6807Ш_Крёк_МедоваяДолина7,"Москва Марушкинское п., д. Крёкшино, ул. Медовая Долина, д. 7 к. 1",55.584528,37.126472,Москва
6816,18604,6816МТ_1-яТверскаяЯмская21эт7,"Москва ул. 1-я Тверская-Ямская, д. 21",55.774527,37.587093,Москва
99323,18618,99323И_ОплатаЯндексТаксиНалТерминал,"Москва ул. Кулакова, д. 20, к. 1",55.803479,37.390514,Москва
99322,18620,99322И_ОплатаЛайфПэй,"Москва ул. Кулакова, д. 20, к. 1",55.803479,37.390514,Москва
6827,18648,6827МТ_Крылатская15эт4,"Москва ул. Крылатская, д. 15",55.769838,37.426492,Москва
6834,18672,6834МТ_Зел_КонструтораЛукина14эт5,"Зеленоград ул. Конструтора Лукина, д. 14 стр. 1",56.007514,37.156934,Москва
6841,18686,6841Ш_Логинова5,"Рязановское ул. Логинова, д. 5 к. 2",55.496999,37.516952,Москва
6846,18700,6846МТ_Ленинградский72к3эт2,"Москва пр-т Ленинградский, д. 72 к. 3",55.804951,37.520842,Москва
6849,18708,6849Ш_Рублевское70,"Москва ш. Рублёвское, д. 70 к. 6",55.770775,37.376635,Москва
6850,18712,6850ДС_Зел_2йЗападный2,"Зеленоград Только для курьеров, пр. 2-й Западный, д. 2Б",56.006497,37.197565,Москва
6852,18716,6852Ж_Ком_Фитаревская6,"Коммунарка ул. Фитарёвская, д. 6",55.570624,37.487200,Москва
6854,18720,6854МТ_Пресненская6эт23,"Москва наб. Пресненская, д. 6 стр. 2",55.748179,37.540245,Москва
6857,18730,6857М_Кок_Школьная6,"Москва ул. Школьная, д. 6",55.602210,37.163465,Москва
6859,18734,6859ДС_Соколово-Мещерская40,"Москва Только для курьеров, ул. Соколово-Мещерская, д. 40",55.906532,37.388313,Москва
6861,18738,6861МТ_Садовническая82эт4,"Москва ул. Садовническая, д. 82 стр. 2",55.735525,37.642474,Москва
6862,18740,6862МТ_Тверской26эт1,"Москва б-р Тверской, д. 26",55.762611,37.603999,Москва
6864,18746,6864МТ_МожайскийВал8эт14,"Москва ул. Можайский Вал, д. 8С",55.743684,37.555148,Москва
6865,18748,6865МТ_Ярцевская19эт8,"Москва ул. Ярцевская, д. 19",55.738596,37.411014,Москва
6866,18752,6866МТ_Саввинская23эт3,"Москва наб. Саввинская, д. 23 стр. 1",55.731642,37.559604,Москва
6870,18764,6870МТ_8Марта1эт9,"Москва ул. 8 Марта, д. 1 стр. 12",55.800863,37.554717,Москва
6871,18772,6871М_Ленинский107,"Москва пр-т Ленинский, д. 107 к. 1",55.663705,37.514778,Москва
6874,18780,6874Ж_КартмазовскиеПруды2,"Московский ул. Картмазовские Пруды, д. 2 к. 2",55.614312,37.385448,Москва
6876,18784,6876Ж_Ленинский119,"Москва пр-т Ленинский, д. 119",55.651460,37.488583,Москва
6877,18786,6877Ж_Ореховый24,"Москва б-р Ореховый, д. 24 к. 3",55.612528,37.749885,Москва
6882,18806,6882МТ_Шарикоподшипниковская5эт1,"Москва ул. Шарикоподшипниковская, д. 5",55.722537,37.668507,Москва
6886,18826,6886МТ_Открытое18эт4,"Москва ш. Открытое, д. 18 стр. 1",55.817193,37.744010,Москва
6887,18828,6887Ж_Щер_40ЛетОктября15,"Щербинка ул. 40 лет Октября, д. 15 к 1",55.512041,37.573663,Москва
6888,18830,6888МТ_Новинский13эт1,"Москва б-р Новинский, д. 13 стр. 4",55.754015,37.581496,Москва
6889,18834,6889М_Окская7,"Москва ул. Окская, д. 7А",55.716296,37.769460,Москва
6890,18838,6890М_6яРадиальная3,"Москва ул. 6-Я Радиальная, д. 3 к. 5",55.605714,37.661832,Москва
6893,18844,6893М_СерпуховскийВал21,"Москва ул. Серпуховский Вал, д. 21 к. 1",55.710859,37.610350,Москва
6894,18846,6894Ж_Рязан_Остафьевское14,"Рязановское ш. Остафьевское, д. 14 к. 2",55.499290,37.521318,Москва
6905,18878,6905Ш_Дыбенко7,"Москва ул. Дыбенко, д. 7/1 стр. 1",55.878536,37.479115,Москва
6906,18888,6906Ж_Новозаводская8,"Москва ул. Новозаводская, д. 8",55.752080,37.508032,Москва
6907,18890,6907Ж_Щер_Южный6,"Щербинка  Южный кв-л, д. 6",55.494706,37.553136,Москва
6908,18892,6908Ж_Сос_МалоеПонизовье3,"Сосенское ул. Малое Понизовье, д. 3",55.602266,37.415712,Москва
6911,18900,6911Ж_НаташиКачуевской3,"Москва ул. Наташи Качуевской, д. 3",55.712462,37.878623,Москва
6912,18902,6912Ш_БольшаяПочтовая28,"Москва ул. Большая Почтовая, д. 28",55.779256,37.698061,Москва
6913,18904,6913Ж_Скандинавский23,"Сосенское б-р Скандинавский, д. 23 к. 1",55.554348,37.512757,Москва
6915,18908,6915МТ_БПочтовая35эт1,"Москва ул. Большая Почтовая, д. 35 стр. 1",55.776381,37.692429,Москва
6916,18910,6916Ж_Коптевская22,"Москва ул. Коптевская, д. 22",55.831858,37.519890,Москва
6918,18914,6918Ш_Таллинская14,"Москва ул. Таллинская, д. 14",55.798702,37.400423,Москва
6919,18916,6919Ж_Веерная4,"Москва ул. Веерная, д. 4 к. 1",55.712234,37.489518,Москва
6920,18918,6920Ш_Нарвская5,"Москва ул. Нарвская, д. 5А",55.832293,37.504456,Москва
6921,18920,6921Ж_МРокоссовского36,"Москва б-р Маршала Рокоссовского, д. 36/1",55.818063,37.714950,Москва
6927,18936,6927МТ_Цветной2эт1,"Москва б-р Цветной, д. 2",55.768025,37.623483,Москва
6928,18942,6928Ж_КраснаяСосна3,"Москва ул. Красная Сосна, д. 3",55.849994,37.683239,Москва
6931,18948,6931МТ_Ленинградский35эт7,"Москва пр-т Ленинградский, д. 35 стр. 1",55.789461,37.551735,Москва
6936,18968,6936Ш_Фестивальная29,"Москва ул. Фестивальная, д. 29",55.858316,37.480040,Москва
6937,18970,6937Ж_5яКожуховская18,"Москва ул. 5-я Кожуховская, д. 18 к. 1",55.704900,37.673106,Москва
6938,18978,6938Ш_1йКотляковский2,"Москва пер. 1-Й Котляковский, д. 2А к. 3",55.649027,37.631038,Москва
6939,18980,6939М_Протопоповский16,"Москва пер. Протопоповский, д. 16",55.779327,37.640372,Москва
6949,19070,6949Ж_Муравская42,"Москва ул. Муравская, д. 42 к. 1",55.860752,37.372440,Москва
6950,19072,6950МТ_Краснопролетарская4эт4,"Москва ул. Краснопролетарская , д. 4",55.774740,37.608481,Москва
6951,19074,6951МТ_1-йГолутвинский3эт6,"Москва пер. 1-ый Голутвинский, д. 3-5 стр. 1",55.739245,37.613988,Москва
6953,19078,6953Ш_СамуилаМаршака22,"Москва ул. Самуила Маршака, д. 22",55.635518,37.322179,Москва
6955,19084,6955Ж_Исаковского2,"Москва ул. Исаковского, д. 2 к. 1",55.819095,37.396865,Москва
6965,19150,6965ДС_7яКожуховская9,"Москва Только для курьеров, ул. 7-я Кожуховская, д. 9",55.709670,37.672330,Москва
6966,19152,6966Ш_Авиаторов7,"Москва ул. Авиаторов, д. 7 к. 2",55.641102,37.401249,Москва
6969,19158,6969Ш_Феодосийская2,"Москва ул. Феодосийская, д. 2",55.563666,37.580319,Москва
6970,19166,6970МТ_Новоорловская5эт2,"Москва ул. Новоорловская , д. 5",55.635721,37.365739,Москва
6976,19178,6976Ш_Производственная10,"Москва ул. Производственная, д. 10 к. 1",55.644704,37.385870,Москва
6977,19180,6977Ж_Недорубова18,"Москва ул. Недорубова, д. 18 к. 2",55.701841,37.936160,Москва
6978,19182,6978Ж_Вертолётчиков4,"Москва ул. Вертолётчиков, д. 4 к. 5",55.703479,37.945179,Москва
6981,19188,6981МТ_Каширское3эт1,"Москва ш. Каширское, д. 3 к. 2 стр. 16",55.672961,37.630571,Москва
6986,19204,6986М_Пресненская10,"Москва наб. Пресненская, д. 10 стр. 2, башня IQ, вход 1",55.747443,37.534245,Москва
6988,19210,6988Ш_1яМашиностроения10,"Москва ул. 1-я Машиностроения, д. 10",55.714044,37.670142,Москва
6990,19214,6990Ж_Изюмская43,"Москва ул. Изюмская, д. 43 к. 3",55.548726,37.570689,Москва
6993,19220,6993Ж_ТатьянинПарк14,"Москва ул. Татьянин Парк, д. 14 к. 4",55.652110,37.424623,Москва
6996,19226,6996Ш_Красноказарменная14,"Москва ул. Красноказарменная, д. 14А к. 6",55.751670,37.712030,Москва
6998,19230,6998Ж_СимоновскийВал16,"Москва ул. Симоновский Вал, д. 16",55.723024,37.662812,Москва
7000,19234,7000Ж_Лухмановская15,"Москва ул. Лухмановская, д. 15 к. 2",55.721838,37.892556,Москва
7003,19240,7003Ж_Изюмская50,"Москва ул. Изюмская, д. 50",55.543801,37.559308,Москва
7011,19270,7011Ж_Дмитровское73,"Москва ш. Дмитровское, д. 73Б",55.856124,37.555723,Москва
7012,19272,7012Ж_Проходчиков4,"Москва ул. Проходчиков, д. 4 стр. 2",55.874809,37.720537,Москва
7013,19274,7013Ш_Зел_355,"Москва ул. к. , д. к355 к. 355",55.993369,37.222853,Москва
7017,19298,7017Ж_АкВолгина31,"Москва ул. Академика Волгина, д. 31 к. 3",55.642438,37.510457,Москва
7020,19304,7020Ж_Заповедная18,"Москва ул. Заповедная, д. 18 к. 2",55.867925,37.638764,Москва
7021,19306,7021Ж_Красноказарменная15,"Москва ул. Красноказарменная, д. 15 к. 1",55.755636,37.705958,Москва
7028,19320,7028Ш_Твардовского12,"Москва ул. Твардовского, д. 12",55.794037,37.397593,Москва
7033,19332,7033Ж_Мичуринский56,"Москва пр-т Мичуринский, д. 56",55.695804,37.485664,Москва
7036,19338,7036Ш_Удальцова27,"Москва ул. Удальцова, д. 27",55.674174,37.509801,Москва
7039,19344,7039МТ_2яМелитопольская4эт2,"Москва ул. 2-я Мелитопольская, д. 4А",55.537261,37.571165,Москва
7040,19346,7040МТ_Ленинградский80эт7,"Москва пр-т Ленинградский, д. 80 к. 37",55.809216,37.512173,Москва
7043,19354,7043Ж_Дмитриевского23,"Москва ул. Дмитриевского, д. 23 к. 1",55.711022,37.896805,Москва
7048,19394,7048Ж_Саларьевская9,"Москва ул. Саларьевская, д. 9",55.617225,37.417473,Москва
99165,19400,99165И_ИндийскаяЛавка,"Москва ул. Кулакова, д. 20, к. 1",55.803479,37.390514,Москва
7050,19408,7050Ж_Дмитровское124,"Москва ш. Дмитровское, д. 124А",55.924850,37.548555,Москва
7054,19432,7054МТ_Ленинградский36с41эт5,"Москва пр-т Ленинградский, д. 36 стр. 41",55.789947,37.570051,Москва
7056,19438,7056М_Южнобутовская91,"Москва ул. Южнобутовская, д. 91",55.534693,37.522081,Москва
7062,19476,7062Ш_Довженко6,"Москва ул. Довженко, д. 6",55.721812,37.513619,Москва
7066,19484,7066Ж_Мостовая5,"Москва ул. Мостовая, д. 5 к. 3",55.531545,37.378603,Москва
7070,19492,7070М_Профсоюзная16,"Москва ул. Профсоюзная, д. 16/10",55.684275,37.568938,Москва
7077,19526,7077Ш_Гарибальди7,"Москва ул. Гарибальди, д. 7",55.677280,37.537389,Москва
7079,19530,7079Ш_Паршина10,"Москва ул. Паршина, д. 10",55.790362,37.458085,Москва
7083,19542,7083М_Литовский22,"Москва б-р Литовский, д. 22",55.611968,37.537586,Москва
7084,19544,7084Ж_Цимлянская3,"Москва ул. Цимлянская, д. 3 к. 2",55.669986,37.773143,Москва
7086,19556,7086МТ_Крылатская17к1эт3,"Москва ул. Крылатская, д. 17 к. 1",55.770552,37.424138,Москва
7090,19600,7090МТ_Станиславского21стр3эт1,"Москва ул. Станиславского, д. 21 стр. 3",55.746106,37.663404,Москва
7092,19604,7092Ж_Дубравная39,"Москва ул. Дубравная, д. 39",55.843636,37.356926,Москва
7094,19608,7094Ж_Вернадского61,"Москва пр-т Вернадского, д. 61 к. 1",55.671798,37.502777,Москва
7095,19610,7095Ш_Никулинская27,"Москва ул. Никулинская, д. 27",55.669168,37.450531,Москва
7097,19614,7097Ж_Зеленоградская17,"Москва ул. Зеленоградская, д. 17 к. 1",55.870491,37.499345,Москва
7098,19616,7098Ж_Старокрымская15,"Москва ул. Старокрымская, д. 15 к. 1",55.557953,37.557277,Москва
7100,19620,7100МТ_Вавилова38эт1,"Москва ул. Вавилова, д. 38 к. 1",55.695357,37.567042,Москва
7102,19638,7102Ш_АлександрыМонаховой87к3,"Москва ул. Александры Монаховой, д. 87 к. 3",55.550132,37.489203,Москва
7104,19642,7104Ш_БорисовскиеПруды7,"Москва ул. Борисовские Пруды, д. 7 к. 2",55.636463,37.715597,Москва
7105,19644,7105Ж_Русаковская25,"Москва ул. Русаковская, д. 25 стр. 1",55.786510,37.676502,Москва
7106,19646,7106М_3-яХорошевская25,"Москва ул. 3-я Хорошёвская, д. 25 к. 5",55.785685,37.492545,Москва
7110,19654,7110Ж_Омская18,"Москва ул. Омская, д. 18",55.620169,37.263052,Москва
7118,19672,7118МТ_МалаяДмитровка20эт5,"Москва ул. Малая Дмитровка , д. 20",55.771844,37.605256,Москва
7120,19676,7120Ж_Волоколамское81,"Москва ш. Волоколамское, д. 81/2 стр. 1",55.824976,37.412478,Москва
7126,19688,7126МТ_Сретенский11эт-1,"Москва б-р Сретенский, д. 11",55.766957,37.636275,Москва
7127,19690,7127Ж_Лазоревый3,"Москва пр. Лазоревый, д. 3",55.849004,37.636464,Москва
7129,19694,7129Ж_ПавлаКорчагина11,"Москва ул. Павла Корчагина, д. 11",55.817314,37.659649,Москва
7132,19706,7132Ш_Пятницкое27,"Москва ш. Пятницкое, д. 27 к. 2",55.849074,37.361786,Москва
7136,19728,7136МТ_4-ыйГолутвинский1,"Москва пер. 4-ый Голутвинский , д. 1/8 стр. 1,2",55.738890,37.612811,Москва
7137,19734,7137М_Лобачевского120,"Москва ул. Лобачевского, д. 120 к. 1",55.696123,37.469817,Москва
7142,19752,7142Ж_Донецкая34,"Москва ул. Донецкая, д. 34 к. 3",55.643917,37.702616,Москва
7150,19774,7150МТ_Звенигородское18эт5,"Москва ш. Звенигородское , д. 18/20 к. 1",55.764323,37.556119,Москва
7153,19780,7153Ж_Поляны5,"Москва ул. Поляны, д. 5А к. 5",55.554557,37.557628,Москва
7154,19788,7154Ж_Новотушинский8,"Москва пр. Новотушинский, д. 8 к. 1",55.838314,37.380525,Москва
7155,19798,7155Ж_АлександрыМонаховой90,"Москва ул. Александры Монаховой, д. 90 к. 3",55.543180,37.481460,Москва
7157,19800,7157МТ_Большой46эт1,"Москва б-р Большой, д. 46 стр. 2",55.684315,37.350386,Москва
7158,19801,7158МТ_Нагорный6эт1,"Москва пр. Нагорный, д. 6 стр. 6",55.689207,37.616072,Москва
7159,19802,7159МТ_Аминьевское6эт14,"Москва ш. Аминьевское, д. 6",55.707299,37.456828,Москва
7160,19803,7160МТ_Дербеневская7стр4эт4,"Москва наб. Дербеневская, д. 7 стр. 4",55.724170,37.651592,Москва
7161,19805,7161М_Зел_2309,Москва к. 2309А,55.964524,37.187109,Москва
7164,19808,7164ДС_Чермянская5,"Москва Только для курьеров, ул. Чермянская, д. 5Б стр. 1",55.882732,37.619477,Москва
7166,19810,7166Ш_Скобелевская23,"Москва ул. Скобелевская, д. 23 к. 4",55.548294,37.559460,Москва
7174,19821,7174МТ_Большая Якиманка17эт1,"Москва ул. Большая Якиманка, д. 17/2 стр. 1",55.737953,37.615659,Москва
7175,19822,7175МТ_Краснопролетарская2эт1,"Москва ул. Краснопролетарская, д. 2/4 стр. 13",55.773763,37.608922,Москва
99069,19826,99069И_ОплатаГиперСсылки,"Москва ул. Кулакова, д. 20, к. 1",55.803479,37.390514,Москва
7182,19834,7182Ш_ВнуковскаяБ19,"Москва ул. Внуковская Б, д. 19/8",55.610982,37.295811,Москва
7186,19841,7186Ш_Серебрякова11,"Москва пр. Серебрякова, д. 11 к. 1",55.847861,37.650055,Москва
7188,19844,7188Ш_Каширский25Новый,"Москва пр. Каширский, д. 25 к. 2",55.654035,37.624391,Москва
7199,19859,7199МТ_Фрунзенская54-1,"Москва наб. Фрунзенская, д. 54",55.716286,37.578118,Москва
7205,19866,7205Ж_Бутлерова24,"Москва ул. Бутлерова, д. 24",55.648123,37.537254,Москва
7209,19877,7209Ш_Саларьевская13,"Москва ул. Саларьевская, д. 13 к. 3",55.612746,37.411562,Москва
7214,19884,7214Ж_Чонгарский26,"Москва б-р Чонгарский, д. 26А к. 1",55.654579,37.600774,Москва
7215,19885,7215МТ_Лужники24эт1,"Москва ул. Лужники, д. 24 стр. 7",55.714739,37.561329,Москва
7216,19886,7216МТ_Пресненский Вал16эт1,"Москва ул. Пресненский Вал, д. 16 стр. 2",55.767246,37.566297,Москва
7218,19888,7218Ш_Магеллана2,"Москва пр-т Магеллана, д. 2",55.591513,37.447306,Москва
7226,19919,7226Ж_Вавилова60,"Москва ул. Вавилова, д. 60 к. 5",55.688923,37.552831,Москва
7232,19931,7232Ж_АкадемикаЧеренкова15,"Москва ул. Академика Черенкова, д. 15",55.465917,37.285708,Москва
7237,19938,7237Ш_Гурьянова55,"Москва ул. Гурьянова, д. 55",55.680422,37.717070,Москва
7241,19942,7241Ж_ДмитрияДонского16,"Москва б-р Дмитрия Донского, д. 16",55.564053,37.570941,Москва
7242,19943,7242Ш_Мукомольный2,"Москва пр. Мукомольный, д. 2",55.751330,37.526896,Москва
7246,19947,7246Ж_Челюскинская13,"Москва ул. Челюскинская, д. 13",55.883807,37.706766,Москва
7247,19948,7247МТ_Павелецкая2эт10,"Москва пл. Павелецкая, д. 2 стр. 3",55.729696,37.636311,Москва
7256,19963,7256М_Рабочая13,"Москва ул. Рабочая, д. 13",55.744546,37.683024,Москва
7259,19968,7259Ж_Плетешковский10,"Москва пер. Плетешковский, д. 10",55.770395,37.675091,Москва
7262,19976,7262Ж_ВасилияБотылева14,"Москва ул. Василия Ботылёва, д. 14А",55.787938,37.355651,Москва
7263,19979,7263Ш_Ленинградское69,"Москва ш. Ленинградское, д. 69 к. 2",55.868713,37.456819,Москва
7264,19980,7264М_Победы1,"Москва пл. Победы, д. 1 к. Б",55.735596,37.519539,Москва
7265,19983,7265Ж_Брусилова15,"Москва ул. Брусилова, д. 15",55.501738,37.580625,Москва
7266,19999,7266ДС_Варшавское95,"Москва Только для курьеров, ш. Варшавское, д. 95 к. 1",55.640274,37.621947,Москва
7267,20003,7267Ж_Новомихайловское1,"Москва ш. Новомихайловское, д. 1 к. 4",55.606853,37.472548,Москва
7279,20033,7279Ж_Тихомирова2,"Москва ул. Тихомирова, д. 2",55.882863,37.646148,Москва
7280,20034,7280МТ_Большой5эт1,"Москва б-р Большой, д. 5",55.706599,37.375467,Москва
7286,20042,7286МТ_НижнийСусальный5стр6эт1,"Москва пер. Нижний Сусальный, д. 5 стр. 6",55.758904,37.663755,Москва
7287,20043,7287МТ_ИванаФранко4эт1,"Москва ул. Ивана Франко, д. 4 к. 10",55.728839,37.456576,Москва
7295,20053,7295Ж_Куприна24,"Москва пр-т Куприна, д. 24 к. 2",55.544560,37.478738,Москва
98958,20065,98958_УчебныйЦентр,"Москва пр-т Мира, д. 64",55.786040,37.635844,Москва
7313,20082,7313Ж_МаршалаСавицкого32,"Москва ул. Маршала Савицкого, д. 32",55.502773,37.602085,Москва
7315,20084,7315ДС_Профсоюзная152,"Москва Только для курьеров, ул. Профсоюзная, д. 152 к. 2",55.622497,37.505391,Москва
7317,20091,7317Ж_Чароитовая1,"Москва ул. Чароитовая, д. 1 к. 1",55.512164,37.353090,Москва
7318,20093,7318МТ_Крылатская15эт6,"Москва ул. Крылатская, д. 15",55.769838,37.426492,Москва
7329,20105,7329Ж_Изюмская47,"Москва ул. Изюмская, д. 47 к. 1",55.547677,37.567887,Москва
7335,20111,7335Ж_БольшаяОчаковская3,"Москва ул. Большая Очаковская, д. 3",55.688563,37.465910,Москва
7338,20117,7338Ш_Шверника6,"Москва ул. Шверника, д. 6 к. 2",55.693551,37.581730,Москва
7344,20137,7344Ш_Веневская7,"Москва ул. Венёвская, д. 7",55.547066,37.546004,Москва
7346,20139,7346МТ_Ломоносовский7эт1,"Москва пр-т Ломоносовский, д. 7 к. 5",55.684599,37.545518,Москва
7347,20140,7347Ж_Янковского1,"Москва ул. Янковского, д. 1 к. 2",55.696423,37.473770,Москва
7351,20145,7351Ж_Нагатинская14,"Москва наб. Нагатинская, д. 14 к. 1",55.683199,37.648277,Москва
7354,20150,7354МТ_БольшаяПолянка2эт1,"Москва ул. Большая Полянка, д. 2/10 стр. 1",55.741784,37.615084,Москва
7361,20161,7361Ш_Беловежская71,"Москва ул. Беловежская, д. 71",55.707527,37.395940,Москва
7363,20163,7363Ш_Михневская8,"Москва ул. Михневская, д. 8",55.579694,37.671094,Москва
7367,20176,7367М_Энтузиастов1,"Москва ш. Энтузиастов, д. 1 к. 2",55.747713,37.688333,Москва
7372,20181,7372М_Перерва41переезд,"Москва ул. Перерва, д. 41",55.659434,37.747091,Москва
7379,20195,7379Ш_Новоалексеевская16,"Москва ул. Новоалексеевская, д. 16 к. 5",55.808624,37.648600,Москва
7380,20196,7380Ш_Брусилова27,"Москва ул. Брусилова, д. 27 к. 3",55.502248,37.589311,Москва
7384,20203,7384МТ_Нагорный6эт5,"Москва пр. Нагорный, д. 6 стр. 9",55.687959,37.615012,Москва
7385,20204,7385Ш_Рождественская21,"Москва ул. Рождественская, д. 21 к. 2",55.704874,37.916936,Москва
7389,20213,7389Ж_Ангелов6,"Москва пер. Ангелов, д. 6",55.853061,37.348033,Москва
7397,20238,7397М_Петровско-Разумовская10,"Москва ул. Петровско-Разумовская, д. 10 к. 1",55.792949,37.562371,Москва
7403,20250,7403МТ_Щепкина40эт-1,"Москва ул. Щепкина, д. 40 стр. 1",55.781990,37.629924,Москва
7405,20252,7405Ж_Зел_Георгиевский33,"Москва пр-т Георгиевский, д. 33 к. 5",55.966479,37.155695,Москва
7406,20253,7406ДС_Венёвская4,"Москва Только для курьеров, ул. Венёвская, д. 4",55.548764,37.542729,Москва
7407,20256,7407Ш_Нагатинская27,"Москва ул. Нагатинская, д. 27",55.678164,37.655257,Москва
7414,20267,7414МТ_2яХуторская38стр8эт1,"Москва ул. 2-я Хуторская, д. 38А стр. 8",55.805331,37.566871,Москва
7419,20272,7419Ж_АлександрыМонаховой109,"Москва ул. Александры Монаховой, д. 109 к. 3",55.542171,37.497683,Москва
7427,20280,7427МТ_Новорязанская31к12эт1,"Москва ул. Новорязанская, д. 31/7 к. 12",55.773191,37.671516,Москва
7430,20284,7430МТ_Славянская2эт1,"Москва пл. Славянская , д. 2/5/4",55.753590,37.635072,Москва
7432,20286,7432МТ_1-йКрасногвардейский21эт30,"Москва пр. 1-й Красногвардейский, д. 21 стр. 1",55.750028,37.534406,Москва
7433,20287,7433МТ_1-йКрасногвардейский21эт29,"Москва пр. 1-й Красногвардейский, д. 21 стр. 1",55.750028,37.534406,Москва
7434,20288,7434МТ_Смирновская10эт1,"Москва ул. Смирновская, д. 10/19",55.735809,37.709838,Москва
7444,20299,7444МТ_ЛенинскаяСлобода19эт2,"Москва ул. Ленинская Слобода, д. 19 стр. 6",55.707547,37.651169,Москва
7445,20300,7445МТ_Черемушкинский5эт1,"Москва пр. Черемушкинский, д. 5",55.691552,37.572396,Москва
7450,20306,7450ДС_Вернадского37,"Москва Только для курьеров, пр-т Вернадского, д. 37 к. 2",55.677433,37.509460,Москва
7460,20318,7460МТ_Коптевская67эт1,"Москва ул. Коптевская, д. 67",55.830154,37.517886,Москва
7462,20320,7462Ж_Изюмская37,"Москва ул. Изюмская, д. 37 к. 2",55.550758,37.570644,Москва
7466,20325,7466МТ_Ватутина1эт1,"Москва ул. Ватутина, д. 1",55.722203,37.459451,Москва
7467,20326,7467МТ_Ватутина1эт6,"Москва ул. Ватутина, д. 1",55.722203,37.459451,Москва
7468,20327,7468МТ_Верейская29стр34эт7,"Москва ул. Верейская, д. 29 стр. 34",55.709784,37.438556,Москва
7469,20328,7469Ж_Автозаводская4,"Москва ул. Автозаводская, д. 4",55.710002,37.662722,Москва
7472,20337,7472М_Багратионовский5,"Москва пр. Багратионовский, д. 5А к. 1",55.742625,37.510242,Москва
7473,20338,7473Ж_Чистова16,"Москва ул. Чистова, д. 16 к. 2",55.696397,37.745906,Москва
7478,20344,7478МТ_Трубная12эт8,"Москва ул. Трубная, д. 12",55.768380,37.624885,Москва
7480,20346,7480МТ_ЗемлянойВал50стр6эт1,"Москва ул. Земляной Вал, д. 50А стр. 6",55.751675,37.653873,Москва
7482,20362,7482ДС_АкадемикаКоролева13,"Москва Только для курьеров, ул. Академика Королева, д. 13 стр. 1",55.820202,37.619073,Москва
7484,20371,7484МТ_Кожевническая14эт4,"Москва ул. Кожевническая, д. 14 стр. 5",55.728150,37.646229,Москва
7487,20376,7487МТ_Электрозаводская27эт1,"Москва ул. Электрозаводская, д. 27 стр. 9",55.791349,37.707036,Москва
7491,20381,7491Ж_Матвеевская42,"Москва ул. Матвеевская, д. 42 к. 3",55.707025,37.461212,Москва
7494,20385,7494МТ_Лужники24эт2,"Москва ул. Лужники, д. 24 стр. 14",55.719708,37.544629,Москва
7497,20406,7497МТ_Ленинградское16стр9эт-1,"Москва ш. Ленинградское, д. 16 стр. 9",55.821644,37.499785,Москва
7501,20410,7501Ш_рпКиевский22,Москва дом № 22А,55.430462,36.864371,Москва
7507,20417,7507Ш_Святоозерская18,"Москва ул. Святоозерская, д. 18",55.712284,37.891433,Москва
7513,20423,7513Ж_МаршалаЕременко5,"Москва ул. Маршала Еременко, д. 5 к. 5",55.712705,37.945071,Москва
7522,20437,7522Ш_Мантулинская9,"Москва ул. Мантулинская, д. 9 к. 4",55.755186,37.543443,Москва
7527,20443,7527Ж_ЛьваЯшина5,"Москва ул. Льва Яшина, д. 5 к. 1",55.698224,37.923044,Москва
7530,20447,7530Ж_Рубцовская4,"Москва наб. Рубцовская, д. 4 к. 2",55.775479,37.698825,Москва
7535,20453,7535Ж_Яхромская3,"Москва ул. Яхромская, д. 3",55.883454,37.538916,Москва
7537,20473,7537МТ_Дербеневская6эт1,"Москва ул. Дербеневская , д. 6",55.726396,37.651142,Москва
7539,20475,7539Ж_Ярославское51,"Москва ш. Ярославское, д. 51",55.860888,37.689905,Москва
7542,20480,7542МТ_120кв-л20,"Москва  120 кв-л, д. 20",55.418584,37.399425,Москва
7560,20507,7560Ж_Главмосстроя14,"Москва ул. Главмосстроя, д. 14",55.654823,37.409019,Москва
7568,20515,7568ВГ_100кв-л1,"Москва  100 кв-л, д. 1к3",55.803757,37.351105,Москва
7570,20517,7570МТ_Профсоюзная108эт6,"Москва ул. Профсоюзная, д. 108",55.639989,37.523088,Москва
7571,20518,7571МТ_МалаяПолянка3эт1,"Москва ул. Малая Полянка, д. 3",55.735854,37.617554,Москва
7572,20519,7572МТ_Зорге1эт3,"Москва ул. Зорге, д. 1",55.778704,37.512362,Москва
7588,20542,7588МТ_Костянский4эт1,"Москва пер. Костянский, д. 4",55.767732,37.636482,Москва
7596,20551,7596Ж_Островитянова9,"Москва ул. Островитянова, д. 9",55.643774,37.496084,Москва
7606,20571,7606Ш_Пудовкина3,"Москва ул. Пудовкина, д. 3",55.726745,37.531505,Москва
7610,20575,7610Ж_ГенералаКузнецова12,"Москва ул. Генерала Кузнецова, д. 12",55.690821,37.858824,Москва
7615,20583,7615МТ_БЗлатоустинский4эт3,"Москва пер. Большой Златоустинский, д. 4",55.759375,37.631496,Москва
7616,20584,7616МТ_1-йКрасногвардейский15эт15,"Москва пр. 1-йКрасногвардейский, д. 15",55.750484,37.539527,Москва
7618,20587,7618Ж_Сайкина9,"Москва ул. Сайкина, д. 9/1",55.707476,37.668606,Москва
7633,20618,7633МТ_Столярный3эт3,"Москва пер. Столярный, д. 3 к. 14",55.765093,37.568776,Москва
7636,20633,7636МТ_Профсоюзная56эт10,"Москва ул. Профсоюзная, д. 56",55.670021,37.552480,Москва
7643,20646,7643МТ_Варшавское170эт1,"Москва ш. Варшавское, д. 170Г",55.579653,37.591072,Москва
7644,20647,7644МТ_Отрадная2эт9,"Москва ул. Отрадная , д. 2Б стр. 9",55.856366,37.600415,Москва
7645,20648,7645МТ_Выборгская22эт2,"Москва ул. Выборгская , д. 22 стр. 2",55.835073,37.503127,Москва
7656,20663,7656Ж_Старобитцевская21,"Москва ул. Старобитцевская, д. 21 к. 2",55.577800,37.576843,Москва
7661,20672,7661Ж_Чечерский51,"Москва пр. Чечёрский, д. 51",55.524431,37.517779,Москва
7679,20694,7679Ш_Корабельная3,"Москва ул. Корабельная, д. 3А",55.686558,37.700056,Москва
7690,20713,7690МТ_Калашный14эт1,"Москва пер. Калашный, д. 14",55.756341,37.600945,Москва
7694,20717,7694МТ_Николоямская24эт1,"Москва ул. Николоямская, д. 24 стр. 1",55.747039,37.653676,Москва
7702,20732,7702МТ_10-яПарковая18эт1,"Москва ул. 10-я Парковая, д. 18",55.798014,37.802553,Москва
7708,20745,7708МТ_ГрузинскийВал7эт10,"Москва ул. Грузинский Вал, д. 7",55.774102,37.576834,Москва
7712,20749,7712МТ_Научный18эт1,"Москва пр. Научный, д. 18",55.654406,37.554636,Москва
7720,20842,7720МТ_Берсеневская8эт5,"Москва наб. Берсеневская, д. 8 стр. 1",55.741242,37.609056,Москва
7730,20878,7730МТ_Большой42эт1,"Москва б-р Большой, д. 42 стр. 1",55.692318,37.347485,Москва
7731,20879,7731МТ_Лужнецкая2эт3,"Москва наб. Лужнецкая, д. 2/4 стр. 4",55.715489,37.573627,Москва
7732,20880,7732МТ_Рочдельская15эт4,"Москва ул. Рочдельская, д. 15 стр. 43",55.756077,37.566018,Москва
7733,20881,7733МТ_Вернадского101эт2,"Москва пр-т Вернадского, д. 101 к. 3",55.665502,37.486562,Москва
7734,20882,7734МТ_Наметкина12эт1,"Москва ул. Наметкина, д. 12А",55.661552,37.554753,Москва
7735,20883,7735МТ_Ленинградское39стр1эт3,"Москва ш. Ленинградское, д. 39А стр. 1",55.837823,37.480669,Москва
7736,20884,7736МТ_Фитаревская14эт1,"Москва ул. Фитаревская, д. 14 стр. 1, пом 25",55.567891,37.481334,Москва
7738,20886,7738МТ_ГрузинскийВал7эт13,"Москва ул. Грузинский Вал, д. 7",55.774102,37.576834,Москва
7739,20887,7739МТ_ГрузинскийВал7эт6,"Москва ул. Грузинский Вал, д. 7",55.774102,37.576834,Москва
7746,20900,7746МТ_Потаповский5эт-1,"Москва пер. Потаповский, д. 5 стр. 2",55.761619,37.640659,Москва
7747,20901,7747МТ_Марксистская34эт9,"Москва ул. Марксистская, д. 34 к. 7",55.735778,37.663970,Москва
7750,20906,7750МТ_Арбат10эт4,"Москва ул. Арбат, д. 10",55.751386,37.596678,Москва
7762,20927,7762МТ_Новолесная2эт6,"Москва ул. Новолесная, д. 2",55.781737,37.592384,Москва
7764,20929,7764МТ_Башиловская24эт1,"Москва ул. Башиловская, д. 24",55.803226,37.575307,Москва
10001,20937,10001_Тест,"Москва  Тестовская, д. 1",55.747900,37.532700,Москва
7779,20960,7779МТ_Орликов2эт2,"Москва пер. Орликов, д. 2",55.770244,37.647343,Москва
7786,20968,7786МТ_МалыйХаритоньевский6эт2,"Москва пер. Малый Харитоньевский, д. 6 стр. 3",55.766420,37.644136,Москва
7788,20988,7788МТ_БутырскийВал18эт1,"Москва ул. Бутырский Вал, д. 18",55.779747,37.586338,Москва
7792,20997,7792МТ_2-яБрестская48эт15,"Москва ул. 2-я Брестская, д. 48",55.774968,37.584712,Москва
98551,21014,98551ФК_ЗемлянойВал38,"Москва ДаркКитчен, ул. Земляной Вал, д. 38-40/15, стр.9",55.755110,37.656523,Москва
7798,21016,7798МТ_Усачева2эт5,"Москва ул. Усачева, д. 2 стр. 1",55.730847,37.576789,Москва
7814,21038,7814МТ_Ленинградский68эт1,"Москва пр-т Ленинградский, д. 68 стр. 25",55.804678,37.524426,Москва
7820,21044,7820МТ_Трифоновская57эт4,"Москва ул. Трифоновская, д. 57А",55.789892,37.631388,Москва
98544,21047,98544ФК_ОхотныйРяд2,"Москва ДаркКитчен ул. Охотный Ряд, д. 2",55.757131,37.617114,Москва
7842,21072,7842МТ_Марксистская22эт1,"Москва ул. Марксистская, д. 22 стр. 1",55.737811,37.660575,Москва
7843,21073,7843МТ_Кочновский4эт8,"Москва пр. Кочновский, д. 4 к. 3",55.807319,37.544773,Москва
7857,21122,7857МТ_Мурманский14эт9,"Москва пр. Мурманский, д. 14 к. 1",55.806995,37.622324,Москва
98504,21127,98504ФК_БольшаяСпасская8,"Москва ДаркКитчен, ул. Большая Спасская , д. 8, стр. 1А",55.775677,37.643219,Москва
